{"type":"FeatureCollection","name":"Alvo_Buzina","features":[{"type":"Feature","properties":{"NOME":"Alvo Buzina","ORIGEM":"Dissolução dos limites vigentes das OS 04.01 a OS 04.05","NATUREZA":"Camada-síntese para enquadramento cartográfico; não substitui os limites individuais","REVISAO":"2026-08-07"},"geometry":{"type":"Polygon","coordinates":[[[-46.86671516816442,-11.690661724315705],[-46.86695547785306,-11.690308898785227],[-46.867314482064444,-11.690670296863145],[-46.8676065912981,-11.690998865933166],[-46.868019205266876,-11.69120317499868],[-46.86842914433394,-11.691213701634382],[-46.86889006045039,-11.691290242753984],[-46.86931054122474,-11.69143664801478],[-46.86968478810983,-11.691636142571257],[-46.870058323149514,-11.691920789826588],[-46.870395437222285,-11.692231073992952],[-46.87056112009911,-11.692661521325425],[-46.870738444250975,-11.693036301885698],[-46.871039549886504,-11.693392467481399],[-46.87129646951462,-11.69379248960602],[-46.871622924016435,-11.694099135286379],[-46.87184548032744,-11.694421463768382],[-46.87218589204156,-11.694744016715727],[-46.87254354619038,-11.694943705284013],[-46.873016443491736,-11.694946130050381],[-46.87344538424315,-11.694985720863258],[-46.87390459547879,-11.695012368013264],[-46.87431346273654,-11.694958353121798],[-46.87472331972903,-11.69480616647926],[-46.8752463341694,-11.694310837861204],[-46.87517382968286,-11.694276149946353],[-46.87505511010347,-11.693888606329587],[-46.87486295422135,-11.693450471835659],[-46.87507319062239,-11.69305951153103],[-46.875001531484905,-11.692591754311634],[-46.874781493059714,-11.692166818212073],[-46.87498257966895,-11.691711017083298],[-46.87531296539301,-11.691484415706663],[-46.87575773124212,-11.691368879654238],[-46.87624040846889,-11.6912584280061],[-46.876599604436365,-11.691251739005809],[-46.877013169832885,-11.691174550296415],[-46.87745570741917,-11.691082437627104],[-46.877914631804074,-11.691149214701886],[-46.87835202632494,-11.691260152408281],[-46.878651196286455,-11.691559556071585],[-46.879063647032005,-11.691684304981479],[-46.879433023771824,-11.691541778546998],[-46.87982952366345,-11.691341404530235],[-46.880288913609604,-11.691246103825543],[-46.88070949287707,-11.691121318370794],[-46.88108707178558,-11.690998531828457],[-46.881558925379686,-11.690915621407422],[-46.882017588645326,-11.69087591320137],[-46.88256144914166,-11.691025646356113],[-46.88291558399516,-11.691288075876177],[-46.88336382051434,-11.691469619932501],[-46.88380153618195,-11.691573586725736],[-46.88419712464134,-11.691632272708869],[-46.88449657888676,-11.6916339206523],[-46.88477307306261,-11.691427549581043],[-46.88519139838086,-11.691105630704465],[-46.8854921530084,-11.690825250495994],[-46.88567153906497,-11.690485919896108],[-46.88579030608946,-11.690147078217127],[-46.88627196840118,-11.689766078274646],[-46.88635011303451,-11.689387641413171],[-46.886529094008736,-11.688988745827185],[-46.886708116869684,-11.688609645449437],[-46.88709024358591,-11.688428158498873],[-46.88720860367177,-11.688029571113372],[-46.887509444808686,-11.687749188955136],[-46.887790422126685,-11.687528595014465],[-46.88797038617479,-11.687288779763126],[-46.88835246647393,-11.687087315513727],[-46.88853135171949,-11.686688419892812],[-46.888753013400034,-11.68664718883532],[-46.88923664448935,-11.686544574904321],[-46.88998471473271,-11.68675839246453],[-46.89010833057161,-11.687135409898834],[-46.8901312194674,-11.68733249092172],[-46.89011031129742,-11.68729222417624],[-46.889890603425506,-11.687297016125909],[-46.889739039987276,-11.687505098999214],[-46.88981136154201,-11.687742801281622],[-46.89015890683821,-11.687898965823708],[-46.890550125474256,-11.688206517084039],[-46.8909176966892,-11.688434951232363],[-46.891292654907204,-11.688495029322647],[-46.89168207404065,-11.688496709782067],[-46.89195612265327,-11.68852581582985],[-46.89219688563756,-11.687326737194919],[-46.892618450431165,-11.687078998614163],[-46.89243105520068,-11.68669652812058],[-46.892075015476784,-11.68595098715743],[-46.89242829454454,-11.686060379514803],[-46.89263304198307,-11.686013562592565],[-46.89279274168464,-11.685829107183121],[-46.89278195514302,-11.685537217770959],[-46.892498610076146,-11.68532712166264],[-46.89229720369349,-11.685109524767162],[-46.892260522359585,-11.685109947464873],[-46.87337512160054,-11.678353386567483],[-46.85715679332766,-11.668441517196618],[-46.858041223312576,-11.676885462543243],[-46.858041198382516,-11.67688548456194],[-46.8571565,-11.6684415],[-46.8568617,-11.6664348],[-46.8576685,-11.6550856],[-46.8563116,-11.6536415],[-46.8561745,-11.6535803],[-46.8501169,-11.6524646],[-46.8498861,-11.6545632],[-46.8461382,-11.6562302],[-46.8461945,-11.656463],[-46.8447211,-11.6573123],[-46.8489845,-11.6627264],[-46.8435264,-11.6679962],[-46.8434838,-11.6682598],[-46.8434204,-11.6685088],[-46.8431196,-11.6687036],[-46.8429171,-11.6686086],[-46.8427681,-11.6687102],[-46.842705,-11.6689653],[-46.8431206,-11.6693886],[-46.8432749,-11.6695534],[-46.8432457,-11.669822],[-46.8432248,-11.6698392],[-46.8434136,-11.6698605],[-46.8430693,-11.6700789],[-46.843181,-11.6703225],[-46.843136,-11.6707791],[-46.8432895,-11.6708808],[-46.8432813,-11.6711011],[-46.8433284,-11.6713227],[-46.8436482,-11.6715627],[-46.8441515,-11.6717705],[-46.8439558,-11.6719996],[-46.8436816,-11.6720502],[-46.8435122,-11.6723257],[-46.8432677,-11.6724453],[-46.8432418,-11.6725414],[-46.8433555,-11.6726342],[-46.8433582,-11.6730057],[-46.8433251,-11.6732805],[-46.8434431,-11.6736233],[-46.8435186,-11.6739353],[-46.8432594,-11.6741799],[-46.8430274,-11.6742676],[-46.8433701,-11.6744825],[-46.8430438,-11.6745254],[-46.843346,-11.6747532],[-46.8437013,-11.675014],[-46.8434039,-11.6751317],[-46.8432113,-11.6753865],[-46.8430024,-11.6756059],[-46.8431332,-11.6759323],[-46.8431868,-11.6761986],[-46.843291,-11.6763971],[-46.8436092,-11.6765809],[-46.8435654,-11.6768452],[-46.8436104,-11.677044],[-46.8437724,-11.6772439],[-46.8437365,-11.6777026],[-46.8439058,-11.6780006],[-46.8437611,-11.6782641],[-46.8436975,-11.6785292],[-46.84345754315797,-11.678699672039828],[-46.8436558,-11.6785061],[-46.8437181,-11.6782478],[-46.8438536,-11.6780008],[-46.8436897,-11.6777128],[-46.8437253,-11.6772583],[-46.8435681,-11.6770642],[-46.8435189,-11.6768464],[-46.8435589,-11.6766042],[-46.8432564,-11.6764294],[-46.8431433,-11.6762136],[-46.8430892,-11.675945],[-46.8429492,-11.6755958],[-46.8431761,-11.6753575],[-46.843375,-11.6750944],[-46.8436083,-11.6750022],[-46.8433183,-11.6747892],[-46.8429281,-11.674495],[-46.8432394,-11.6744542],[-46.8429261,-11.6742575],[-46.8432344,-11.6741411],[-46.8434681,-11.6739206],[-46.8433992,-11.6736358],[-46.8432783,-11.6732853],[-46.8433125,-11.6730031],[-46.84331,-11.6726556],[-46.84319,-11.6725578],[-46.8432289,-11.6724139],[-46.84348,-11.6722911],[-46.8436531,-11.6720094],[-46.8439314,-11.6719581],[-46.8440764,-11.6717883],[-46.8436253,-11.6716022],[-46.8432872,-11.6713483],[-46.8432353,-11.671105],[-46.8432428,-11.6709042],[-46.8430878,-11.6708017],[-46.8431344,-11.6703303],[-46.8430114,-11.6700622],[-46.8432808,-11.6698911],[-46.8431136,-11.6698722],[-46.8432022,-11.6697992],[-46.8432272,-11.6695689],[-46.8430872,-11.6694197],[-46.8426544,-11.6689789],[-46.8427278,-11.6686828],[-46.8429128,-11.6685564],[-46.8431161,-11.6686519],[-46.8433803,-11.6684808],[-46.8434394,-11.6682489],[-46.8434761,-11.6678619],[-46.8431956,-11.6679158],[-46.8429408,-11.6678558],[-46.842675,-11.6679431],[-46.8425692,-11.6679036],[-46.8423497,-11.6680822],[-46.8422175,-11.6676367],[-46.8418947,-11.6679342],[-46.8417475,-11.6678603],[-46.8416425,-11.6676558],[-46.8412286,-11.6677986],[-46.8411528,-11.6675819],[-46.8409456,-11.66763],[-46.8409297,-11.6678636],[-46.8406775,-11.6680175],[-46.8404433,-11.6680492],[-46.8403936,-11.6677731],[-46.8400975,-11.6680372],[-46.83995,-11.6680875],[-46.8397256,-11.6681753],[-46.8396781,-11.6680008],[-46.8395997,-11.6679947],[-46.8393622,-11.6680942],[-46.8393494,-11.6679406],[-46.8392094,-11.6678083],[-46.8392253,-11.6676319],[-46.8390403,-11.6676092],[-46.8388878,-11.6675592],[-46.8387758,-11.6676864],[-46.8385636,-11.6675036],[-46.8385178,-11.6675572],[-46.8384214,-11.6674097],[-46.8382011,-11.6673981],[-46.8379283,-11.6672722],[-46.8376664,-11.6672808],[-46.8376606,-11.6672911],[-46.8374508,-11.6671425],[-46.8374403,-11.6671497],[-46.8373425,-11.6671767],[-46.837325,-11.6671756],[-46.8372364,-11.6673086],[-46.8372153,-11.6672936],[-46.8371206,-11.6672592],[-46.8370167,-11.6672103],[-46.8368681,-11.6671333],[-46.8369208,-11.6671275],[-46.8371972,-11.6670364],[-46.8368753,-11.6669861],[-46.8370814,-11.6669428],[-46.8372425,-11.6667758],[-46.8370275,-11.6666978],[-46.8368558,-11.6667528],[-46.8367056,-11.6667547],[-46.8367175,-11.6665919],[-46.83639,-11.6664369],[-46.8363394,-11.6662789],[-46.8361778,-11.6663825],[-46.8359469,-11.6664339],[-46.8357525,-11.6662464],[-46.8357425,-11.6661436],[-46.8356764,-11.6661728],[-46.8351542,-11.6663253],[-46.8347633,-11.6664231],[-46.8345258,-11.6664817],[-46.8344822,-11.6663053],[-46.8341075,-11.6662311],[-46.83375,-11.6665167],[-46.8336775,-11.6666378],[-46.8338983,-11.6667831],[-46.8337994,-11.6668725],[-46.8336228,-11.6668103],[-46.8336131,-11.6667378],[-46.833515,-11.6666778],[-46.8334494,-11.6667289],[-46.8332756,-11.6668636],[-46.8330967,-11.6669914],[-46.8328814,-11.6671386],[-46.8327353,-11.6669192],[-46.8326025,-11.6667758],[-46.8324442,-11.6667775],[-46.8322647,-11.6667769],[-46.8321661,-11.6668158],[-46.8319761,-11.6667486],[-46.8317331,-11.6668017],[-46.8314369,-11.6668319],[-46.8313969,-11.6669694],[-46.8314681,-11.6672167],[-46.8314106,-11.6673125],[-46.8311456,-11.6672506],[-46.8311692,-11.6671225],[-46.8308978,-11.667055],[-46.8307653,-11.6670892],[-46.8306706,-11.6668781],[-46.8305603,-11.6668125],[-46.8304503,-11.6666903],[-46.8301972,-11.6664653],[-46.8300339,-11.66649],[-46.8301333,-11.6667575],[-46.8298817,-11.6667861],[-46.8299367,-11.6670247],[-46.8297453,-11.6669594],[-46.8298069,-11.6671286],[-46.8297769,-11.6673572],[-46.8297542,-11.6673911],[-46.8296019,-11.6676794],[-46.8296681,-11.6678486],[-46.8296967,-11.6679256],[-46.8298494,-11.6679708],[-46.8297886,-11.6682756],[-46.8298722,-11.6683719],[-46.8297597,-11.6684519],[-46.8298139,-11.6684978],[-46.8299469,-11.6684808],[-46.8298983,-11.6687294],[-46.8297506,-11.6688431],[-46.8296817,-11.6688775],[-46.8296806,-11.6690567],[-46.8297622,-11.6691308],[-46.8296833,-11.6692603],[-46.8296281,-11.6694553],[-46.8293811,-11.6694661],[-46.8294297,-11.6695042],[-46.8293547,-11.6695222],[-46.8293922,-11.6696722],[-46.8291425,-11.6697069],[-46.8290714,-11.6697919],[-46.8290258,-11.6698006],[-46.8288572,-11.6698028],[-46.8286628,-11.6698347],[-46.8286575,-11.6699772],[-46.8284586,-11.6700064],[-46.8283544,-11.6700461],[-46.8282764,-11.6702614],[-46.8282081,-11.670515],[-46.8280633,-11.6705036],[-46.8279225,-11.6705339],[-46.8278133,-11.6706706],[-46.8275978,-11.6706583],[-46.8274731,-11.6708156],[-46.8274661,-11.6708769],[-46.8273581,-11.6709256],[-46.8272589,-11.6710478],[-46.8270725,-11.6710664],[-46.8269378,-11.6712244],[-46.8267347,-11.6713225],[-46.8265797,-11.6712667],[-46.8264222,-11.6713314],[-46.8262825,-11.6714547],[-46.8261128,-11.6714733],[-46.8258258,-11.6716061],[-46.8252583,-11.6722586],[-46.8250778,-11.6724611],[-46.8243372,-11.6731858],[-46.8212022,-11.6738489],[-46.8217433,-11.6826008],[-46.8217003,-11.6833064],[-46.8233328,-11.6837858],[-46.8240169,-11.6841342],[-46.8240383,-11.6841492],[-46.8242264,-11.6842294],[-46.82442,-11.6843603],[-46.8247081,-11.6843883],[-46.8248736,-11.6845531],[-46.8250747,-11.6846278],[-46.8251,-11.6847364],[-46.8252867,-11.6847458],[-46.8255819,-11.6844983],[-46.8258617,-11.6845517],[-46.8261119,-11.6846853],[-46.8263767,-11.6848642],[-46.8266267,-11.6851567],[-46.8268678,-11.6852836],[-46.8271369,-11.6853786],[-46.8272744,-11.6854561],[-46.8275286,-11.6854439],[-46.8278131,-11.6853889],[-46.8279375,-11.6852467],[-46.8282408,-11.6852458],[-46.8285653,-11.6852183],[-46.8286342,-11.6851658],[-46.8287964,-11.6850922],[-46.8289147,-11.6849392],[-46.8290567,-11.6846389],[-46.8289011,-11.6845319],[-46.8289933,-11.6843039],[-46.8291361,-11.6843433],[-46.8291689,-11.6842086],[-46.8290089,-11.6842111],[-46.8290589,-11.6839903],[-46.8293047,-11.6839133],[-46.8293869,-11.6837744],[-46.8295164,-11.6838025],[-46.8296831,-11.6836261],[-46.8298414,-11.6834911],[-46.8298833,-11.6833317],[-46.8301519,-11.6834519],[-46.8301372,-11.6833286],[-46.8301889,-11.6833778],[-46.8302419,-11.68313],[-46.83039,-11.6830886],[-46.8304158,-11.6829558],[-46.8306061,-11.6828989],[-46.8307564,-11.6827239],[-46.8311661,-11.6827756],[-46.8311072,-11.6826231],[-46.8312456,-11.6825747],[-46.8312856,-11.6824739],[-46.8314825,-11.6825897],[-46.8315631,-11.6825714],[-46.8318306,-11.6824558],[-46.8319128,-11.6825308],[-46.8320594,-11.6824206],[-46.8321553,-11.6821689],[-46.832315,-11.6820622],[-46.8325386,-11.6822575],[-46.8326286,-11.6825489],[-46.8328125,-11.6825808],[-46.8331722,-11.6829217],[-46.8332669,-11.6829894],[-46.8332281,-11.6827236],[-46.8334089,-11.6826883],[-46.8336044,-11.6826894],[-46.8334611,-11.6825111],[-46.8335239,-11.6824364],[-46.8337556,-11.6824728],[-46.8338044,-11.6823019],[-46.8339531,-11.6823336],[-46.833975,-11.6826011],[-46.8339644,-11.6828528],[-46.8341333,-11.6826883],[-46.8343433,-11.6828339],[-46.8343406,-11.6829789],[-46.8344581,-11.6829747],[-46.8344861,-11.6829783],[-46.8344914,-11.6827539],[-46.8345103,-11.6826481],[-46.8347139,-11.6826306],[-46.8348806,-11.6825847],[-46.8351189,-11.6826364],[-46.8354214,-11.6826619],[-46.8356783,-11.6827961],[-46.8355761,-11.6828908],[-46.8354544,-11.6828719],[-46.8354633,-11.6829953],[-46.835735,-11.6830311],[-46.8360836,-11.683105],[-46.8360358,-11.6832664],[-46.8357467,-11.6832844],[-46.8355492,-11.6832539],[-46.8355778,-11.6834472],[-46.8353725,-11.6836339],[-46.8353986,-11.6838497],[-46.8356594,-11.6839581],[-46.8359375,-11.6840628],[-46.8361831,-11.6841997],[-46.8363339,-11.6841061],[-46.8365247,-11.6842597],[-46.8366519,-11.6842108],[-46.8366797,-11.6838853],[-46.8367747,-11.6839517],[-46.8367856,-11.6838639],[-46.8366214,-11.6837689],[-46.8366186,-11.6836486],[-46.8368775,-11.6836325],[-46.8369011,-11.6835508],[-46.8368472,-11.6834525],[-46.8368164,-11.6832992],[-46.8368258,-11.6832728],[-46.8371089,-11.68323],[-46.8369247,-11.6830861],[-46.8370956,-11.6829917],[-46.8372011,-11.6827575],[-46.8375078,-11.6826978],[-46.8377625,-11.6826425],[-46.8380506,-11.6826239],[-46.8382594,-11.6823906],[-46.8381422,-11.6821406],[-46.83825,-11.6821069],[-46.8380842,-11.6819694],[-46.8380219,-11.6818056],[-46.8382436,-11.6817722],[-46.8384872,-11.6818133],[-46.838625,-11.6820536],[-46.8386975,-11.6820542],[-46.8388956,-11.6819236],[-46.8390836,-11.6819258],[-46.8390917,-11.6817161],[-46.8389875,-11.6815156],[-46.8391325,-11.6813689],[-46.8393353,-11.6812347],[-46.8394706,-11.6812283],[-46.8396628,-11.6813853],[-46.8398158,-11.6814483],[-46.8399597,-11.6812806],[-46.8400197,-11.6812],[-46.8399897,-11.6809981],[-46.8399686,-11.6807053],[-46.8400692,-11.6806272],[-46.8403056,-11.6806217],[-46.8404567,-11.6805517],[-46.8407111,-11.68056],[-46.8408353,-11.6804364],[-46.8406156,-11.6804036],[-46.8406583,-11.6802628],[-46.8408461,-11.6802567],[-46.8409956,-11.680075],[-46.8410925,-11.6799022],[-46.8413481,-11.6798011],[-46.8414833,-11.6795592],[-46.8416311,-11.6793378],[-46.8415444,-11.6792425],[-46.8416458,-11.6790797],[-46.8417528,-11.6788567],[-46.8420022,-11.6789161],[-46.8423628,-11.6787931],[-46.8426881,-11.6786931],[-46.8430136,-11.6786558],[-46.8433464,-11.6787064],[-46.843456830476406,-11.678700303837953],[-46.8435015,-11.6788525],[-46.8436933,-11.6789901],[-46.8437995,-11.6792902],[-46.8440613,-11.6792886],[-46.8442204,-11.6796655],[-46.8444872,-11.6796164],[-46.8447067,-11.679464],[-46.8448073,-11.6792314],[-46.8448983,-11.6788642],[-46.8451714,-11.6787747],[-46.8452755,-11.6788904],[-46.8454126,-11.6789776],[-46.8457151,-11.6791285],[-46.8460408,-11.6793776],[-46.8459012,-11.6796072],[-46.8459275,-11.6797499],[-46.8459322,-11.6798705],[-46.845772,-11.6801857],[-46.8454928,-11.6804499],[-46.8454395,-11.6807631],[-46.8454558,-11.6810837],[-46.84542,-11.6813971],[-46.8454112,-11.6817576],[-46.8457462,-11.6818279],[-46.8459107,-11.6818925],[-46.84605,-11.6820196],[-46.8461389,-11.6821586],[-46.8462032,-11.6822869],[-46.8462805,-11.6826631],[-46.8464275,-11.6827555],[-46.8463962,-11.6830687],[-46.8462262,-11.6832673],[-46.8460448,-11.6831806],[-46.8460428,-11.6831467],[-46.8457677,-11.6833615],[-46.8456283,-11.6835927],[-46.84550685796063,-11.683888272161555],[-46.8455856,-11.6835753],[-46.8457328,-11.6833314],[-46.8459956,-11.6831258],[-46.8459944,-11.6831064],[-46.8462142,-11.6832114],[-46.8463522,-11.6830503],[-46.8463792,-11.6827786],[-46.8462394,-11.6826908],[-46.8461594,-11.6823017],[-46.8460989,-11.6821808],[-46.8460144,-11.6820486],[-46.8458858,-11.6819314],[-46.8457331,-11.6818714],[-46.8453644,-11.6817942],[-46.8453742,-11.6813942],[-46.8454097,-11.6810825],[-46.8453936,-11.6807606],[-46.84545,-11.6804275],[-46.8457347,-11.6801586],[-46.8458861,-11.6798606],[-46.8458819,-11.679755],[-46.8458531,-11.6795986],[-46.8459806,-11.6793889],[-46.8456906,-11.6791669],[-46.8453897,-11.6790169],[-46.8452453,-11.678925],[-46.8451572,-11.6788269],[-46.8449369,-11.6788992],[-46.8448511,-11.6792458],[-46.8447439,-11.6794936],[-46.8445053,-11.6796589],[-46.8441925,-11.6797167],[-46.8440308,-11.6793342],[-46.8437669,-11.6793356],[-46.8436547,-11.6790183],[-46.8434556,-11.6788753],[-46.8433436,-11.6787244],[-46.8430133,-11.6786739],[-46.8426917,-11.6787108],[-46.8423683,-11.67881],[-46.8420031,-11.678935],[-46.8417631,-11.6788778],[-46.8416619,-11.6790883],[-46.8415672,-11.6792403],[-46.8416542,-11.6793361],[-46.8414992,-11.6795683],[-46.8413611,-11.6798156],[-46.8411053,-11.6799167],[-46.8410108,-11.680085],[-46.8408553,-11.6802747],[-46.8406722,-11.6802806],[-46.8406394,-11.6803886],[-46.8408736,-11.6804236],[-46.8407186,-11.6805783],[-46.8404606,-11.68057],[-46.84031,-11.6806397],[-46.8400756,-11.680645],[-46.8399875,-11.6807136],[-46.8400078,-11.6809961],[-46.8400389,-11.6812047],[-46.8399739,-11.6812917],[-46.8398211,-11.6814703],[-46.8396533,-11.6814008],[-46.8394642,-11.6812467],[-46.8393411,-11.6812525],[-46.8391444,-11.6813831],[-46.83901,-11.6815189],[-46.8391103,-11.6817122],[-46.8391014,-11.6819442],[-46.8389008,-11.6819417],[-46.8387028,-11.6820725],[-46.8386144,-11.6820717],[-46.8384756,-11.6818297],[-46.8382436,-11.6817906],[-46.8380472,-11.68182],[-46.8380997,-11.6819589],[-46.8382872,-11.6821142],[-46.8381675,-11.6821517],[-46.8382811,-11.6823936],[-46.8380592,-11.6826414],[-46.8377653,-11.6826606],[-46.8375117,-11.6827156],[-46.8372142,-11.6827733],[-46.83711,-11.6830044],[-46.8369575,-11.6830886],[-46.8371533,-11.6832417],[-46.8368394,-11.6832889],[-46.8368356,-11.6833006],[-46.8368647,-11.6834464],[-46.8369208,-11.6835486],[-46.8368914,-11.6836497],[-46.8366372,-11.6836656],[-46.8366394,-11.6837583],[-46.8368053,-11.6838542],[-46.8367892,-11.6839839],[-46.8366953,-11.6839183],[-46.8366694,-11.6842236],[-46.8365214,-11.6842806],[-46.8363325,-11.6841283],[-46.8361836,-11.6842208],[-46.8359297,-11.6840792],[-46.8356525,-11.6839747],[-46.8353817,-11.6838625],[-46.8353531,-11.6836269],[-46.8355581,-11.6834403],[-46.8355272,-11.6832322],[-46.8357475,-11.6832664],[-46.8360219,-11.6832492],[-46.8360603,-11.6831186],[-46.8357317,-11.6830489],[-46.8354461,-11.6830111],[-46.8354347,-11.6828506],[-46.8355703,-11.6828717],[-46.8356472,-11.6828003],[-46.8354161,-11.6826794],[-46.8351164,-11.6826544],[-46.8348811,-11.6826033],[-46.8347172,-11.6826483],[-46.8345258,-11.6826647],[-46.8345097,-11.6827558],[-46.8345039,-11.6829986],[-46.8344572,-11.6829928],[-46.8343219,-11.6829975],[-46.8343247,-11.6828431],[-46.8341353,-11.6827117],[-46.8339442,-11.6828981],[-46.8339567,-11.6826014],[-46.8339358,-11.6823483],[-46.8338175,-11.6823231],[-46.8337686,-11.6824931],[-46.8335314,-11.6824558],[-46.8334847,-11.6825114],[-46.8336425,-11.6827078],[-46.8334106,-11.6827064],[-46.8332486,-11.6827381],[-46.8332914,-11.6830294],[-46.8331603,-11.6829356],[-46.8328039,-11.6825978],[-46.8326144,-11.6825647],[-46.8325225,-11.6822675],[-46.8323136,-11.6820853],[-46.8321706,-11.6821806],[-46.8320747,-11.6824317],[-46.8319117,-11.6825544],[-46.8318269,-11.6824769],[-46.8315686,-11.6825886],[-46.8314792,-11.6826089],[-46.8312947,-11.6825003],[-46.8312594,-11.6825892],[-46.8311311,-11.6826342],[-46.8311942,-11.6827972],[-46.8307639,-11.6827431],[-46.8306164,-11.6829147],[-46.8304317,-11.68297],[-46.8304058,-11.6831028],[-46.8302575,-11.6831444],[-46.8302,-11.6834136],[-46.8301614,-11.6833769],[-46.8301739,-11.6834817],[-46.8298956,-11.6833569],[-46.8298578,-11.6835011],[-46.8296958,-11.6836392],[-46.8295228,-11.6838225],[-46.8293958,-11.6837947],[-46.8293169,-11.6839283],[-46.8290744,-11.6840044],[-46.8290317,-11.6841928],[-46.8291922,-11.68419],[-46.8291494,-11.6843658],[-46.8290044,-11.6843258],[-46.8289236,-11.6845253],[-46.82908,-11.6846328],[-46.8289303,-11.6849483],[-46.8288108,-11.6851031],[-46.8287417,-11.6853331],[-46.8277056,-11.6877033],[-46.8274044,-11.6883367],[-46.8273542,-11.6891406],[-46.8277667,-11.6897106],[-46.8278956,-11.6898158],[-46.8309458,-11.6911683],[-46.8309925,-11.6912178],[-46.8339817,-11.6933745],[-46.8340916,-11.6931317],[-46.8343389,-11.6930555],[-46.8344472,-11.6929811],[-46.8346985,-11.6927758],[-46.8347061,-11.6927718],[-46.8348131,-11.6926458],[-46.8348168,-11.6926417],[-46.8349265,-11.6924637],[-46.8350193,-11.692281],[-46.8351214,-11.6921248],[-46.8352018,-11.6919069],[-46.8352979,-11.6916999],[-46.8354108,-11.6915591],[-46.8355541,-11.6914513],[-46.8357558,-11.691335],[-46.8359682,-11.6911906],[-46.8360952,-11.6909728],[-46.836095,-11.6909661],[-46.8362651,-11.6906635],[-46.8364241,-11.6905286],[-46.8364434,-11.6905071],[-46.8365866,-11.6903323],[-46.8368365,-11.6900004],[-46.8373033,-11.689698],[-46.8375403,-11.6895575],[-46.8375612,-11.6895411],[-46.8375874,-11.6895246],[-46.8376188,-11.6895081],[-46.83781,-11.6893746],[-46.8378265,-11.6893521],[-46.8378319,-11.6893465],[-46.8380225,-11.6892096],[-46.8380502,-11.6891865],[-46.8382958,-11.6890167],[-46.8384565,-11.6888243],[-46.8384873,-11.6885758],[-46.8385487,-11.688305],[-46.8386171,-11.688105],[-46.8387904,-11.6878444],[-46.8389542,-11.6877531],[-46.8390003,-11.6877338],[-46.8391205,-11.6876899],[-46.8391298,-11.6876802],[-46.8393831,-11.6875517],[-46.8394022,-11.6875317],[-46.8396281,-11.6873951],[-46.8398028,-11.6872192],[-46.8398132,-11.6872034],[-46.8399536,-11.6870277],[-46.8402259,-11.6864946],[-46.8405035,-11.6861331],[-46.840717,-11.6859663],[-46.8407255,-11.6859574],[-46.8412151,-11.6856444],[-46.8412417,-11.6856263],[-46.8416521,-11.6852404],[-46.842,-11.6849295],[-46.8422727,-11.6845628],[-46.8425108,-11.6843559],[-46.8429635,-11.6843161],[-46.8432736,-11.684326],[-46.8434515,-11.68443],[-46.843466,-11.68443],[-46.8438042,-11.6845518],[-46.844154,-11.6846423],[-46.8444331,-11.6846573],[-46.8446272,-11.6846497],[-46.8447383,-11.6846387],[-46.8448153,-11.6845243],[-46.8448164,-11.6845114],[-46.8448797,-11.6843015],[-46.8449848,-11.684144],[-46.8451053,-11.6839944],[-46.8453525,-11.6839522],[-46.84550660752729,-11.683888937960587],[-46.8455275,-11.6839943],[-46.8457681,-11.6840767],[-46.8460299,-11.6841482],[-46.8461481,-11.6840641],[-46.8463851,-11.6839287],[-46.8466957,-11.6837594],[-46.8470306,-11.683623],[-46.8472104,-11.683468],[-46.8473366,-11.6832271],[-46.8475294,-11.6830296],[-46.8478227,-11.6828456],[-46.8481167,-11.6827209],[-46.8485785,-11.6826119],[-46.8486077,-11.6828942],[-46.8487978,-11.6831447],[-46.8489689,-11.6833556],[-46.8491792,-11.6835317],[-46.8494218,-11.683675],[-46.8496819,-11.6834729],[-46.8499634,-11.6833713],[-46.8501512,-11.6833251],[-46.8503214,-11.6832674],[-46.8504967,-11.6833394],[-46.8506077,-11.6833453],[-46.8508515,-11.6832806],[-46.8509728,-11.6831608],[-46.8511612,-11.6832921],[-46.8513968,-11.6833182],[-46.8516963,-11.6832929],[-46.8519044,-11.6833271],[-46.8522101,-11.6833595],[-46.8525462,-11.6834665],[-46.8529006,-11.683524],[-46.8531824,-11.6835272],[-46.8535799,-11.6835366],[-46.8539069,-11.6835932],[-46.8541267,-11.6838966],[-46.8540825,-11.684217],[-46.8542296,-11.6845662],[-46.854376,-11.684921],[-46.8543734,-11.6852893],[-46.8541964,-11.6856248],[-46.8541194,-11.6858931],[-46.8543659,-11.6860274],[-46.8545647,-11.686303],[-46.854577,-11.6863339],[-46.8546735,-11.6865126],[-46.8549769,-11.6868806],[-46.855159,-11.6866537],[-46.8558214,-11.6828606],[-46.85546344286341,-11.681190545660602],[-46.85582144985617,-11.682860633407788],[-46.855159041922086,-11.686653699909385],[-46.855335565615654,-11.686526190286715],[-46.855954165726644,-11.686787489723331],[-46.85637295773012,-11.687232762886147],[-46.85697288957547,-11.687541184368543],[-46.85767042570986,-11.687866417986202],[-46.857385849109015,-11.688652049274605],[-46.857853508455385,-11.689231686993216],[-46.858293568324775,-11.689674468351138],[-46.858931006352826,-11.689788660660744],[-46.85939204600178,-11.689815411098262],[-46.85996061855008,-11.69021975320486],[-46.86030342362759,-11.690463847532785],[-46.86030605484568,-11.690459582051343],[-46.86062376020216,-11.690323560497172],[-46.86112345732148,-11.690343368212515],[-46.861623046736135,-11.690154913190293],[-46.86262151163332,-11.69016542423083],[-46.863738261442236,-11.69037782120388],[-46.86426839564641,-11.690231466600075],[-46.86461864545183,-11.690134911299433],[-46.865106418725425,-11.69009992190923],[-46.86551962305505,-11.690474980846904],[-46.8656428790823,-11.690788922436017],[-46.8662795055305,-11.690822564009872],[-46.86654990772837,-11.69074496579566],[-46.86671516816442,-11.690661724315705]]]}}]}