{"type":"FeatureCollection","features":[{"type":"Feature","properties":{"numero_car":"3583408","nom_imovel":"Cachoeira de Santa Maria","tipo_imove":"IRU","status":"Ativo","carfederal":"TO-1707009-A01273091B2D4AF59A77820DBD49D7EF","municipio":"Dianópolis","cod_ibge":1707009,"ha_imovel":291.7596,"mf_imovel":3.647,"cadastro":"2026-07-15","tipo_area":"areaImovel","NOME":"Área da Propriedade Rural","OS":"OS 04.02","IMOVEL":"Cachoeira de Santa Maria"},"geometry":{"type":"Polygon","coordinates":[[[-46.85715679332766,-11.668441517196618],[-46.858041223312576,-11.676885462543243],[-46.85509785628923,-11.67948509948098],[-46.85582144985617,-11.682860633407788],[-46.855159041922086,-11.686653699909385],[-46.855335565615654,-11.686526190286715],[-46.855954165726644,-11.686787489723331],[-46.85637295773012,-11.687232762886147],[-46.85697288957547,-11.687541184368543],[-46.85767042570986,-11.687866417986202],[-46.857385849109015,-11.688652049274605],[-46.857853508455385,-11.689231686993216],[-46.858293568324775,-11.689674468351138],[-46.858931006352826,-11.689788660660744],[-46.85939204600178,-11.689815411098262],[-46.85996061855008,-11.69021975320486],[-46.86030342362759,-11.690463847532785],[-46.86030605484568,-11.690459582051343],[-46.86062376020216,-11.690323560497172],[-46.86112345732148,-11.690343368212515],[-46.861623046736135,-11.690154913190293],[-46.86262151163332,-11.69016542423083],[-46.863738261442236,-11.69037782120388],[-46.86426839564641,-11.690231466600075],[-46.86461864545183,-11.690134911299433],[-46.865106418725425,-11.69009992190923],[-46.86551962305505,-11.690474980846904],[-46.8656428790823,-11.690788922436017],[-46.8662795055305,-11.690822564009872],[-46.86654990772837,-11.69074496579566],[-46.8729332433627,-11.678759595561164],[-46.87337512160054,-11.678353386567483],[-46.85715679332766,-11.668441517196618]]]}},{"type":"Feature","properties":{"cod_imovel":"TO-1707009-A01273091B2D4AF59A77820DBD49D7EF","uf":"TO","municipio":"Dianópolis","bioma":"2","temas_ambi":"Remanescente de Vegetação Nativa","modulos_ru":3.647,"sobreposic":0.0,"sobreposi0":0.0,"sobreposi1":0.0,"sobreposi2":0.0,"sobreposi3":0.0,"tipo_imove":"IRU","situacao_a":"Aguardando análise","status_imo":"AT","nu_retific":0,"dt_atualiz":"2026-07-15","dt_criacao":"2026-07-15","nu_area_im":287.174,"NOME":"Área de Vegetação Nativa","OS":"OS 04.02","IMOVEL":"Cachoeira de Santa Maria"},"geometry":{"type":"Polygon","coordinates":[[[-46.8580412233126,-11.6768854625432],[-46.8550978562892,-11.679485099481],[-46.8558214498562,-11.6828606334078],[-46.8552243031439,-11.6862800024618],[-46.8552252331512,-11.6862794662176],[-46.8552777805046,-11.6862621696437],[-46.8553327488704,-11.6862559346948],[-46.8553878352488,-11.6862610225955],[-46.8554407316959,-11.6862772201789],[-46.8560593318069,-11.6865385196156],[-46.8561085187837,-11.6865656313163],[-46.8561510402126,-11.6866023237011],[-46.8565379350638,-11.687013682783],[-46.8570918252177,-11.6872984344989],[-46.8577846373937,-11.6876214655209],[-46.8578278023773,-11.6876466940605],[-46.8578655818015,-11.687679441734],[-46.8578966828234,-11.6877185878892],[-46.8579200411401,-11.6877627929121],[-46.857934857411,-11.6878105440706],[-46.8579406246109,-11.6878602072806],[-46.8579371453816,-11.687910083026],[-46.8579245387851,-11.6879584645178],[-46.8576918370356,-11.6886008847827],[-46.8580550685218,-11.6890510899835],[-46.8584251587859,-11.689423469019],[-46.8589627760305,-11.6895197791733],[-46.8594077012905,-11.6895455946219],[-46.8594575218878,-11.689553191863],[-46.8595050658887,-11.6895699064666],[-46.8595486801882,-11.689595157266],[-46.8601173838427,-11.6899995926679],[-46.8603353664002,-11.6901548071305],[-46.8605153401192,-11.6900759900938],[-46.8605736255177,-11.6900579808812],[-46.8606344651581,-11.6900535023129],[-46.8610793718074,-11.6900711381645],[-46.8615276565564,-11.6899020362783],[-46.86157596539,-11.6898887753203],[-46.8616258917679,-11.6898846578947],[-46.8626243566651,-11.6898951689353],[-46.862672009679,-11.6898999134657],[-46.8637269890909,-11.6901005621983],[-46.8645467602782,-11.6898743761947],[-46.8645993078702,-11.6898653337096],[-46.8650870811438,-11.6898303443194],[-46.865141603272,-11.6898319516372],[-46.8651946922943,-11.6898444736835],[-46.8652441858355,-11.6898674004213],[-46.8652880679685,-11.6898997980189],[-46.8657012722981,-11.6902748569566],[-46.8657420845021,-11.6903214981978],[-46.8657711988253,-11.6903762101486],[-46.8658308749843,-11.6905282094352],[-46.8662485134441,-11.6905502789159],[-46.8664753564344,-11.6904851810318],[-46.8665274704098,-11.6904756284872],[-46.8665804466388,-11.6904764264244],[-46.8666322492747,-11.690487544179],[-46.8666767669607,-11.6905067745186],[-46.8729332433627,-11.6787595955612],[-46.8733751216005,-11.6783533865675],[-46.8571567933277,-11.6684415171966],[-46.8580412233126,-11.6768854625432]]]}},{"type":"Feature","properties":{"cod_imovel":"TO-1707009-A01273091B2D4AF59A77820DBD49D7EF","uf":"TO","municipio":"Dianópolis","bioma":"2","temas_ambi":"Reserva Legal Proposta","modulos_ru":3.647,"sobreposic":0.0,"sobreposi0":0.0,"sobreposi1":0.0,"sobreposi2":0.0,"sobreposi3":0.0,"tipo_imove":"IRU","situacao_a":"Aguardando análise","status_imo":"AT","nu_retific":0,"dt_atualiz":"2026-07-15","dt_criacao":"2026-07-15","nu_area_im":109.4006,"NOME":"Reserva Legal proposta","OS":"OS 04.02","IMOVEL":"Cachoeira de Santa Maria"},"geometry":{"type":"Polygon","coordinates":[[[-46.8698807382415,-11.6844909883808],[-46.866597058628,-11.6840281164118],[-46.8552167993017,-11.6800399636923],[-46.8558214498562,-11.6828606334078],[-46.8552243031439,-11.6862800024618],[-46.8552252331512,-11.6862794662176],[-46.8552777805046,-11.6862621696437],[-46.8553327488704,-11.6862559346948],[-46.8553878352488,-11.6862610225955],[-46.8554407316959,-11.6862772201789],[-46.8560593318069,-11.6865385196156],[-46.8561085187837,-11.6865656313163],[-46.8561510402126,-11.6866023237011],[-46.8565379350638,-11.687013682783],[-46.8570918252177,-11.6872984344989],[-46.8577846373937,-11.6876214655209],[-46.8578278023773,-11.6876466940605],[-46.8578655818015,-11.687679441734],[-46.8578966828234,-11.6877185878892],[-46.8579200411401,-11.6877627929121],[-46.857934857411,-11.6878105440706],[-46.8579406246109,-11.6878602072806],[-46.8579371453816,-11.687910083026],[-46.8579245387851,-11.6879584645178],[-46.8576918370356,-11.6886008847827],[-46.8580550685218,-11.6890510899835],[-46.8584251587859,-11.689423469019],[-46.8589627760305,-11.6895197791733],[-46.8594077012905,-11.6895455946219],[-46.8594575218878,-11.689553191863],[-46.8595050658887,-11.6895699064666],[-46.8595486801882,-11.689595157266],[-46.8601173838427,-11.6899995926679],[-46.8603353664002,-11.6901548071305],[-46.8605153401192,-11.6900759900938],[-46.8605736255177,-11.6900579808812],[-46.8606344651581,-11.6900535023129],[-46.8610793718074,-11.6900711381645],[-46.8615276565564,-11.6899020362783],[-46.86157596539,-11.6898887753203],[-46.8616258917679,-11.6898846578947],[-46.8626243566651,-11.6898951689353],[-46.862672009679,-11.6898999134657],[-46.8637269890909,-11.6901005621983],[-46.8645467602782,-11.6898743761947],[-46.8645993078702,-11.6898653337096],[-46.8650870811438,-11.6898303443194],[-46.865141603272,-11.6898319516372],[-46.8651946922943,-11.6898444736835],[-46.8652441858355,-11.6898674004213],[-46.8652880679685,-11.6898997980189],[-46.8657012722981,-11.6902748569566],[-46.8657420845021,-11.6903214981978],[-46.8657711988253,-11.6903762101486],[-46.8658308749843,-11.6905282094352],[-46.8662485134441,-11.6905502789159],[-46.8664753564344,-11.6904851810318],[-46.8665274704098,-11.6904756284872],[-46.8665804466388,-11.6904764264244],[-46.8666322492747,-11.690487544179],[-46.8666767669607,-11.6905067745186],[-46.8698807382415,-11.6844909883808]]]}},{"type":"Feature","properties":{"cod_imovel":"TO-1707009-A01273091B2D4AF59A77820DBD49D7EF","uf":"TO","municipio":"Dianópolis","bioma":"2","temas_ambi":"Área de Preservação Permanente de Rios até 10 metros","modulos_ru":3.647,"sobreposic":0.0,"sobreposi0":0.0,"sobreposi1":0.0,"sobreposi2":0.0,"sobreposi3":0.0,"tipo_imove":"IRU","situacao_a":"Aguardando análise","status_imo":"AT","nu_retific":0,"dt_atualiz":"2026-07-15","dt_criacao":"2026-07-15","nu_area_im":4.5749,"NOME":"Área de Preservação Permanente","OS":"OS 04.02","IMOVEL":"Cachoeira de Santa Maria"},"geometry":{"type":"Polygon","coordinates":[[[-46.866015271033,-11.6902519247141],[-46.8659861566601,-11.6901972127675],[-46.8659511179483,-11.6901464560224],[-46.8659103057173,-11.6900998148051],[-46.8658884234828,-11.6900775338927],[-46.8654752190333,-11.689702475245],[-46.8654538162128,-11.6896849381668],[-46.8654099340793,-11.6896525406027],[-46.8653619334337,-11.6896241134746],[-46.8653124399139,-11.6896011867764],[-46.8652591727771,-11.6895827879785],[-46.8652060837946,-11.6895702659713],[-46.8651498743273,-11.6895628890258],[-46.8650953522508,-11.6895612817401],[-46.8650669409337,-11.6895618803907],[-46.8645791681479,-11.6895968700182],[-46.8645516204496,-11.6896002196081],[-46.8644990729112,-11.6896092621126],[-46.8644720500234,-11.689615299057],[-46.8637152548466,-11.6898241096402],[-46.8627245075158,-11.6896356778007],[-46.8626998540085,-11.6896321135242],[-46.8626522010373,-11.6896273690245],[-46.8626272998126,-11.6896260011752],[-46.8616288358735,-11.6896154907046],[-46.8616027595113,-11.6896164265855],[-46.8615528331834,-11.6896205440348],[-46.8615016088976,-11.6896296024201],[-46.8614533001129,-11.6896428633897],[-46.8614286430184,-11.6896508783299],[-46.8610335411197,-11.6897999188427],[-46.860645588768,-11.6897845408086],[-46.8606138005352,-11.6897850789818],[-46.8605529609557,-11.6897895575796],[-46.8604907351164,-11.6898012975126],[-46.8604324497763,-11.6898193067367],[-46.8604028957502,-11.6898303022833],[-46.8603684078527,-11.6898454058199],[-46.8602793067013,-11.6897819613997],[-46.8597104694599,-11.6893774313628],[-46.859688814039,-11.689363506778],[-46.8596451997503,-11.6893382560134],[-46.859598111586,-11.6893165870348],[-46.8595505676136,-11.6892998724683],[-46.8594998863257,-11.6892872223323],[-46.8594500657703,-11.6892796251254],[-46.8594239756781,-11.6892768852954],[-46.8589958101492,-11.6892520425312],[-46.8585611681808,-11.6891741799233],[-46.8582622552591,-11.6888734187148],[-46.8580019282832,-11.6885507583826],[-46.8581839006396,-11.6880483850817],[-46.8581911760234,-11.6880249683455],[-46.8582037825836,-11.687976586817],[-46.8582116698395,-11.6879284263063],[-46.8582151490219,-11.6878785505293],[-46.8582140288853,-11.6878298397592],[-46.858208261634,-11.6877801765267],[-46.8581981575003,-11.6877323751585],[-46.8581833411804,-11.6876846239897],[-46.858164475711,-11.6876391972163],[-46.858141117354,-11.6875949921965],[-46.858113938465,-11.6875534099128],[-46.8580828374171,-11.687514263774],[-46.8580480586371,-11.6874779771692],[-46.8580102792044,-11.6874452295228],[-46.8579689192469,-11.687415616802],[-46.8579257542737,-11.6873903882967],[-46.8579030134182,-11.6873784748629],[-46.8572150562183,-11.6870577079423],[-46.8567081359407,-11.686797103509],[-46.8563535265005,-11.6864200717175],[-46.8563330552881,-11.6864004611114],[-46.85629053385,-11.6863637687573],[-46.8562435804456,-11.6863311176033],[-46.8561943934832,-11.6863040059418],[-46.8561683963522,-11.686291394379],[-46.855549796547,-11.686030095434],[-46.8555229141919,-11.6860203322084],[-46.8554700177797,-11.6860041346656],[-46.8554136823701,-11.6859930350885],[-46.8553585960412,-11.6859879472232],[-46.8553010396215,-11.6859885468183],[-46.8552746797876,-11.6859915367748],[-46.8552243031439,-11.6862800024618],[-46.8552252331512,-11.6862794662176],[-46.8552777805046,-11.6862621696437],[-46.8553327488704,-11.6862559346948],[-46.8553878352488,-11.6862610225955],[-46.8554407316959,-11.6862772201789],[-46.8560593318069,-11.6865385196156],[-46.8561085187837,-11.6865656313163],[-46.8561510402126,-11.6866023237011],[-46.8565379350638,-11.687013682783],[-46.8570918252177,-11.6872984344989],[-46.8577846373937,-11.6876214655209],[-46.8578278023773,-11.6876466940605],[-46.8578655818015,-11.687679441734],[-46.8578966828234,-11.6877185878892],[-46.8579200411401,-11.6877627929121],[-46.857934857411,-11.6878105440706],[-46.8579406246109,-11.6878602072806],[-46.8579371453816,-11.687910083026],[-46.8579245387851,-11.6879584645178],[-46.8576918370356,-11.6886008847827],[-46.8580550685218,-11.6890510899835],[-46.8584251587859,-11.689423469019],[-46.8589627760305,-11.6895197791733],[-46.8594077012905,-11.6895455946219],[-46.8594575218878,-11.689553191863],[-46.8595050658887,-11.6895699064666],[-46.8595486801882,-11.689595157266],[-46.8601173838427,-11.6899995926679],[-46.8603353664002,-11.6901548071305],[-46.8605153401192,-11.6900759900938],[-46.8605736255177,-11.6900579808812],[-46.8606344651581,-11.6900535023129],[-46.8610793718074,-11.6900711381645],[-46.8615276565564,-11.6899020362783],[-46.86157596539,-11.6898887753203],[-46.8616258917679,-11.6898846578947],[-46.8626243566651,-11.6898951689353],[-46.862672009679,-11.6898999134657],[-46.8637269890909,-11.6901005621983],[-46.8645467602782,-11.6898743761947],[-46.8645993078702,-11.6898653337096],[-46.8650870811438,-11.6898303443194],[-46.865141603272,-11.6898319516372],[-46.8651946922943,-11.6898444736835],[-46.8652441858355,-11.6898674004213],[-46.8652880679685,-11.6898997980189],[-46.8657012722981,-11.6902748569566],[-46.8657420845021,-11.6903214981978],[-46.8657711988253,-11.6903762101486],[-46.8658308749843,-11.6905282094352],[-46.8662485134441,-11.6905502789159],[-46.8664753564344,-11.6904851810318],[-46.8665274704098,-11.6904756284872],[-46.8665804466388,-11.6904764264244],[-46.8666322492747,-11.690487544179],[-46.8666767669607,-11.6905067745186],[-46.8668035644331,-11.690268699202],[-46.8667920243421,-11.6902623083342],[-46.8667433860691,-11.69024129805],[-46.8666911980328,-11.6902246118172],[-46.8666393954372,-11.6902134941001],[-46.8665846655163,-11.69020727277],[-46.866531689338,-11.6902064748633],[-46.8664767773788,-11.6902110473644],[-46.8664246634566,-11.6902205999275],[-46.8663978856357,-11.6902268797339],[-46.8662162714093,-11.6902789982849],[-46.8660230378045,-11.6902687872928],[-46.866015271033,-11.6902519247141]]]}}]}