{"type":"FeatureCollection","features":[{"type":"Feature","properties":{"numero_car":"3583473","nom_imovel":"Fazenda Nogueira","tipo_imove":"IRU","status":"Ativo","carfederal":"TO-1707009-D45A11579C00455195E34A842697E705","municipio":"Dianópolis","cod_ibge":1707009,"ha_imovel":265.9562,"mf_imovel":3.3245,"cadastro":"2026-07-15","tipo_area":"areaImovel","NOME":"Área da Propriedade Rural","OS":"OS 04.01","IMOVEL":"Fazenda Nogueira"},"geometry":{"type":"Polygon","coordinates":[[[-46.87337512160054,-11.678353386567483],[-46.8729332433627,-11.678759595561164],[-46.86654990772837,-11.69074496579566],[-46.86671516816442,-11.690661724315705],[-46.86695547785306,-11.690308898785227],[-46.867314482064444,-11.690670296863145],[-46.8676065912981,-11.690998865933166],[-46.868019205266876,-11.69120317499868],[-46.86842914433394,-11.691213701634382],[-46.86889006045039,-11.691290242753984],[-46.86931054122474,-11.69143664801478],[-46.86968478810983,-11.691636142571257],[-46.870058323149514,-11.691920789826588],[-46.870395437222285,-11.692231073992952],[-46.87056112009911,-11.692661521325425],[-46.870738444250975,-11.693036301885698],[-46.871039549886504,-11.693392467481399],[-46.87129646951462,-11.69379248960602],[-46.871622924016435,-11.694099135286379],[-46.87184548032744,-11.694421463768382],[-46.87218589204156,-11.694744016715727],[-46.87254354619038,-11.694943705284013],[-46.873016443491736,-11.694946130050381],[-46.87344538424315,-11.694985720863258],[-46.87390459547879,-11.695012368013264],[-46.87431346273654,-11.694958353121798],[-46.87472331972903,-11.69480616647926],[-46.8752463341694,-11.694310837861204],[-46.87517382968286,-11.694276149946353],[-46.87505511010347,-11.693888606329587],[-46.87486295422135,-11.693450471835659],[-46.87507319062239,-11.69305951153103],[-46.875001531484905,-11.692591754311634],[-46.874781493059714,-11.692166818212073],[-46.87498257966895,-11.691711017083298],[-46.87531296539301,-11.691484415706663],[-46.87575773124212,-11.691368879654238],[-46.87624040846889,-11.6912584280061],[-46.876599604436365,-11.691251739005809],[-46.877013169832885,-11.691174550296415],[-46.87745570741917,-11.691082437627104],[-46.877914631804074,-11.691149214701886],[-46.87835202632494,-11.691260152408281],[-46.878651196286455,-11.691559556071585],[-46.879063647032005,-11.691684304981479],[-46.879433023771824,-11.691541778546998],[-46.87982952366345,-11.691341404530235],[-46.880288913609604,-11.691246103825543],[-46.88070949287707,-11.691121318370794],[-46.88108707178558,-11.690998531828457],[-46.881558925379686,-11.690915621407422],[-46.882017588645326,-11.69087591320137],[-46.88256144914166,-11.691025646356113],[-46.88291558399516,-11.691288075876177],[-46.88336382051434,-11.691469619932501],[-46.88380153618195,-11.691573586725736],[-46.88419712464134,-11.691632272708869],[-46.88449657888676,-11.6916339206523],[-46.88477307306261,-11.691427549581043],[-46.88519139838086,-11.691105630704465],[-46.8854921530084,-11.690825250495994],[-46.88567153906497,-11.690485919896108],[-46.88579030608946,-11.690147078217127],[-46.88627196840118,-11.689766078274646],[-46.88635011303451,-11.689387641413171],[-46.886529094008736,-11.688988745827185],[-46.886708116869684,-11.688609645449437],[-46.88709024358591,-11.688428158498873],[-46.88720860367177,-11.688029571113372],[-46.887509444808686,-11.687749188955136],[-46.887790422126685,-11.687528595014465],[-46.88797038617479,-11.687288779763126],[-46.88835246647393,-11.687087315513727],[-46.88853135171949,-11.686688419892812],[-46.888753013400034,-11.68664718883532],[-46.88923664448935,-11.686544574904321],[-46.88998471473271,-11.68675839246453],[-46.89010833057161,-11.687135409898834],[-46.8901312194674,-11.68733249092172],[-46.89011031129742,-11.68729222417624],[-46.889890603425506,-11.687297016125909],[-46.889739039987276,-11.687505098999214],[-46.88981136154201,-11.687742801281622],[-46.89015890683821,-11.687898965823708],[-46.890550125474256,-11.688206517084039],[-46.8909176966892,-11.688434951232363],[-46.891292654907204,-11.688495029322647],[-46.89168207404065,-11.688496709782067],[-46.89195612265327,-11.68852581582985],[-46.89219688563756,-11.687326737194919],[-46.892618450431165,-11.687078998614163],[-46.89243105520068,-11.68669652812058],[-46.892075015476784,-11.68595098715743],[-46.89242829454454,-11.686060379514803],[-46.89263304198307,-11.686013562592565],[-46.89279274168464,-11.685829107183121],[-46.89278195514302,-11.685537217770959],[-46.892498610076146,-11.68532712166264],[-46.89229720369349,-11.685109524767162],[-46.892260522359585,-11.685109947464873],[-46.87337512160054,-11.678353386567483]]]}},{"type":"Feature","properties":{"cod_imovel":"TO-1707009-D45A11579C00455195E34A842697E705","uf":"TO","municipio":"Dianópolis","bioma":"2","temas_ambi":"Remanescente de Vegetação Nativa","modulos_ru":3.3245,"sobreposic":0.0,"sobreposi0":0.0,"sobreposi1":0.0,"sobreposi2":0.0,"sobreposi3":0.0,"tipo_imove":"IRU","situacao_a":"Aguardando análise","status_imo":"AT","nu_retific":2,"dt_atualiz":"2026-07-15","dt_criacao":"2026-07-15","nu_area_im":253.1255,"NOME":"Área de Vegetação Nativa","OS":"OS 04.01","IMOVEL":"Fazenda Nogueira"},"geometry":{"type":"MultiPolygon","coordinates":[[[[-46.8665499077284,-11.6907449657957],[-46.86692449568117,-11.690041638326093],[-46.8669244956811,-11.6900416383261],[-46.8665499077284,-11.6907449657957]]],[[[-46.86692449568117,-11.690041638326093],[-46.8669570434836,-11.6900386330497],[-46.867009576131,-11.6900440981143],[-46.8670600428256,-11.6900596756212],[-46.8671065163005,-11.6900847706826],[-46.8671472217856,-11.6901184249463],[-46.867506225997,-11.6904798230242],[-46.8675164699795,-11.6904907226413],[-46.8677736424166,-11.6907799942518],[-46.8680857236331,-11.6909345237311],[-46.8684360821922,-11.6909435204265],[-46.8684734198897,-11.6909470826288],[-46.8689343360061,-11.6910236237484],[-46.8689789316141,-11.6910350018183],[-46.8693994123885,-11.6911814070791],[-46.8694376757393,-11.69119814679],[-46.8698119226244,-11.6913976413465],[-46.8698486014622,-11.691421174656],[-46.8702221365018,-11.6917058219113],[-46.8702413558743,-11.6917219304777],[-46.8705784699471,-11.692032214644],[-46.8706189389989,-11.6920791102642],[-46.8706476680042,-11.6921339881977],[-46.8708097326906,-11.6925550354012],[-46.8709676433436,-11.6928887848785],[-46.8712459462811,-11.6932179780913],[-46.8712669568029,-11.693246412309],[-46.8715058383491,-11.693618349262],[-46.8718079638412,-11.6939021421843],[-46.8718453298202,-11.6939455720179],[-46.8720518552436,-11.6942446829526],[-46.8723472091389,-11.694524541916],[-46.8726145311011,-11.6946737954339],[-46.873017829276,-11.6946758633329],[-46.8730412835906,-11.6946770037074],[-46.8734656386358,-11.6947161712641],[-46.873894636238,-11.6947410651747],[-46.8742479039296,-11.6946943954655],[-46.8745775264911,-11.6945720011869],[-46.8748908815087,-11.6942752336488],[-46.8748012920221,-11.6939827811835],[-46.8746154421555,-11.6935590250311],[-46.8745999233194,-11.6935126068789],[-46.8745930303474,-11.6934641510633],[-46.8745949892885,-11.6934152466497],[-46.8746057359008,-11.6933674974146],[-46.8746249177588,-11.6933224692517],[-46.8747923515514,-11.6930111056332],[-46.8747411042816,-11.6926765875062],[-46.8745414904727,-11.6922910952301],[-46.8745232254814,-11.6922464666708],[-46.8745131820785,-11.6921993026138],[-46.8745116799818,-11.6921511044611],[-46.8745187670084,-11.6921034065338],[-46.8745342175527,-11.6920577272289],[-46.8747353041619,-11.6916019261001],[-46.874759546191,-11.6915583668731],[-46.874791375992,-11.6915200009246],[-46.8748297106904,-11.691488133494],[-46.8751600964144,-11.6912615321174],[-46.875200871538,-11.6912384868823],[-46.8752450130266,-11.6912228272993],[-46.8756897788757,-11.6911072912468],[-46.8756974432629,-11.6911054192615],[-46.8761801204897,-11.6909949676133],[-46.8762353763285,-11.6909882045864],[-46.8765721058401,-11.6909819339598],[-46.8769607549167,-11.6909093956844],[-46.877343358688,-11.6908295240695],[-46.8773445614899,-11.6908292758256],[-46.877401679764,-11.6908176225379],[-46.8774480375695,-11.690812276208],[-46.8774946240265,-11.6908149838616],[-46.8779535484114,-11.6908817609364],[-46.8779810773731,-11.690887239502],[-46.8784184718939,-11.6909981772084],[-46.8784640860468,-11.6910142080289],[-46.8785061140346,-11.691038109627],[-46.8785432108665,-11.6910691170973],[-46.878794406666,-11.6913205091227],[-46.879052997772,-11.6913987219976],[-46.8793231535575,-11.6912944806182],[-46.8797076224553,-11.691100186549],[-46.8797746248059,-11.6910767686777],[-46.8802229098856,-11.6909837716839],[-46.8806292500784,-11.6908632109485],[-46.8810034898216,-11.6907415102841],[-46.8810402985758,-11.6907323396313],[-46.8814330460369,-11.6906633291209],[-46.8814530099431,-11.6906605840015],[-46.8819907793418,-11.6906069758848],[-46.8820404399215,-11.6906066106983],[-46.8820893289568,-11.6906153381705],[-46.8826331894532,-11.6907650713253],[-46.882679786041,-11.6907826599424],[-46.8827223639748,-11.6908085002406],[-46.8830488912617,-11.6910504713382],[-46.8834462513687,-11.6912114095093],[-46.8838526896112,-11.691307947248],[-46.8842178024501,-11.6913621121393],[-46.8844074989417,-11.6913631560687],[-46.8846098196517,-11.6912121469506],[-46.8850164458894,-11.6908992310071],[-46.8852745177397,-11.69065864206],[-46.8854231631214,-11.690377461195],[-46.8855352497343,-11.6900576786944],[-46.8855564716582,-11.6900115515491],[-46.8855859465262,-11.6899702076772],[-46.8856226340534,-11.6899351062678],[-46.8860271691251,-11.6896151147814],[-46.8860854268935,-11.6893329855285],[-46.8861035271443,-11.6892770004725],[-46.8862825081185,-11.6888781048865],[-46.8862847032886,-11.6888733370108],[-46.8864637261496,-11.688494236633],[-46.8864962603398,-11.6884418276025],[-46.8865398307542,-11.6883981606927],[-46.8865921676828,-11.6883655106403],[-46.8868654545796,-11.6882357159847],[-46.8869495151485,-11.6879526350613],[-46.8869671473031,-11.6879081427765],[-46.8869923506472,-11.6878674580407],[-46.887024334896,-11.6878318565785],[-46.8873251760329,-11.6875514744203],[-46.8873425473965,-11.6875366065645],[-46.8875955771025,-11.6873379541596],[-46.8877542143635,-11.6871265584113],[-46.8877950098127,-11.6870831365025],[-46.8878443278193,-11.6870497079957],[-46.8881439859599,-11.6868917035068],[-46.8882847437263,-11.6865778282264],[-46.8883100070221,-11.6865333310669],[-46.8883432041058,-11.6864943928472],[-46.8883831450748,-11.6864624092527],[-46.8884283983015,-11.6864385266902],[-46.8884773417481,-11.6864236011964],[-46.8891826345179,-11.6862797562079],[-46.8892470758212,-11.6862745060125],[-46.8893109201647,-11.6862847112034],[-46.890058990408,-11.6864985287636],[-46.8901079625794,-11.6865178597489],[-46.8901522577242,-11.6865463185034],[-46.8901901949241,-11.6865828250703],[-46.8902203345329,-11.6866259940932],[-46.8902415328086,-11.686674187388],[-46.8903651486475,-11.6870512048224],[-46.8903767963213,-11.687104230415],[-46.8903996852171,-11.6873013114379],[-46.8904005631782,-11.6873548512537],[-46.8903908685636,-11.6874075133572],[-46.8903709819171,-11.6874572305975],[-46.8903416838511,-11.6875020514188],[-46.8903041244056,-11.687540216465],[-46.8902597779053,-11.6875702276396],[-46.8902103850877,-11.6875909069111],[-46.8901578847741,-11.6876014425538],[-46.8901561848519,-11.6876014418699],[-46.8902696800238,-11.6876524393133],[-46.8903259411014,-11.6876864909454],[-46.8907054432744,-11.6879848314662],[-46.8910141605945,-11.688176689738],[-46.8913147492225,-11.6882248518795],[-46.8916832403264,-11.6882264420282],[-46.891710618261,-11.6882279510678],[-46.8917396472313,-11.6882310341654],[-46.8919319041659,-11.6872735315685],[-46.8919488527979,-11.6872193792449],[-46.891976734248,-11.6871699590565],[-46.8920143195548,-11.6871274493518],[-46.892059952029,-11.687093723878],[-46.8922669427433,-11.6869720828241],[-46.8918315283759,-11.6860682904],[-46.8918135269195,-11.6860193227514],[-46.8918052692011,-11.6859678087424],[-46.8918070629245,-11.6859156679178],[-46.891818841251,-11.685864843179],[-46.8918401652897,-11.6858172283871],[-46.8918702404521,-11.6857745977919],[-46.89190794606,-11.6857385399194],[-46.8919518771052,-11.6857103983787],[-46.8920003966037,-11.6856912217964],[-46.8920516965938,-11.6856817247414],[-46.8921038655056,-11.6856822610983],[-46.892154959391,-11.6856928108813],[-46.8924388557099,-11.6857807189698],[-46.8924865940813,-11.68576980326],[-46.8925187240155,-11.6857326927325],[-46.8925118692263,-11.6855471985817],[-46.8925151116919,-11.6854943156548],[-46.8925286088016,-11.6854430814321],[-46.8925518418692,-11.6853954648161],[-46.8925658839956,-11.6853770042628],[-46.8924986100761,-11.6853271216626],[-46.8922972036935,-11.6851095247672],[-46.8922605223596,-11.6851099474649],[-46.8733751216005,-11.6783533865675],[-46.8729332433627,-11.6787595955612],[-46.86692449568117,-11.690041638326093]]]]}},{"type":"Feature","properties":{"cod_imovel":"TO-1707009-D45A11579C00455195E34A842697E705","uf":"TO","municipio":"Dianópolis","bioma":"2","temas_ambi":"Reserva Legal Proposta","modulos_ru":3.3245,"sobreposic":0.0,"sobreposi0":0.0,"sobreposi1":0.0,"sobreposi2":0.0,"sobreposi3":0.0,"tipo_imove":"IRU","situacao_a":"Aguardando análise","status_imo":"AT","nu_retific":2,"dt_atualiz":"2026-07-15","dt_criacao":"2026-07-15","nu_area_im":87.957,"NOME":"Reserva Legal proposta","OS":"OS 04.01","IMOVEL":"Fazenda Nogueira"},"geometry":{"type":"MultiPolygon","coordinates":[[[[-46.8783520263249,-11.6912601524083],[-46.8779164108882,-11.6911496659364],[-46.877927161392,-11.6911523926195],[-46.8783520263249,-11.6912601524083]]],[[[-46.8773450266594,-11.6875293365508],[-46.8698807382416,-11.6844909883808],[-46.8669244956811,-11.6900416383261],[-46.8669570434836,-11.6900386330497],[-46.867009576131,-11.6900440981143],[-46.8670600428256,-11.6900596756212],[-46.8671065163005,-11.6900847706826],[-46.8671472217856,-11.6901184249463],[-46.867506225997,-11.6904798230242],[-46.8675164699795,-11.6904907226413],[-46.8677736424166,-11.6907799942518],[-46.8680857236331,-11.6909345237311],[-46.8684360821922,-11.6909435204265],[-46.8684734198897,-11.6909470826288],[-46.8689343360061,-11.6910236237484],[-46.8689789316141,-11.6910350018183],[-46.8693994123885,-11.6911814070791],[-46.8694376757393,-11.69119814679],[-46.8698119226244,-11.6913976413465],[-46.8698486014622,-11.691421174656],[-46.8702221365018,-11.6917058219113],[-46.8702413558743,-11.6917219304777],[-46.8705784699471,-11.692032214644],[-46.8706189389989,-11.6920791102642],[-46.8706476680042,-11.6921339881977],[-46.8708097326906,-11.6925550354012],[-46.8709676433436,-11.6928887848785],[-46.8712459462811,-11.6932179780913],[-46.8712669568029,-11.693246412309],[-46.8715058383491,-11.693618349262],[-46.8718079638412,-11.6939021421843],[-46.8718453298202,-11.6939455720179],[-46.8720518552436,-11.6942446829526],[-46.8723472091389,-11.694524541916],[-46.8726145311011,-11.6946737954339],[-46.873017829276,-11.6946758633329],[-46.8730412835906,-11.6946770037074],[-46.8734656386358,-11.6947161712641],[-46.873894636238,-11.6947410651747],[-46.8742479039296,-11.6946943954655],[-46.8745775264911,-11.6945720011869],[-46.8748908815087,-11.6942752336488],[-46.8748012920221,-11.6939827811835],[-46.8746154421555,-11.6935590250311],[-46.8745999233194,-11.6935126068789],[-46.8745930303474,-11.6934641510633],[-46.8745949892885,-11.6934152466497],[-46.8746057359008,-11.6933674974146],[-46.8746249177588,-11.6933224692517],[-46.8747923515514,-11.6930111056332],[-46.8747411042816,-11.6926765875062],[-46.8745414904727,-11.6922910952301],[-46.8745232254814,-11.6922464666708],[-46.8745131820785,-11.6921993026138],[-46.8745116799818,-11.6921511044611],[-46.8745187670084,-11.6921034065338],[-46.8745342175527,-11.6920577272289],[-46.8747353041619,-11.6916019261001],[-46.874759546191,-11.6915583668731],[-46.874791375992,-11.6915200009246],[-46.8748297106904,-11.691488133494],[-46.8751600964144,-11.6912615321174],[-46.875200871538,-11.6912384868823],[-46.8752450130266,-11.6912228272993],[-46.8756897788757,-11.6911072912468],[-46.8756974432629,-11.6911054192615],[-46.8761801204897,-11.6909949676133],[-46.8762353763285,-11.6909882045864],[-46.8765721058401,-11.6909819339598],[-46.8769607549167,-11.6909093956844],[-46.877343358688,-11.6908295240695],[-46.8773445614899,-11.6908292758256],[-46.877401679764,-11.6908176225379],[-46.8774480375695,-11.690812276208],[-46.8774946240265,-11.6908149838616],[-46.8779535484114,-11.6908817609364],[-46.8779810773731,-11.690887239502],[-46.8784184718939,-11.6909981772084],[-46.8784640860468,-11.6910142080289],[-46.8785061140346,-11.691038109627],[-46.8785432108665,-11.6910691170973],[-46.878794406666,-11.6913205091227],[-46.879052997772,-11.6913987219976],[-46.8793231535575,-11.6912944806182],[-46.8797076224553,-11.691100186549],[-46.8797746248059,-11.6910767686777],[-46.8802229098856,-11.6909837716839],[-46.8806292500784,-11.6908632109485],[-46.8810034898216,-11.6907415102841],[-46.8810402985758,-11.6907323396313],[-46.8814330460369,-11.6906633291209],[-46.8814530099431,-11.6906605840015],[-46.8815302948261,-11.6906528797754],[-46.8817941318502,-11.6892068680162],[-46.8773450266594,-11.6875293365508]]]]}},{"type":"Feature","properties":{"cod_imovel":"TO-1707009-D45A11579C00455195E34A842697E705","uf":"TO","municipio":"Dianópolis","bioma":"2","temas_ambi":"Área de Preservação Permanente de Rios até 10 metros","modulos_ru":3.3245,"sobreposic":0.0,"sobreposi0":0.0,"sobreposi1":0.0,"sobreposi2":0.0,"sobreposi3":0.0,"tipo_imove":"IRU","situacao_a":"Aguardando análise","status_imo":"AT","nu_retific":2,"dt_atualiz":"2026-07-15","dt_criacao":"2026-07-15","nu_area_im":12.4309,"NOME":"Área de Preservação Permanente","OS":"OS 04.01","IMOVEL":"Fazenda Nogueira"},"geometry":{"type":"Polygon","coordinates":[[[-46.8923686320353,-11.6851866950396],[-46.8923631709911,-11.6851925727172],[-46.8923310947992,-11.6852347418136],[-46.8923035210136,-11.6852794847758],[-46.8922802879252,-11.685327101353],[-46.8922621555744,-11.6853758801632],[-46.8922486584264,-11.685427114347],[-46.892246765706,-11.6854388818497],[-46.8922379748234,-11.6854361597671],[-46.8922117644235,-11.6854294133661],[-46.8921606705782,-11.6854188636198],[-46.8921067398657,-11.6854130761109],[-46.892054571004,-11.6854125397836],[-46.8920005204415,-11.6854172187624],[-46.8919492205038,-11.6854267158355],[-46.8918973147922,-11.6854416198091],[-46.8918487953405,-11.6854607963951],[-46.8918011368585,-11.6854851789239],[-46.8917572058473,-11.6855133204535],[-46.8917156005438,-11.685546025621],[-46.8916778949521,-11.6855820834693],[-46.8916437791479,-11.6856216732789],[-46.8916137039815,-11.6856643038402],[-46.8915881331507,-11.6857091822985],[-46.8915668090882,-11.6857567970519],[-46.8915504908688,-11.6858053045128],[-46.8915387125025,-11.6858561292138],[-46.8915320577037,-11.6859065960963],[-46.8915302639299,-11.6859587368895],[-46.8915334308433,-11.6860095007113],[-46.8915416885082,-11.6860610146997],[-46.8915546034602,-11.6861104145177],[-46.8915726048674,-11.6861593821594],[-46.8915826294585,-11.6861830494004],[-46.8919121308628,-11.6868669990599],[-46.8918940832749,-11.686878922241],[-46.8918484508315,-11.6869126476974],[-46.8918062062647,-11.6869513289023],[-46.8917686209661,-11.6869938385754],[-46.8917358291945,-11.6870398634323],[-46.8917079477286,-11.6870892835804],[-46.8916857479401,-11.6871405481003],[-46.891668799271,-11.6871947003818],[-46.8916619018731,-11.6872216265686],[-46.8915143440002,-11.6879565111945],[-46.8913377185382,-11.6879557490566],[-46.8911141725042,-11.6879199312845],[-46.8908658770822,-11.6877656235092],[-46.8906188524772,-11.6875714286942],[-46.8906272239879,-11.6875553445813],[-46.8906471106063,-11.6875056273011],[-46.8906616741774,-11.6874552444865],[-46.8906713687479,-11.6874025823453],[-46.8906756901307,-11.6873505495912],[-46.8906748121163,-11.6872970097457],[-46.890673088305,-11.6872709361423],[-46.8906501992054,-11.6870738550306],[-46.8906458163297,-11.6870476860153],[-46.8906341686005,-11.6869946604052],[-46.8906271602395,-11.6869689940999],[-46.8905035440157,-11.6865919765932],[-46.8904942841657,-11.6865677907781],[-46.8904730858434,-11.6865195974811],[-46.8904475473605,-11.6864741672772],[-46.8904174077188,-11.686430998267],[-46.8903831424032,-11.6863909115652],[-46.890345205189,-11.686354405024],[-46.8903032909189,-11.6863213057044],[-46.8902589957806,-11.6862928469848],[-46.8902109057887,-11.6862682162762],[-46.8901619336436,-11.6862488853295],[-46.8901361394384,-11.6862401323052],[-46.8893880697098,-11.6860263153107],[-46.8893552727506,-11.686019035685],[-46.8892914284605,-11.6860088305381],[-46.8892242232726,-11.6860062363974],[-46.889159782034,-11.6860114866233],[-46.8891264628893,-11.6860162235135],[-46.8884211708391,-11.6861600687345],[-46.8883954423155,-11.6861665991059],[-46.888346498918,-11.6861815246095],[-46.8882977480526,-11.6862016014544],[-46.8882524948654,-11.6862254840123],[-46.8882088525302,-11.6862540911702],[-46.8881689115855,-11.6862860747465],[-46.8881318923668,-11.6863219580927],[-46.8880986952886,-11.6863608962831],[-46.8880694594298,-11.6864026057819],[-46.88804419612,-11.6864471029052],[-46.8880327653862,-11.6864696613315],[-46.8879300572004,-11.6866986896799],[-46.8877137675898,-11.6868127354092],[-46.8876876129809,-11.6868284274172],[-46.8876382950107,-11.6868618559093],[-46.8875924182351,-11.6869009595622],[-46.8875516227981,-11.6869443814397],[-46.8875324062425,-11.686967239539],[-46.8873951598577,-11.6871501302712],[-46.8871703209376,-11.687326650199],[-46.8871613620919,-11.687333995182],[-46.8871439907379,-11.6873488630286],[-46.8871353743477,-11.6873565592113],[-46.8868345333485,-11.6876369411842],[-46.8868176508302,-11.687654133736],[-46.886785666589,-11.6876897351718],[-46.8867570283551,-11.687727924484],[-46.8867318250015,-11.6877686091868],[-46.8867105909529,-11.6878108180547],[-46.8866929587729,-11.6878553103038],[-46.8866852764,-11.6878775207138],[-46.8866353150967,-11.6880457691629],[-46.8864719853066,-11.6881233408806],[-46.8864442132652,-11.6881385316379],[-46.8863918763779,-11.6881711816783],[-46.8863429215985,-11.6882101144239],[-46.8862993512004,-11.6882537813033],[-46.886261069563,-11.6883020813277],[-46.8862285353606,-11.6883544903157],[-46.8862139305865,-11.688381324209],[-46.886034907551,-11.6887604242781],[-46.8860338141649,-11.6887627690497],[-46.8860316189925,-11.6887675369216],[-46.8860305489373,-11.6887698910837],[-46.8858515677654,-11.6891687863459],[-46.8858411728454,-11.689195804926],[-46.8858230725569,-11.6892517899382],[-46.8858157109799,-11.6892796650322],[-46.8857770798714,-11.6894667460843],[-46.8854496192158,-11.6897257707577],[-46.8854302348581,-11.6897426430341],[-46.8853935473467,-11.6897777444198],[-46.8853602500481,-11.6898162018953],[-46.8853307751767,-11.6898575457344],[-46.8853055505794,-11.6899010509557],[-46.8852843286334,-11.6899471780635],[-46.8852749617926,-11.6899703467813],[-46.8851694445295,-11.690271386222],[-46.8850512923306,-11.6904948852085],[-46.8848360588856,-11.6906955377288],[-46.8844412876679,-11.6909993307466],[-46.8843151896674,-11.6910934484536],[-46.8842392995861,-11.6910930308514],[-46.8839058638319,-11.691043565472],[-46.8835318339471,-11.6909547256216],[-46.8831868254143,-11.6908149910096],[-46.8828885030806,-11.6905939212407],[-46.8828674092096,-11.6905797498554],[-46.8828248312845,-11.6905539095909],[-46.8827788242551,-11.6905315121581],[-46.8827322276934,-11.6905139235775],[-46.8827077161013,-11.6905059428238],[-46.8821638559867,-11.6903562100783],[-46.8821387079976,-11.6903505168331],[-46.8820898190022,-11.6903417893952],[-46.8820383544555,-11.6903374240992],[-46.8819886939239,-11.6903377893131],[-46.8819628679877,-11.6903391684749],[-46.8814250991316,-11.690392776836],[-46.8814146940117,-11.6903940103782],[-46.8813947301258,-11.6903967555057],[-46.8813843853536,-11.6903983749889],[-46.8809916382934,-11.6904673856427],[-46.8809723740164,-11.6904714724129],[-46.8809355652996,-11.6904806430758],[-46.8809166772388,-11.6904860596201],[-46.8805458914039,-11.6906066372808],[-46.8801542983219,-11.6907228227704],[-46.8797175283534,-11.690813431171],[-46.8796820344493,-11.6908232675025],[-46.8796150321648,-11.6908466853832],[-46.8795813220491,-11.6908610177909],[-46.8792092248333,-11.6910490599023],[-46.8790419253973,-11.6911136136036],[-46.8789423683057,-11.6910835018455],[-46.8787399751511,-11.6908809507891],[-46.878721947959,-11.6908644585364],[-46.8786848511207,-11.6908334510932],[-46.8786443947326,-11.6908053861306],[-46.878602366756,-11.690781484566],[-46.8785571021502,-11.6907608679932],[-46.8785114880246,-11.6907448372081],[-46.8784875129059,-11.6907376003388],[-46.8780501187039,-11.6906266629574],[-46.8780359139543,-11.6906234504897],[-46.8780083850145,-11.6906179719438],[-46.8779940135448,-11.6906154981296],[-46.8775350895501,-11.6905487213671],[-46.877510925976,-11.6905462660157],[-46.8774643395621,-11.6905435583906],[-46.8774158053734,-11.690544935814],[-46.8773694476149,-11.6905502821642],[-46.8773454869813,-11.6905541004201],[-46.8772883687655,-11.6905657537267],[-46.877287744422,-11.6905658818447],[-46.8772865416213,-11.690566130089],[-46.8772859174109,-11.6905662596587],[-46.876906236174,-11.6906455213777],[-46.8765434819554,-11.6907132267959],[-46.8762301223525,-11.6907190623869],[-46.8762011994317,-11.6907210960109],[-46.8761459436489,-11.6907278590615],[-46.8761174318797,-11.6907328518103],[-46.8756347551448,-11.6908433036029],[-46.8756307738979,-11.6908442452634],[-46.8756231095185,-11.6908461172509],[-46.8756191442569,-11.6908471164677],[-46.8751743788589,-11.6909626526355],[-46.8751511916709,-11.6909697619551],[-46.8751070502257,-11.690985421544],[-46.8750632103373,-11.6910053969966],[-46.8750224352482,-11.6910284422255],[-46.8750021238186,-11.6910411132814],[-46.8746717383356,-11.6912677145552],[-46.8746515224703,-11.6912829971356],[-46.8746131877939,-11.6913148645472],[-46.8745777190255,-11.6913503548679],[-46.8745458892285,-11.6913887207872],[-46.8745178742334,-11.6914296376217],[-46.8744936321899,-11.6914731968132],[-46.8744826620052,-11.6914952442917],[-46.874281575165,-11.6919510450507],[-46.8742729800811,-11.6919731491201],[-46.8742575295071,-11.6920188283889],[-46.8742464615137,-11.6920646692722],[-46.8742393744454,-11.6921123671664],[-46.8742366406775,-11.6921592908796],[-46.8742381427258,-11.6922074890062],[-46.8742437982347,-11.692254185951],[-46.8742538415884,-11.692301349992],[-46.8742677731379,-11.6923465089152],[-46.8742860380852,-11.6923911374707],[-46.8742960230583,-11.6924127285443],[-46.8744755603641,-11.6927594499175],[-46.8745068650558,-11.6929637935244],[-46.874381389251,-11.6931971306534],[-46.8743709221714,-11.6932189054983],[-46.8743517402896,-11.6932639336247],[-46.8743370039912,-11.6933095994957],[-46.874326257341,-11.6933573486955],[-46.8743200319799,-11.6934046893651],[-46.8743180729918,-11.693453593749],[-46.8743204883464,-11.6935012381442],[-46.874327381268,-11.6935496939394],[-46.8743383882566,-11.6935962725153],[-46.8743539070454,-11.6936426906589],[-46.8743625670551,-11.693665150718],[-46.874542218131,-11.6940747739023],[-46.8745792566997,-11.69419568155],[-46.8744268590836,-11.6943400118548],[-46.8741797664292,-11.6944317615208],[-46.8738842565159,-11.6944708010894],[-46.8734866984437,-11.6944477317628],[-46.8730671141071,-11.694409004769],[-46.8730549258356,-11.6944081464109],[-46.8730314715429,-11.6944070060506],[-46.8730192541126,-11.6944066778884],[-46.8726881840831,-11.6944049805635],[-46.8725137268479,-11.6943075761889],[-46.8722638549632,-11.6940708133999],[-46.8720733515956,-11.6937949075991],[-46.8720558492496,-11.6937722370699],[-46.8720184832447,-11.693728807258],[-46.8719985399126,-11.6937079767969],[-46.8717208262532,-11.6934471147239],[-46.8714999494324,-11.693103211508],[-46.8714899589519,-11.6930887227311],[-46.8714689484096,-11.6930602885232],[-46.8714579868447,-11.6930464275599],[-46.871202391332,-11.6927440944136],[-46.8710636890535,-11.692450943065],[-46.8709051831082,-11.6920391425594],[-46.8708925831731,-11.6920112956359],[-46.8708638541175,-11.691956417706],[-46.8708291945092,-11.6919054711056],[-46.8707887254296,-11.6918585755089],[-46.870767018869,-11.6918361660531],[-46.8704299046915,-11.6915258821215],[-46.8704203779838,-11.691517513695],[-46.8704011586079,-11.6915014051426],[-46.8703912239621,-11.6914934637535],[-46.8700176889033,-11.6912088167806],[-46.8699994995803,-11.6911960830291],[-46.8699628207479,-11.6911725497485],[-46.8699435706753,-11.6911612691517],[-46.8695693239112,-11.6909617748943],[-46.8695499966047,-11.6909524138418],[-46.869511733272,-11.6909356741614],[-46.869491664715,-11.6909278046445],[-46.8690711841944,-11.6907813997111],[-46.8690483579524,-11.690774528098],[-46.8690037623767,-11.6907631500613],[-46.8689803703288,-11.6907582334329],[-46.8685194545945,-11.6906816926336],[-46.8685001114576,-11.6906791670675],[-46.8684627737937,-11.6906756048893],[-46.8684432851142,-11.6906744265158],[-46.8681547747265,-11.6906670181826],[-46.8679459318666,-11.6905636081162],[-46.867724090915,-11.6903140781896],[-46.8677190253099,-11.6903085367299],[-46.8677087813218,-11.6902976371192],[-46.8677035547961,-11.6902922281135],[-46.8673445504234,-11.6899308302714],[-46.8673248303977,-11.6899128336917],[-46.8672841249061,-11.6898791794579],[-46.8672394780389,-11.6898491049678],[-46.8671930045785,-11.6898240099434],[-46.8671428255402,-11.6898029656144],[-46.8670923588789,-11.6897873881463],[-46.8670630910027,-11.6897814113324],[-46.8669244956811,-11.6900416383261],[-46.8669570434836,-11.6900386330497],[-46.867009576131,-11.6900440981143],[-46.8670600428256,-11.6900596756212],[-46.8671065163005,-11.6900847706826],[-46.8671472217856,-11.6901184249463],[-46.867506225997,-11.6904798230242],[-46.8675164699795,-11.6904907226413],[-46.8677736424166,-11.6907799942518],[-46.8680857236331,-11.6909345237311],[-46.8684360821922,-11.6909435204265],[-46.8684734198897,-11.6909470826288],[-46.8689343360061,-11.6910236237484],[-46.8689789316141,-11.6910350018183],[-46.8693994123885,-11.6911814070791],[-46.8694376757393,-11.69119814679],[-46.8698119226244,-11.6913976413465],[-46.8698486014622,-11.691421174656],[-46.8702221365018,-11.6917058219113],[-46.8702413558743,-11.6917219304777],[-46.8705784699471,-11.692032214644],[-46.8706189389989,-11.6920791102642],[-46.8706476680042,-11.6921339881977],[-46.8708097326906,-11.6925550354012],[-46.8709676433436,-11.6928887848785],[-46.8712459462811,-11.6932179780913],[-46.8712669568029,-11.693246412309],[-46.8715058383491,-11.693618349262],[-46.8718079638412,-11.6939021421843],[-46.8718453298202,-11.6939455720179],[-46.8720518552436,-11.6942446829526],[-46.8723472091389,-11.694524541916],[-46.8726145311011,-11.6946737954339],[-46.873017829276,-11.6946758633329],[-46.8730412835906,-11.6946770037074],[-46.8734656386358,-11.6947161712641],[-46.873894636238,-11.6947410651747],[-46.8742479039296,-11.6946943954655],[-46.8745775264911,-11.6945720011869],[-46.8748908815087,-11.6942752336488],[-46.8748012920221,-11.6939827811835],[-46.8746154421555,-11.6935590250311],[-46.8745999233194,-11.6935126068789],[-46.8745930303474,-11.6934641510633],[-46.8745949892885,-11.6934152466497],[-46.8746057359008,-11.6933674974146],[-46.8746249177588,-11.6933224692517],[-46.8747923515514,-11.6930111056332],[-46.8747411042816,-11.6926765875062],[-46.8745414904727,-11.6922910952301],[-46.8745232254814,-11.6922464666708],[-46.8745131820785,-11.6921993026138],[-46.8745116799818,-11.6921511044611],[-46.8745187670084,-11.6921034065338],[-46.8745342175527,-11.6920577272289],[-46.8747353041619,-11.6916019261001],[-46.874759546191,-11.6915583668731],[-46.874791375992,-11.6915200009246],[-46.8748297106904,-11.691488133494],[-46.8751600964144,-11.6912615321174],[-46.875200871538,-11.6912384868823],[-46.8752450130266,-11.6912228272993],[-46.8756897788757,-11.6911072912468],[-46.8756974432629,-11.6911054192615],[-46.8761801204897,-11.6909949676133],[-46.8762353763285,-11.6909882045864],[-46.8765721058401,-11.6909819339598],[-46.8769607549167,-11.6909093956844],[-46.877343358688,-11.6908295240695],[-46.8773445614899,-11.6908292758256],[-46.877401679764,-11.6908176225379],[-46.8774480375695,-11.690812276208],[-46.8774946240265,-11.6908149838616],[-46.8779535484114,-11.6908817609364],[-46.8779810773731,-11.690887239502],[-46.8784184718939,-11.6909981772084],[-46.8784640860468,-11.6910142080289],[-46.8785061140346,-11.691038109627],[-46.8785432108665,-11.6910691170973],[-46.878794406666,-11.6913205091227],[-46.879052997772,-11.6913987219976],[-46.8793231535575,-11.6912944806182],[-46.8797076224553,-11.691100186549],[-46.8797746248059,-11.6910767686777],[-46.8802229098856,-11.6909837716839],[-46.8806292500784,-11.6908632109485],[-46.8810034898216,-11.6907415102841],[-46.8810402985758,-11.6907323396313],[-46.8814330460369,-11.6906633291209],[-46.8814530099431,-11.6906605840015],[-46.8819907793418,-11.6906069758848],[-46.8820404399215,-11.6906066106983],[-46.8820893289568,-11.6906153381705],[-46.8826331894532,-11.6907650713253],[-46.882679786041,-11.6907826599424],[-46.8827223639748,-11.6908085002406],[-46.8830488912617,-11.6910504713382],[-46.8834462513687,-11.6912114095093],[-46.8838526896112,-11.691307947248],[-46.8842178024501,-11.6913621121393],[-46.8844074989417,-11.6913631560687],[-46.8846098196517,-11.6912121469506],[-46.8850164458894,-11.6908992310071],[-46.8852745177397,-11.69065864206],[-46.8854231631214,-11.690377461195],[-46.8855352497343,-11.6900576786944],[-46.8855564716582,-11.6900115515491],[-46.8855859465262,-11.6899702076772],[-46.8856226340534,-11.6899351062678],[-46.8860271691251,-11.6896151147814],[-46.8860854268935,-11.6893329855285],[-46.8861035271443,-11.6892770004725],[-46.8862825081185,-11.6888781048865],[-46.8862847032886,-11.6888733370108],[-46.8864637261496,-11.688494236633],[-46.8864962603398,-11.6884418276025],[-46.8865398307542,-11.6883981606927],[-46.8865921676828,-11.6883655106403],[-46.8868654545796,-11.6882357159847],[-46.8869495151485,-11.6879526350613],[-46.8869671473031,-11.6879081427765],[-46.8869923506472,-11.6878674580407],[-46.887024334896,-11.6878318565785],[-46.8873251760329,-11.6875514744203],[-46.8873425473965,-11.6875366065645],[-46.8875955771025,-11.6873379541596],[-46.8877542143635,-11.6871265584113],[-46.8877950098127,-11.6870831365025],[-46.8878443278193,-11.6870497079957],[-46.8881439859599,-11.6868917035068],[-46.8882847437263,-11.6865778282264],[-46.8883100070221,-11.6865333310669],[-46.8883432041058,-11.6864943928472],[-46.8883831450748,-11.6864624092527],[-46.8884283983015,-11.6864385266902],[-46.8884773417481,-11.6864236011964],[-46.8891826345179,-11.6862797562079],[-46.8892470758212,-11.6862745060125],[-46.8893109201647,-11.6862847112034],[-46.890058990408,-11.6864985287636],[-46.8901079625794,-11.6865178597489],[-46.8901522577242,-11.6865463185034],[-46.8901901949241,-11.6865828250703],[-46.8902203345329,-11.6866259940932],[-46.8902415328086,-11.686674187388],[-46.8903651486475,-11.6870512048224],[-46.8903767963213,-11.687104230415],[-46.8903996852171,-11.6873013114379],[-46.8904005631782,-11.6873548512537],[-46.8903908685636,-11.6874075133572],[-46.8903709819171,-11.6874572305975],[-46.8903416838511,-11.6875020514188],[-46.8903041244056,-11.687540216465],[-46.8902597779053,-11.6875702276396],[-46.8902103850877,-11.6875909069111],[-46.8901578847741,-11.6876014425538],[-46.8901561848519,-11.6876014418699],[-46.8902696800238,-11.6876524393133],[-46.8903259411014,-11.6876864909454],[-46.8907054432744,-11.6879848314662],[-46.8910141605945,-11.688176689738],[-46.8913147492225,-11.6882248518795],[-46.8916832403264,-11.6882264420282],[-46.891710618261,-11.6882279510678],[-46.8917396472313,-11.6882310341654],[-46.8919319041659,-11.6872735315685],[-46.8919488527979,-11.6872193792449],[-46.891976734248,-11.6871699590565],[-46.8920143195548,-11.6871274493518],[-46.892059952029,-11.687093723878],[-46.8922669427433,-11.6869720828241],[-46.8918315283759,-11.6860682904],[-46.8918135269195,-11.6860193227514],[-46.8918052692011,-11.6859678087424],[-46.8918070629245,-11.6859156679178],[-46.891818841251,-11.685864843179],[-46.8918401652897,-11.6858172283871],[-46.8918702404521,-11.6857745977919],[-46.89190794606,-11.6857385399194],[-46.8919518771052,-11.6857103983787],[-46.8920003966037,-11.6856912217964],[-46.8920516965938,-11.6856817247414],[-46.8921038655056,-11.6856822610983],[-46.892154959391,-11.6856928108813],[-46.8924388557099,-11.6857807189698],[-46.8924865940813,-11.68576980326],[-46.8925187240155,-11.6857326927325],[-46.8925118692263,-11.6855471985817],[-46.8925151116919,-11.6854943156548],[-46.8925286088016,-11.6854430814321],[-46.8925518418692,-11.6853954648161],[-46.8925658839956,-11.6853770042628],[-46.8924986100761,-11.6853271216626],[-46.8923686320353,-11.6851866950396]]]}}]}