{"type":"FeatureCollection","features":[{"type":"Feature","properties":{"cod_tema":"AREA_IMOVEL","nom_tema":"Area do Imovel","cod_imovel":"TO-1707009-92B0F54E88494AD5810A452D0D657AEC","mod_fiscal":5.3303,"num_area":426.4244,"ind_status":"AT","ind_tipo":"IRU","des_condic":"Aguardando analise","municipio":"Dianopolis","cod_estado":"TO","dat_criaca":"16/08/2024","dat_atuali":"16/08/2024","NOME":"Área da Propriedade Rural","OS":"OS 04.05","IMOVEL":"Cabeceira da Buzina"},"geometry":{"type":"Polygon","coordinates":[[[-46.8501169,-11.6524646],[-46.8561745,-11.6535803],[-46.8563116,-11.6536415],[-46.8576685,-11.6550856],[-46.8568617,-11.6664348],[-46.8571565,-11.6684415],[-46.8580412,-11.6768855],[-46.8550979,-11.6794851],[-46.8558214,-11.6828606],[-46.855159,-11.6866537],[-46.8549769,-11.6868806],[-46.8546735,-11.6865126],[-46.854577,-11.6863339],[-46.8545647,-11.686303],[-46.8543659,-11.6860274],[-46.8541194,-11.6858931],[-46.8541964,-11.6856248],[-46.8543734,-11.6852893],[-46.854376,-11.684921],[-46.8542296,-11.6845662],[-46.8540825,-11.684217],[-46.8541267,-11.6838966],[-46.8539069,-11.6835932],[-46.8535799,-11.6835366],[-46.8531824,-11.6835272],[-46.8529006,-11.683524],[-46.8525462,-11.6834665],[-46.8522101,-11.6833595],[-46.8519044,-11.6833271],[-46.8516963,-11.6832929],[-46.8513968,-11.6833182],[-46.8511612,-11.6832921],[-46.8509728,-11.6831608],[-46.8508515,-11.6832806],[-46.8506077,-11.6833453],[-46.8504967,-11.6833394],[-46.8503214,-11.6832674],[-46.8501512,-11.6833251],[-46.8499634,-11.6833713],[-46.8496819,-11.6834729],[-46.8494218,-11.683675],[-46.8491792,-11.6835317],[-46.8489689,-11.6833556],[-46.8487978,-11.6831447],[-46.8486077,-11.6828942],[-46.8485785,-11.6826119],[-46.8481167,-11.6827209],[-46.8478227,-11.6828456],[-46.8475294,-11.6830296],[-46.8473366,-11.6832271],[-46.8472104,-11.683468],[-46.8470306,-11.683623],[-46.8466957,-11.6837594],[-46.8463851,-11.6839287],[-46.8461481,-11.6840641],[-46.8460299,-11.6841482],[-46.8457681,-11.6840767],[-46.8455275,-11.6839943],[-46.8455066,-11.6838889],[-46.8456283,-11.6835927],[-46.8457677,-11.6833615],[-46.8460428,-11.6831467],[-46.8460448,-11.6831806],[-46.8462262,-11.6832673],[-46.8463962,-11.6830687],[-46.8464275,-11.6827555],[-46.8462805,-11.6826631],[-46.8462032,-11.6822869],[-46.8461389,-11.6821586],[-46.84605,-11.6820196],[-46.8459107,-11.6818925],[-46.8457462,-11.6818279],[-46.8454112,-11.6817576],[-46.84542,-11.6813971],[-46.8454558,-11.6810837],[-46.8454395,-11.6807631],[-46.8454928,-11.6804499],[-46.845772,-11.6801857],[-46.8459322,-11.6798705],[-46.8459275,-11.6797499],[-46.8459012,-11.6796072],[-46.8460408,-11.6793776],[-46.8457151,-11.6791285],[-46.8454126,-11.6789776],[-46.8452755,-11.6788904],[-46.8451714,-11.6787747],[-46.8448983,-11.6788642],[-46.8448073,-11.6792314],[-46.8447067,-11.679464],[-46.8444872,-11.6796164],[-46.8442204,-11.6796655],[-46.8440613,-11.6792886],[-46.8437995,-11.6792902],[-46.8436933,-11.6789901],[-46.8435015,-11.6788525],[-46.8434568,-11.6787002],[-46.8436975,-11.6785292],[-46.8437611,-11.6782641],[-46.8439058,-11.6780006],[-46.8437365,-11.6777026],[-46.8437724,-11.6772439],[-46.8436104,-11.677044],[-46.8435654,-11.6768452],[-46.8436092,-11.6765809],[-46.843291,-11.6763971],[-46.8431868,-11.6761986],[-46.8431332,-11.6759323],[-46.8430024,-11.6756059],[-46.8432113,-11.6753865],[-46.8434039,-11.6751317],[-46.8437013,-11.675014],[-46.843346,-11.6747532],[-46.8430438,-11.6745254],[-46.8433701,-11.6744825],[-46.8430274,-11.6742676],[-46.8432594,-11.6741799],[-46.8435186,-11.6739353],[-46.8434431,-11.6736233],[-46.8433251,-11.6732805],[-46.8433582,-11.6730057],[-46.8433555,-11.6726342],[-46.8432418,-11.6725414],[-46.8432677,-11.6724453],[-46.8435122,-11.6723257],[-46.8436816,-11.6720502],[-46.8439558,-11.6719996],[-46.8441515,-11.6717705],[-46.8436482,-11.6715627],[-46.8433284,-11.6713227],[-46.8432813,-11.6711011],[-46.8432895,-11.6708808],[-46.843136,-11.6707791],[-46.843181,-11.6703225],[-46.8430693,-11.6700789],[-46.8434136,-11.6698605],[-46.8432248,-11.6698392],[-46.8432457,-11.669822],[-46.8432749,-11.6695534],[-46.8431206,-11.6693886],[-46.842705,-11.6689653],[-46.8427681,-11.6687102],[-46.8429171,-11.6686086],[-46.8431196,-11.6687036],[-46.8434204,-11.6685088],[-46.8434838,-11.6682598],[-46.8435264,-11.6679962],[-46.8489845,-11.6627264],[-46.8447211,-11.6573123],[-46.8461945,-11.656463],[-46.8461382,-11.6562302],[-46.8498861,-11.6545632],[-46.8501169,-11.6524646]]]}},{"type":"Feature","properties":{"cod_tema":"VEGETACAO_NATIVA","nom_tema":"Remanescente de Vegetacao Nativa","cod_imovel":"TO-1707009-92B0F54E88494AD5810A452D0D657AEC","num_area":255.4109,"ind_status":"AT","des_condic":"Aguardando analise","NOME":"Área de Vegetação Nativa","OS":"OS 04.05","IMOVEL":"Cabeceira da Buzina"},"geometry":{"type":"Polygon","coordinates":[[[-46.8461945,-11.656463],[-46.8461382,-11.6562302],[-46.8498861,-11.6545632],[-46.8501169,-11.6524646],[-46.8561745,-11.6535803],[-46.8563116,-11.6536415],[-46.8576685,-11.6550856],[-46.8568617,-11.6664348],[-46.8571565,-11.6684415],[-46.8580412,-11.6768855],[-46.8435347,-11.6680012],[-46.8435353,-11.6679976],[-46.8435354,-11.6679958],[-46.8435351,-11.6679941],[-46.8435346,-11.6679924],[-46.8435337,-11.6679909],[-46.8435328,-11.6679899],[-46.848984,-11.6627269],[-46.848986,-11.6627294],[-46.8492305,-11.6630177],[-46.8494501,-11.6634268],[-46.8495675,-11.6636588],[-46.8495692,-11.6639127],[-46.8497389,-11.6642544],[-46.8498096,-11.6645502],[-46.8496955,-11.6648303],[-46.849474,-11.6650983],[-46.8493732,-11.6654291],[-46.8494224,-11.6660509],[-46.8496607,-11.6663752],[-46.8500134,-11.6664703],[-46.8503406,-11.6666036],[-46.8506881,-11.6665675],[-46.8509319,-11.6664221],[-46.85116,-11.6665052],[-46.8512221,-11.666799],[-46.8513661,-11.666834],[-46.8513817,-11.666908],[-46.8514994,-11.6668543],[-46.8516544,-11.6669189],[-46.8518962,-11.666801],[-46.8520203,-11.6667388],[-46.8522346,-11.6666845],[-46.8524745,-11.6669179],[-46.8525338,-11.6671312],[-46.852576,-11.6673446],[-46.8525178,-11.6676201],[-46.8523721,-11.6679956],[-46.8521871,-11.6679375],[-46.8519267,-11.6681593],[-46.8522125,-11.6685256],[-46.8525873,-11.6680704],[-46.8524366,-11.6680058],[-46.8525254,-11.6677957],[-46.8525797,-11.6675774],[-46.8526236,-11.6674015],[-46.8526249,-11.6672682],[-46.8525835,-11.6671753],[-46.8525524,-11.6670147],[-46.8524934,-11.6668543],[-46.8523766,-11.6667323],[-46.8522838,-11.6666567],[-46.8521741,-11.6666257],[-46.8517113,-11.6667641],[-46.8514282,-11.6667998],[-46.8513033,-11.6667413],[-46.8512414,-11.6664709],[-46.8511549,-11.6663783],[-46.8510001,-11.6663539],[-46.8508544,-11.6663887],[-46.8505548,-11.6665303],[-46.8502969,-11.6664981],[-46.849918,-11.666327],[-46.8497201,-11.6662733],[-46.8494391,-11.6659873],[-46.8494483,-11.6654286],[-46.8495322,-11.665136],[-46.8497409,-11.6648765],[-46.8498872,-11.6645963],[-46.8498344,-11.6644019],[-46.8498033,-11.6642413],[-46.8497324,-11.6640725],[-46.8496261,-11.6639071],[-46.84961,-11.6637559],[-46.8495985,-11.66363],[-46.8495222,-11.663456],[-46.8494222,-11.6632683],[-46.8493091,-11.6630479],[-46.8491737,-11.6628636],[-46.8490311,-11.662727],[-46.8488384,-11.6624849],[-46.8487384,-11.6622824],[-46.8486197,-11.6621964],[-46.8486384,-11.6621074],[-46.8485671,-11.662038],[-46.8484816,-11.662083],[-46.8488845,-11.6625993],[-46.8447211,-11.6573123],[-46.8461945,-11.656463]]]}},{"type":"Feature","properties":{"cod_imovel":"TO-1707009-92B0F54E88494AD5810A452D0D657AEC","uf":"TO","municipio":"Dianópolis","bioma":"2","temas_ambi":"Remanescente de Vegetação Nativa","modulos_ru":5.3303,"sobreposic":0.0,"sobreposi0":0.0,"sobreposi1":0.0,"sobreposi2":0.0,"sobreposi3":0.0,"tipo_imove":"IRU","situacao_a":"Aguardando análise","status_imo":"AT","nu_retific":0,"dt_atualiz":"2024-08-16","dt_criacao":"2024-08-16","nu_area_im":255.4109,"NOME":"Área de Vegetação Nativa","OS":"OS 04.05","IMOVEL":"Cabeceira da Buzina"},"geometry":{"type":"Polygon","coordinates":[[[-46.8461945,-11.656463],[-46.8461382,-11.6562302],[-46.8498861,-11.6545632],[-46.8501169,-11.6524646],[-46.8561745,-11.6535803],[-46.8563116,-11.6536415],[-46.8576685,-11.6550856],[-46.8568617,-11.6664348],[-46.8571565,-11.6684415],[-46.8580412,-11.6768855],[-46.8435347,-11.6680012],[-46.8435353,-11.6679976],[-46.8435354,-11.6679958],[-46.8435351,-11.6679941],[-46.8435346,-11.6679924],[-46.8435337,-11.6679909],[-46.8435328,-11.6679899],[-46.848984,-11.6627269],[-46.848986,-11.6627294],[-46.8492305,-11.6630177],[-46.8494501,-11.6634268],[-46.8495675,-11.6636588],[-46.8495692,-11.6639127],[-46.8497389,-11.6642544],[-46.8498096,-11.6645502],[-46.8496955,-11.6648303],[-46.849474,-11.6650983],[-46.8493732,-11.6654291],[-46.8494224,-11.6660509],[-46.8496607,-11.6663752],[-46.8500134,-11.6664703],[-46.8503406,-11.6666036],[-46.8506881,-11.6665675],[-46.8509319,-11.6664221],[-46.85116,-11.6665052],[-46.8512221,-11.666799],[-46.8513661,-11.666834],[-46.8513817,-11.666908],[-46.8514994,-11.6668543],[-46.8516544,-11.6669189],[-46.8518962,-11.666801],[-46.8520203,-11.6667388],[-46.8522346,-11.6666845],[-46.8524745,-11.6669179],[-46.8525338,-11.6671312],[-46.852576,-11.6673446],[-46.8525178,-11.6676201],[-46.8523721,-11.6679956],[-46.8521871,-11.6679375],[-46.8519267,-11.6681593],[-46.8522125,-11.6685256],[-46.8525873,-11.6680704],[-46.8524366,-11.6680058],[-46.8525254,-11.6677957],[-46.8525797,-11.6675774],[-46.8526236,-11.6674015],[-46.8526249,-11.6672682],[-46.8525835,-11.6671753],[-46.8525524,-11.6670147],[-46.8524934,-11.6668543],[-46.8523766,-11.6667323],[-46.8522838,-11.6666567],[-46.8521741,-11.6666257],[-46.8517113,-11.6667641],[-46.8514282,-11.6667998],[-46.8513033,-11.6667413],[-46.8512414,-11.6664709],[-46.8511549,-11.6663783],[-46.8510001,-11.6663539],[-46.8508544,-11.6663887],[-46.8505548,-11.6665303],[-46.8502969,-11.6664981],[-46.849918,-11.666327],[-46.8497201,-11.6662733],[-46.8494391,-11.6659873],[-46.8494483,-11.6654286],[-46.8495322,-11.665136],[-46.8497409,-11.6648765],[-46.8498872,-11.6645963],[-46.8498344,-11.6644019],[-46.8498033,-11.6642413],[-46.8497324,-11.6640725],[-46.8496261,-11.6639071],[-46.84961,-11.6637559],[-46.8495985,-11.66363],[-46.8495222,-11.663456],[-46.8494222,-11.6632683],[-46.8493091,-11.6630479],[-46.8491737,-11.6628636],[-46.8490311,-11.662727],[-46.8488384,-11.6624849],[-46.8487384,-11.6622824],[-46.8486197,-11.6621964],[-46.8486384,-11.6621074],[-46.8485671,-11.662038],[-46.8484816,-11.662083],[-46.8488845,-11.6625993],[-46.8447211,-11.6573123],[-46.8461945,-11.656463]]]}},{"type":"Feature","properties":{"cod_tema":"AREA_CONSOLIDADA","nom_tema":"Area Consolidada","cod_imovel":"TO-1707009-92B0F54E88494AD5810A452D0D657AEC","num_area":0.9931,"ind_status":"AT","des_condic":"Aguardando analise","NOME":"Área Consolidada","OS":"OS 04.05","IMOVEL":"Cabeceira da Buzina"},"geometry":{"type":"Polygon","coordinates":[[[-46.8484816,-11.662083],[-46.8485671,-11.662038],[-46.8486384,-11.6621074],[-46.8486197,-11.6621964],[-46.8487384,-11.6622824],[-46.8488384,-11.6624849],[-46.8490311,-11.662727],[-46.8491737,-11.6628636],[-46.8493091,-11.6630479],[-46.8494222,-11.6632683],[-46.8495222,-11.663456],[-46.8495985,-11.66363],[-46.84961,-11.6637559],[-46.8496261,-11.6639071],[-46.8497324,-11.6640725],[-46.8498033,-11.6642413],[-46.8498344,-11.6644019],[-46.8498872,-11.6645963],[-46.8497409,-11.6648765],[-46.8495322,-11.665136],[-46.8494483,-11.6654286],[-46.8494391,-11.6659873],[-46.8497201,-11.6662733],[-46.849918,-11.666327],[-46.8502969,-11.6664981],[-46.8505548,-11.6665303],[-46.8508544,-11.6663887],[-46.8510001,-11.6663539],[-46.8511549,-11.6663783],[-46.8512414,-11.6664709],[-46.8513033,-11.6667413],[-46.8514282,-11.6667998],[-46.8517113,-11.6667641],[-46.8521741,-11.6666257],[-46.8522838,-11.6666567],[-46.8523766,-11.6667323],[-46.8524934,-11.6668543],[-46.8525524,-11.6670147],[-46.8525835,-11.6671753],[-46.8526249,-11.6672682],[-46.8526236,-11.6674015],[-46.8525797,-11.6675774],[-46.8525254,-11.6677957],[-46.8524366,-11.6680058],[-46.8525873,-11.6680704],[-46.8522125,-11.6685256],[-46.8519267,-11.6681593],[-46.8521871,-11.6679375],[-46.8523721,-11.6679956],[-46.8525178,-11.6676201],[-46.852576,-11.6673446],[-46.8525338,-11.6671312],[-46.8524745,-11.6669179],[-46.8522346,-11.6666845],[-46.8520203,-11.6667388],[-46.8518962,-11.666801],[-46.8516544,-11.6669189],[-46.8514994,-11.6668543],[-46.8513817,-11.666908],[-46.8513661,-11.666834],[-46.8512221,-11.666799],[-46.85116,-11.6665052],[-46.8509319,-11.6664221],[-46.8506881,-11.6665675],[-46.8503406,-11.6666036],[-46.8500134,-11.6664703],[-46.8496607,-11.6663752],[-46.8494224,-11.6660509],[-46.8493732,-11.6654291],[-46.849474,-11.6650983],[-46.8496955,-11.6648303],[-46.8498096,-11.6645502],[-46.8497389,-11.6642544],[-46.8495692,-11.6639127],[-46.8495675,-11.6636588],[-46.8494501,-11.6634268],[-46.8492305,-11.6630177],[-46.848986,-11.6627294],[-46.848984,-11.6627269],[-46.8489845,-11.6627264],[-46.8488845,-11.6625994],[-46.8484816,-11.662083]]]}},{"type":"Feature","properties":{"cod_imovel":"TO-1707009-92B0F54E88494AD5810A452D0D657AEC","uf":"TO","municipio":"Dianópolis","bioma":"2","temas_ambi":"Área Consolidada","modulos_ru":5.3303,"sobreposic":0.0,"sobreposi0":0.0,"sobreposi1":0.0,"sobreposi2":0.0,"sobreposi3":0.0,"tipo_imove":"IRU","situacao_a":"Aguardando análise","status_imo":"AT","nu_retific":0,"dt_atualiz":"2024-08-16","dt_criacao":"2024-08-16","nu_area_im":0.9931,"NOME":"Área Consolidada","OS":"OS 04.05","IMOVEL":"Cabeceira da Buzina"},"geometry":{"type":"Polygon","coordinates":[[[-46.8484816,-11.662083],[-46.8485671,-11.662038],[-46.8486384,-11.6621074],[-46.8486197,-11.6621964],[-46.8487384,-11.6622824],[-46.8488384,-11.6624849],[-46.8490311,-11.662727],[-46.8491737,-11.6628636],[-46.8493091,-11.6630479],[-46.8494222,-11.6632683],[-46.8495222,-11.663456],[-46.8495985,-11.66363],[-46.84961,-11.6637559],[-46.8496261,-11.6639071],[-46.8497324,-11.6640725],[-46.8498033,-11.6642413],[-46.8498344,-11.6644019],[-46.8498872,-11.6645963],[-46.8497409,-11.6648765],[-46.8495322,-11.665136],[-46.8494483,-11.6654286],[-46.8494391,-11.6659873],[-46.8497201,-11.6662733],[-46.849918,-11.666327],[-46.8502969,-11.6664981],[-46.8505548,-11.6665303],[-46.8508544,-11.6663887],[-46.8510001,-11.6663539],[-46.8511549,-11.6663783],[-46.8512414,-11.6664709],[-46.8513033,-11.6667413],[-46.8514282,-11.6667998],[-46.8517113,-11.6667641],[-46.8521741,-11.6666257],[-46.8522838,-11.6666567],[-46.8523766,-11.6667323],[-46.8524934,-11.6668543],[-46.8525524,-11.6670147],[-46.8525835,-11.6671753],[-46.8526249,-11.6672682],[-46.8526236,-11.6674015],[-46.8525797,-11.6675774],[-46.8525254,-11.6677957],[-46.8524366,-11.6680058],[-46.8525873,-11.6680704],[-46.8522125,-11.6685256],[-46.8519267,-11.6681593],[-46.8521871,-11.6679375],[-46.8523721,-11.6679956],[-46.8525178,-11.6676201],[-46.852576,-11.6673446],[-46.8525338,-11.6671312],[-46.8524745,-11.6669179],[-46.8522346,-11.6666845],[-46.8520203,-11.6667388],[-46.8518962,-11.666801],[-46.8516544,-11.6669189],[-46.8514994,-11.6668543],[-46.8513817,-11.666908],[-46.8513661,-11.666834],[-46.8512221,-11.666799],[-46.85116,-11.6665052],[-46.8509319,-11.6664221],[-46.8506881,-11.6665675],[-46.8503406,-11.6666036],[-46.8500134,-11.6664703],[-46.8496607,-11.6663752],[-46.8494224,-11.6660509],[-46.8493732,-11.6654291],[-46.849474,-11.6650983],[-46.8496955,-11.6648303],[-46.8498096,-11.6645502],[-46.8497389,-11.6642544],[-46.8495692,-11.6639127],[-46.8495675,-11.6636588],[-46.8494501,-11.6634268],[-46.8492305,-11.6630177],[-46.848986,-11.6627294],[-46.848984,-11.6627269],[-46.8489845,-11.6627264],[-46.8488845,-11.6625994],[-46.8484816,-11.662083]]]}},{"type":"Feature","properties":{"cod_tema":"RIO_ATE_10","nom_tema":"Curso d'agua natural de ate 10 metros","cod_imovel":"TO-1707009-92B0F54E88494AD5810A452D0D657AEC","ind_status":"AT","des_condic":"Aguardando analise","NOME":"Hidrografia do Imóvel","OS":"OS 04.05","IMOVEL":"Cabeceira da Buzina"},"geometry":{"type":"Polygon","coordinates":[[[-46.843475,-11.6682579],[-46.8435175,-11.6679947],[-46.8435179,-11.667993],[-46.8435187,-11.6679914],[-46.8435198,-11.66799],[-46.8435211,-11.6679889],[-46.8435226,-11.667988],[-46.8435243,-11.6679874],[-46.843526,-11.6679872],[-46.8435278,-11.6679873],[-46.8435295,-11.6679877],[-46.8435311,-11.6679885],[-46.8435325,-11.6679896],[-46.8435337,-11.6679909],[-46.8435346,-11.6679924],[-46.8435351,-11.6679941],[-46.8435354,-11.6679958],[-46.8435353,-11.6679976],[-46.8434927,-11.6682612],[-46.8434925,-11.668262],[-46.8434292,-11.668511],[-46.8434286,-11.6685126],[-46.8434278,-11.6685141],[-46.8434267,-11.6685153],[-46.8434253,-11.6685164],[-46.8431245,-11.6687111],[-46.8431229,-11.668712],[-46.8431212,-11.6687124],[-46.8431193,-11.6687126],[-46.8431175,-11.6687123],[-46.8431158,-11.6687117],[-46.8429179,-11.6686189],[-46.842776,-11.6687158],[-46.842715,-11.6689626],[-46.843127,-11.6693823],[-46.8431272,-11.6693825],[-46.8432815,-11.6695473],[-46.8432827,-11.6695488],[-46.8432835,-11.6695506],[-46.8432839,-11.6695525],[-46.8432839,-11.6695544],[-46.8432547,-11.669823],[-46.8432543,-11.6698247],[-46.8432536,-11.6698263],[-46.8432527,-11.6698277],[-46.8432514,-11.669829],[-46.8432469,-11.6698326],[-46.8434146,-11.6698516],[-46.8434163,-11.6698519],[-46.8434178,-11.6698526],[-46.8434193,-11.6698535],[-46.8434205,-11.6698547],[-46.8434215,-11.6698561],[-46.8434221,-11.6698577],[-46.8434225,-11.6698593],[-46.8434226,-11.669861],[-46.8434223,-11.6698627],[-46.8434218,-11.6698643],[-46.8434209,-11.6698658],[-46.8434198,-11.6698671],[-46.8434184,-11.6698681],[-46.8430808,-11.6700823],[-46.8431892,-11.6703187],[-46.8431898,-11.6703202],[-46.84319,-11.6703218],[-46.84319,-11.6703234],[-46.8431455,-11.6707746],[-46.8432944,-11.6708732],[-46.8432959,-11.6708744],[-46.843297,-11.6708758],[-46.8432979,-11.6708775],[-46.8432983,-11.6708793],[-46.8432985,-11.6708811],[-46.8432903,-11.6711003],[-46.8433365,-11.6713175],[-46.8436527,-11.6715548],[-46.844155,-11.6717621],[-46.8441565,-11.6717629],[-46.8441578,-11.671764],[-46.8441589,-11.6717653],[-46.8441597,-11.6717668],[-46.8441603,-11.6717684],[-46.8441605,-11.67177],[-46.8441605,-11.6717717],[-46.8441601,-11.6717734],[-46.8441594,-11.6717749],[-46.8441584,-11.6717763],[-46.8439626,-11.6720055],[-46.8439611,-11.6720069],[-46.8439594,-11.6720079],[-46.8439574,-11.6720085],[-46.8436872,-11.6720583],[-46.8435199,-11.6723304],[-46.8435189,-11.6723318],[-46.8435176,-11.6723329],[-46.8435162,-11.6723338],[-46.8432753,-11.6724516],[-46.843252,-11.6725381],[-46.8433612,-11.6726272],[-46.8433626,-11.6726287],[-46.8433636,-11.6726303],[-46.8433643,-11.6726322],[-46.8433645,-11.6726342],[-46.8433672,-11.6730057],[-46.8433671,-11.6730068],[-46.8433343,-11.6732796],[-46.8434516,-11.6736203],[-46.8434519,-11.6736212],[-46.8435273,-11.6739332],[-46.8435276,-11.673935],[-46.8435274,-11.6739369],[-46.8435269,-11.6739387],[-46.843526,-11.6739404],[-46.8435247,-11.6739418],[-46.8432656,-11.6741865],[-46.8432642,-11.6741876],[-46.8432626,-11.6741884],[-46.8430476,-11.6742696],[-46.8433749,-11.6744748],[-46.8433764,-11.674476],[-46.8433775,-11.6744774],[-46.8433784,-11.674479],[-46.843379,-11.6744807],[-46.8433791,-11.6744826],[-46.8433789,-11.6744844],[-46.8433783,-11.6744861],[-46.8433774,-11.6744877],[-46.8433762,-11.6744891],[-46.8433747,-11.6744902],[-46.8433731,-11.674491],[-46.8433713,-11.6744914],[-46.8430668,-11.6745315],[-46.8433513,-11.674746],[-46.8437066,-11.6750068],[-46.8437079,-11.6750079],[-46.843709,-11.6750093],[-46.8437098,-11.6750109],[-46.8437102,-11.6750126],[-46.8437103,-11.6750143],[-46.8437101,-11.675016],[-46.8437095,-11.6750177],[-46.8437087,-11.6750192],[-46.8437075,-11.6750205],[-46.8437062,-11.6750216],[-46.8437046,-11.6750224],[-46.8434096,-11.6751392],[-46.8432185,-11.675392],[-46.8432178,-11.6753927],[-46.8430129,-11.6756079],[-46.8431415,-11.6759289],[-46.843142,-11.6759305],[-46.8431954,-11.6761955],[-46.8432977,-11.6763906],[-46.8436137,-11.6765731],[-46.8436152,-11.6765741],[-46.8436164,-11.6765755],[-46.8436174,-11.676577],[-46.843618,-11.6765787],[-46.8436182,-11.6765805],[-46.8436181,-11.6765823],[-46.8435746,-11.6768449],[-46.8436187,-11.67704],[-46.8437794,-11.6772383],[-46.8437803,-11.6772397],[-46.843781,-11.6772412],[-46.8437813,-11.6772429],[-46.8437813,-11.6772446],[-46.8437457,-11.6777006],[-46.8439136,-11.6779961],[-46.8439143,-11.6779978],[-46.8439147,-11.6779996],[-46.8439147,-11.6780014],[-46.8439144,-11.6780032],[-46.8439137,-11.6780049],[-46.8437696,-11.6782674],[-46.8437062,-11.6785313],[-46.8437057,-11.6785328],[-46.843705,-11.6785342],[-46.8437039,-11.6785355],[-46.8437027,-11.6785365],[-46.8434672,-11.6787038],[-46.8435093,-11.678847],[-46.8436985,-11.6789828],[-46.8436999,-11.678984],[-46.843701,-11.6789854],[-46.8437018,-11.6789871],[-46.8438058,-11.6792812],[-46.8440612,-11.6792796],[-46.844063,-11.6792798],[-46.8440647,-11.6792803],[-46.8440662,-11.6792811],[-46.8440676,-11.6792822],[-46.8440687,-11.6792836],[-46.8440696,-11.6792851],[-46.8442259,-11.6796553],[-46.8444836,-11.6796079],[-46.8446995,-11.6794581],[-46.8447988,-11.6792285],[-46.8448895,-11.678862],[-46.8448901,-11.6788603],[-46.8448911,-11.6788588],[-46.8448923,-11.6788574],[-46.8448938,-11.6788564],[-46.8448955,-11.6788556],[-46.8451686,-11.6787661],[-46.8451703,-11.6787657],[-46.845172,-11.6787657],[-46.8451738,-11.678766],[-46.8451754,-11.6787666],[-46.8451769,-11.6787675],[-46.8451781,-11.6787687],[-46.8452813,-11.6788834],[-46.845417,-11.6789697],[-46.8457191,-11.6791204],[-46.8457205,-11.6791214],[-46.8460463,-11.6793705],[-46.8460476,-11.6793718],[-46.8460487,-11.6793733],[-46.8460494,-11.679375],[-46.8460498,-11.6793769],[-46.8460497,-11.6793788],[-46.8460493,-11.6793806],[-46.8460485,-11.6793823],[-46.8459107,-11.679609],[-46.8459364,-11.6797483],[-46.8459365,-11.6797496],[-46.8459412,-11.6798702],[-46.8459411,-11.6798717],[-46.8459408,-11.6798732],[-46.8459402,-11.6798746],[-46.8457801,-11.6801898],[-46.8457793,-11.6801911],[-46.8457782,-11.6801923],[-46.8455012,-11.6804544],[-46.8454486,-11.6807637],[-46.8454648,-11.6810833],[-46.8454647,-11.6810848],[-46.845429,-11.6813977],[-46.8454204,-11.6817504],[-46.8457481,-11.6818191],[-46.8457495,-11.6818195],[-46.845914,-11.6818842],[-46.8459155,-11.6818849],[-46.8459168,-11.6818859],[-46.846056,-11.6820129],[-46.8460575,-11.6820147],[-46.8461465,-11.6821538],[-46.846147,-11.6821546],[-46.8462113,-11.6822828],[-46.8462121,-11.682285],[-46.8462885,-11.6826575],[-46.8464323,-11.6827479],[-46.8464337,-11.6827489],[-46.8464348,-11.6827502],[-46.8464356,-11.6827516],[-46.8464362,-11.6827531],[-46.8464365,-11.6827548],[-46.8464365,-11.6827564],[-46.8464052,-11.6830696],[-46.8464048,-11.6830714],[-46.8464041,-11.683073],[-46.8464031,-11.6830745],[-46.8462331,-11.6832731],[-46.8462319,-11.6832743],[-46.8462305,-11.6832752],[-46.8462289,-11.6832759],[-46.8462273,-11.6832762],[-46.8462256,-11.6832763],[-46.8462239,-11.683276],[-46.8462223,-11.6832754],[-46.8460409,-11.6831887],[-46.8460393,-11.6831877],[-46.8460379,-11.6831864],[-46.8460368,-11.6831848],[-46.8460361,-11.683183],[-46.8460358,-11.6831811],[-46.8460348,-11.6831644],[-46.8457746,-11.6833676],[-46.8456364,-11.6835967],[-46.8455159,-11.6838898],[-46.8455353,-11.6839874],[-46.8457707,-11.6840681],[-46.8460282,-11.6841384],[-46.8461428,-11.6840567],[-46.8461437,-11.6840562],[-46.8466913,-11.6837516],[-46.8466923,-11.6837511],[-46.8470258,-11.6836152],[-46.8472033,-11.6834623],[-46.8473286,-11.683223],[-46.8473302,-11.6832208],[-46.8475229,-11.6830233],[-46.8475246,-11.6830219],[-46.8478179,-11.682838],[-46.8478192,-11.6828373],[-46.8481132,-11.6827126],[-46.8481147,-11.6827121],[-46.8485764,-11.6826031],[-46.8485781,-11.6826029],[-46.8485798,-11.682603],[-46.8485815,-11.6826034],[-46.848583,-11.6826041],[-46.8485844,-11.6826051],[-46.8485856,-11.6826063],[-46.8485865,-11.6826077],[-46.8485871,-11.6826093],[-46.8485875,-11.682611],[-46.8486164,-11.6828907],[-46.8488048,-11.6831391],[-46.8489754,-11.6833492],[-46.8491844,-11.6835244],[-46.8494211,-11.6836641],[-46.8496764,-11.6834658],[-46.8496776,-11.683465],[-46.8496789,-11.6834644],[-46.8499603,-11.6833628],[-46.8499612,-11.6833626],[-46.8501487,-11.6833164],[-46.8503185,-11.6832589],[-46.85032,-11.6832585],[-46.8503216,-11.6832584],[-46.8503232,-11.6832586],[-46.8503248,-11.6832591],[-46.8504987,-11.6833305],[-46.8506068,-11.6833362],[-46.8508469,-11.6832725],[-46.8509665,-11.6831544],[-46.8509679,-11.6831532],[-46.8509694,-11.6831524],[-46.8509712,-11.6831519],[-46.8509729,-11.6831518],[-46.8509747,-11.683152],[-46.8509764,-11.6831525],[-46.850978,-11.6831534],[-46.8511645,-11.6832834],[-46.851397,-11.6833092],[-46.8516955,-11.6832839],[-46.8516978,-11.683284],[-46.8519056,-11.6833182],[-46.8522111,-11.6833506],[-46.8522129,-11.6833509],[-46.8525483,-11.6834578],[-46.8529014,-11.683515],[-46.8531825,-11.6835182],[-46.8531826,-11.6835182],[-46.8535801,-11.6835276],[-46.8535815,-11.6835277],[-46.8539084,-11.6835843],[-46.8539101,-11.6835847],[-46.8539117,-11.6835855],[-46.853913,-11.6835866],[-46.8539142,-11.6835879],[-46.854134,-11.6838913],[-46.8541349,-11.6838928],[-46.8541355,-11.6838944],[-46.8541357,-11.6838961],[-46.8541356,-11.6838979],[-46.8540918,-11.6842158],[-46.8543843,-11.6849175],[-46.8543849,-11.6849192],[-46.854385,-11.684921],[-46.8543824,-11.6852894],[-46.8543822,-11.6852915],[-46.8543814,-11.6852935],[-46.8542048,-11.6856281],[-46.85413,-11.6858886],[-46.8543702,-11.6860195],[-46.8543718,-11.6860207],[-46.8543732,-11.6860222],[-46.854572,-11.6862978],[-46.8545731,-11.6862997],[-46.8545852,-11.68633],[-46.854681,-11.6865075],[-46.8549839,-11.6868749],[-46.8549849,-11.6868763],[-46.8549856,-11.686878],[-46.8549859,-11.6868797],[-46.8549859,-11.6868814],[-46.8549856,-11.6868832],[-46.8549849,-11.6868848],[-46.8549839,-11.6868863],[-46.8549827,-11.6868875],[-46.8549812,-11.6868885],[-46.8549796,-11.6868892],[-46.8549778,-11.6868895],[-46.8549761,-11.6868896],[-46.8549743,-11.6868892],[-46.8549727,-11.6868885],[-46.8549712,-11.6868876],[-46.85497,-11.6868863],[-46.8546665,-11.6865183],[-46.8546656,-11.6865169],[-46.8545691,-11.6863381],[-46.8545686,-11.6863372],[-46.8545567,-11.6863074],[-46.8543598,-11.6860344],[-46.8541151,-11.685901],[-46.8541136,-11.6859],[-46.8541124,-11.6858988],[-46.8541114,-11.6858973],[-46.8541108,-11.6858957],[-46.8541104,-11.685894],[-46.8541104,-11.6858923],[-46.8541107,-11.6858906],[-46.8541877,-11.6856223],[-46.8541884,-11.6856205],[-46.8543644,-11.6852871],[-46.854367,-11.6849227],[-46.8540742,-11.6842205],[-46.8540737,-11.6842189],[-46.8540735,-11.6842174],[-46.8540736,-11.6842158],[-46.8541173,-11.683899],[-46.8539017,-11.6836014],[-46.853579,-11.6835456],[-46.8531822,-11.6835363],[-46.8529005,-11.683533],[-46.8528992,-11.6835329],[-46.8525448,-11.6834754],[-46.8525435,-11.6834751],[-46.8522083,-11.6833684],[-46.8519035,-11.6833361],[-46.851903,-11.683336],[-46.8516959,-11.6833019],[-46.8513976,-11.6833272],[-46.8513958,-11.6833272],[-46.8511602,-11.683301],[-46.8511588,-11.6833007],[-46.8511574,-11.6833002],[-46.8511561,-11.6832995],[-46.8509738,-11.6831725],[-46.8508579,-11.683287],[-46.8508567,-11.683288],[-46.8508553,-11.6832888],[-46.8508539,-11.6832893],[-46.8506101,-11.683354],[-46.8506087,-11.6833542],[-46.8506073,-11.6833543],[-46.8504963,-11.6833484],[-46.8504948,-11.6833482],[-46.8504933,-11.6833477],[-46.8503211,-11.683277],[-46.8501541,-11.6833336],[-46.8501534,-11.6833338],[-46.849966,-11.6833799],[-46.8496863,-11.6834809],[-46.8494273,-11.6836821],[-46.8494258,-11.683683],[-46.8494241,-11.6836837],[-46.8494224,-11.683684],[-46.8494206,-11.6836839],[-46.8494188,-11.6836835],[-46.8494172,-11.6836827],[-46.8491746,-11.6835395],[-46.8491734,-11.6835386],[-46.8489631,-11.6833625],[-46.8489619,-11.6833612],[-46.8487908,-11.6831504],[-46.8487906,-11.6831501],[-46.8486005,-11.6828996],[-46.8485997,-11.6828982],[-46.8485991,-11.6828967],[-46.8485988,-11.6828951],[-46.8485706,-11.682623],[-46.8481196,-11.6827295],[-46.8478269,-11.6828536],[-46.847535,-11.6830366],[-46.847344,-11.6832325],[-46.8472184,-11.6834722],[-46.8472175,-11.6834736],[-46.8472163,-11.6834749],[-46.8470365,-11.6836298],[-46.8470353,-11.6836306],[-46.847034,-11.6836313],[-46.8466996,-11.6837676],[-46.8461529,-11.6840717],[-46.8460352,-11.6841556],[-46.8460338,-11.6841564],[-46.8460323,-11.6841569],[-46.8460307,-11.6841572],[-46.8460291,-11.6841572],[-46.8460276,-11.6841569],[-46.8457657,-11.6840854],[-46.8457652,-11.6840852],[-46.8455246,-11.6840028],[-46.8455229,-11.684002],[-46.8455214,-11.6840009],[-46.8455202,-11.6839995],[-46.8455192,-11.6839978],[-46.8455187,-11.683996],[-46.8454977,-11.6838907],[-46.8454975,-11.6838889],[-46.8454977,-11.6838872],[-46.8454982,-11.6838855],[-46.84562,-11.6835892],[-46.8456206,-11.683588],[-46.84576,-11.6833569],[-46.845761,-11.6833555],[-46.8457622,-11.6833544],[-46.8460373,-11.6831396],[-46.8460388,-11.6831386],[-46.8460405,-11.683138],[-46.8460422,-11.6831377],[-46.846044,-11.6831378],[-46.8460457,-11.6831382],[-46.8460473,-11.6831389],[-46.8460488,-11.6831399],[-46.84605,-11.6831412],[-46.8460509,-11.6831428],[-46.8460516,-11.6831444],[-46.8460518,-11.6831462],[-46.8460535,-11.6831748],[-46.8462239,-11.6832562],[-46.8463876,-11.683065],[-46.846418,-11.6827602],[-46.8462757,-11.6826707],[-46.8462742,-11.6826696],[-46.8462731,-11.6826682],[-46.8462722,-11.6826667],[-46.8462716,-11.6826649],[-46.8461946,-11.6822898],[-46.8461311,-11.6821631],[-46.846043,-11.6820254],[-46.8459059,-11.6819003],[-46.8457436,-11.6818365],[-46.8454093,-11.6817665],[-46.8454076,-11.6817659],[-46.8454061,-11.6817651],[-46.8454047,-11.6817639],[-46.8454036,-11.6817625],[-46.8454028,-11.6817609],[-46.8454023,-11.6817592],[-46.8454022,-11.6817574],[-46.845411,-11.6813969],[-46.845411,-11.6813961],[-46.8454468,-11.6810835],[-46.8454306,-11.6807636],[-46.8454307,-11.6807616],[-46.8454839,-11.6804484],[-46.8454844,-11.6804466],[-46.8454853,-11.6804449],[-46.8454866,-11.6804434],[-46.8457647,-11.6801803],[-46.8459231,-11.6798685],[-46.8459186,-11.6797509],[-46.8458923,-11.6796088],[-46.8458922,-11.6796072],[-46.8458923,-11.6796056],[-46.8458928,-11.679604],[-46.8458935,-11.6796025],[-46.8460289,-11.6793799],[-46.8457103,-11.6791362],[-46.8454086,-11.6789857],[-46.8454078,-11.6789852],[-46.8452706,-11.678898],[-46.8452688,-11.6788964],[-46.8451687,-11.6787851],[-46.8449058,-11.6788712],[-46.8448161,-11.6792336],[-46.8448156,-11.679235],[-46.844715,-11.6794676],[-46.8447142,-11.6794691],[-46.8447131,-11.6794704],[-46.8447118,-11.6794714],[-46.8444923,-11.6796238],[-46.8444906,-11.6796247],[-46.8444888,-11.6796252],[-46.844222,-11.6796743],[-46.8442203,-11.6796745],[-46.8442186,-11.6796743],[-46.8442169,-11.6796738],[-46.8442154,-11.6796729],[-46.8442141,-11.6796718],[-46.8442129,-11.6796705],[-46.8442121,-11.679669],[-46.8440553,-11.6792977],[-46.8437995,-11.6792992],[-46.8437977,-11.6792991],[-46.8437959,-11.6792985],[-46.8437943,-11.6792976],[-46.8437929,-11.6792964],[-46.8437918,-11.6792949],[-46.843791,-11.6792932],[-46.8436857,-11.6789958],[-46.8434963,-11.6788598],[-46.8434948,-11.6788585],[-46.8434937,-11.6788569],[-46.8434929,-11.678855],[-46.8434481,-11.6787027],[-46.8434478,-11.6787009],[-46.8434478,-11.678699],[-46.8434483,-11.6786972],[-46.8434491,-11.6786956],[-46.8434502,-11.6786941],[-46.8434516,-11.6786928],[-46.8436895,-11.6785238],[-46.8437524,-11.678262],[-46.8437532,-11.6782597],[-46.8438954,-11.6780006],[-46.8437287,-11.6777071],[-46.8437279,-11.6777054],[-46.8437276,-11.6777037],[-46.8437275,-11.6777019],[-46.8437631,-11.6772468],[-46.8436034,-11.6770497],[-46.8436023,-11.677048],[-46.8436016,-11.677046],[-46.8435566,-11.6768472],[-46.8435564,-11.6768454],[-46.8435565,-11.6768437],[-46.8435993,-11.6765855],[-46.8432865,-11.6764049],[-46.8432851,-11.676404],[-46.8432839,-11.6764027],[-46.843283,-11.6764013],[-46.8431789,-11.6762028],[-46.843178,-11.6762004],[-46.8431245,-11.6759349],[-46.842994,-11.6756092],[-46.8429935,-11.6756076],[-46.8429933,-11.6756059],[-46.8429935,-11.6756042],[-46.842994,-11.6756025],[-46.8429948,-11.675601],[-46.8429958,-11.6755997],[-46.8432044,-11.6753807],[-46.8433968,-11.6751263],[-46.8433979,-11.6751251],[-46.8433992,-11.6751241],[-46.8434006,-11.6751234],[-46.8436828,-11.6750117],[-46.8433406,-11.6747604],[-46.8433405,-11.6747604],[-46.8430384,-11.6745326],[-46.8430371,-11.6745314],[-46.8430361,-11.67453],[-46.8430353,-11.6745284],[-46.8430349,-11.6745267],[-46.8430348,-11.6745249],[-46.8430351,-11.6745231],[-46.8430357,-11.6745215],[-46.8430367,-11.67452],[-46.8430379,-11.6745187],[-46.8430393,-11.6745176],[-46.8430409,-11.6745169],[-46.8430426,-11.6745165],[-46.8433441,-11.6744768],[-46.8430227,-11.6742752],[-46.8430212,-11.6742741],[-46.84302,-11.6742727],[-46.8430192,-11.6742711],[-46.8430186,-11.6742694],[-46.8430184,-11.6742676],[-46.8430186,-11.6742658],[-46.8430192,-11.674264],[-46.84302,-11.6742624],[-46.8430212,-11.6742611],[-46.8430226,-11.6742599],[-46.8430243,-11.6742591],[-46.8432546,-11.6741721],[-46.8435086,-11.6739323],[-46.8434345,-11.6736258],[-46.8433166,-11.6732835],[-46.8433162,-11.6732815],[-46.8433162,-11.6732795],[-46.8433491,-11.6730052],[-46.8433465,-11.6726385],[-46.8432361,-11.6725484],[-46.8432349,-11.6725472],[-46.8432339,-11.6725457],[-46.8432333,-11.6725442],[-46.8432329,-11.6725425],[-46.8432328,-11.6725408],[-46.8432331,-11.6725391],[-46.843259,-11.672443],[-46.8432597,-11.6724412],[-46.8432607,-11.6724396],[-46.8432621,-11.6724383],[-46.8432637,-11.6724372],[-46.8435059,-11.6723188],[-46.843674,-11.6720455],[-46.8436751,-11.672044],[-46.8436765,-11.6720428],[-46.8436782,-11.6720419],[-46.84368,-11.6720413],[-46.843951,-11.6719913],[-46.8441366,-11.6717741],[-46.8436448,-11.6715711],[-46.8436428,-11.6715699],[-46.843323,-11.6713299],[-46.8433218,-11.6713288],[-46.8433208,-11.6713276],[-46.8433201,-11.6713261],[-46.8433196,-11.6713246],[-46.8432725,-11.671103],[-46.8432723,-11.6711008],[-46.8432803,-11.6708855],[-46.843131,-11.6707867],[-46.8431298,-11.6707856],[-46.8431287,-11.6707844],[-46.8431279,-11.670783],[-46.8431273,-11.6707815],[-46.843127,-11.6707799],[-46.843127,-11.6707783],[-46.8431718,-11.670324],[-46.8430611,-11.6700827],[-46.8430605,-11.670081],[-46.8430603,-11.6700791],[-46.8430604,-11.6700773],[-46.843061,-11.6700755],[-46.8430618,-11.6700739],[-46.843063,-11.6700725],[-46.8430645,-11.6700713],[-46.8433872,-11.6698666],[-46.8432238,-11.6698482],[-46.8432221,-11.6698478],[-46.8432205,-11.6698471],[-46.843219,-11.6698461],[-46.8432178,-11.6698449],[-46.8432168,-11.6698434],[-46.8432162,-11.6698418],[-46.8432158,-11.6698401],[-46.8432158,-11.6698383],[-46.8432162,-11.6698366],[-46.8432169,-11.669835],[-46.8432178,-11.6698335],[-46.8432191,-11.6698323],[-46.8432371,-11.6698174],[-46.8432655,-11.6695566],[-46.8431141,-11.6693949],[-46.8426986,-11.6689716],[-46.8426974,-11.6689702],[-46.8426966,-11.6689685],[-46.8426961,-11.6689668],[-46.842696,-11.6689649],[-46.8426963,-11.6689631],[-46.8427593,-11.6687081],[-46.8427599,-11.6687065],[-46.8427607,-11.6687051],[-46.8427617,-11.6687039],[-46.842763,-11.6687028],[-46.842912,-11.6686012],[-46.8429136,-11.6686003],[-46.8429154,-11.6685997],[-46.8429173,-11.6685996],[-46.8429191,-11.6685998],[-46.8429209,-11.6686004],[-46.8431189,-11.6686933],[-46.8434126,-11.6685032],[-46.843475,-11.6682579]]]}},{"type":"Feature","properties":{"cod_imovel":"TO-1707009-92B0F54E88494AD5810A452D0D657AEC","uf":"TO","municipio":"Dianópolis","bioma":"2","temas_ambi":"Reserva Legal Proposta","modulos_ru":5.3303,"sobreposic":0.0,"sobreposi0":0.0,"sobreposi1":0.0,"sobreposi2":0.0,"sobreposi3":0.0,"tipo_imove":"IRU","situacao_a":"Aguardando análise","status_imo":"AT","nu_retific":0,"dt_atualiz":"2024-08-16","dt_criacao":"2024-08-16","nu_area_im":159.0582,"NOME":"Reserva Legal proposta","OS":"OS 04.05","IMOVEL":"Cabeceira da Buzina"},"geometry":{"type":"Polygon","coordinates":[[[-46.8433024,-11.6699417],[-46.8434184,-11.6698681],[-46.8434198,-11.6698671],[-46.8434209,-11.6698658],[-46.8434218,-11.6698643],[-46.8434223,-11.6698627],[-46.8434226,-11.669861],[-46.8434225,-11.6698593],[-46.8434221,-11.6698577],[-46.8434215,-11.6698561],[-46.8434205,-11.6698547],[-46.8434193,-11.6698535],[-46.8434178,-11.6698526],[-46.8434163,-11.6698519],[-46.8434146,-11.6698516],[-46.8432469,-11.6698326],[-46.8432514,-11.669829],[-46.8432527,-11.6698277],[-46.8432536,-11.6698263],[-46.8432543,-11.6698247],[-46.8432547,-11.669823],[-46.8432839,-11.6695544],[-46.8432839,-11.6695525],[-46.8432835,-11.6695506],[-46.8432827,-11.6695488],[-46.8432815,-11.6695473],[-46.8431272,-11.6693825],[-46.843127,-11.6693823],[-46.842715,-11.6689626],[-46.842776,-11.6687158],[-46.8429179,-11.6686189],[-46.8431158,-11.6687117],[-46.8431175,-11.6687123],[-46.8431193,-11.6687126],[-46.8431212,-11.6687124],[-46.8431229,-11.668712],[-46.8431245,-11.6687111],[-46.8434253,-11.6685164],[-46.8434267,-11.6685153],[-46.8434278,-11.6685141],[-46.8434286,-11.6685126],[-46.8434292,-11.668511],[-46.8434925,-11.668262],[-46.8434927,-11.6682612],[-46.8435347,-11.6680012],[-46.8580412,-11.6768855],[-46.8550979,-11.6794851],[-46.8550986,-11.6794886],[-46.8550977,-11.6794894],[-46.8558166,-11.6828658],[-46.8552104,-11.6863598],[-46.855159,-11.6866537],[-46.855148,-11.6866674],[-46.8549018,-11.686367],[-46.8548255,-11.6862232],[-46.8547993,-11.6861551],[-46.854589,-11.6858669],[-46.8545009,-11.6857891],[-46.8544437,-11.6857573],[-46.8544495,-11.6857362],[-46.8546169,-11.685427],[-46.8546493,-11.6852991],[-46.854649,-11.6849218],[-46.8546311,-11.6848258],[-46.8544955,-11.6844736],[-46.8544897,-11.6844597],[-46.8543632,-11.6841791],[-46.8543929,-11.6839332],[-46.8543463,-11.6837474],[-46.8541344,-11.6834443],[-46.8539547,-11.6833309],[-46.8536273,-11.6832752],[-46.8535897,-11.6832714],[-46.8531876,-11.683258],[-46.8531785,-11.6832578],[-46.8529228,-11.6832576],[-46.8526059,-11.6832033],[-46.8522859,-11.6831138],[-46.852251,-11.6831064],[-46.8517327,-11.6830307],[-46.8516649,-11.6830291],[-46.8513888,-11.6830564],[-46.851261,-11.6830385],[-46.8511385,-11.6829493],[-46.8507845,-11.6829716],[-46.8507064,-11.6830454],[-46.8505867,-11.6830811],[-46.8505632,-11.6830792],[-46.850428,-11.6830231],[-46.850236,-11.6830153],[-46.8495966,-11.6832207],[-46.8495111,-11.6832659],[-46.8494007,-11.683352],[-46.8493393,-11.6833158],[-46.8491703,-11.683172],[-46.8488752,-11.682801],[-46.8488548,-11.6825874],[-46.8485152,-11.6823495],[-46.8480509,-11.682462],[-46.8480069,-11.6824766],[-46.8477102,-11.6826037],[-46.847674,-11.6826225],[-46.8473801,-11.6828038],[-46.8473263,-11.6828471],[-46.8471306,-11.6830505],[-46.8470861,-11.683112],[-46.846987,-11.6832999],[-46.8468755,-11.6833981],[-46.8465954,-11.6835136],[-46.8465678,-11.6835267],[-46.8460147,-11.68383],[-46.8459793,-11.6838531],[-46.8459722,-11.6838585],[-46.8458577,-11.6838259],[-46.8458891,-11.6836902],[-46.8459759,-11.6835495],[-46.8460527,-11.6834915],[-46.8461065,-11.683517],[-46.8464358,-11.6834476],[-46.8466062,-11.6832488],[-46.8466694,-11.683105],[-46.846706,-11.6827935],[-46.84658,-11.6825332],[-46.8465287,-11.6825012],[-46.8464762,-11.6822367],[-46.8464386,-11.6821437],[-46.8462738,-11.6818874],[-46.8462419,-11.6818468],[-46.8461142,-11.6817129],[-46.8460217,-11.6816492],[-46.8458607,-11.6815814],[-46.8458094,-11.6815655],[-46.8456911,-11.6815409],[-46.845687,-11.6814286],[-46.8457306,-11.6811296],[-46.8457329,-11.6810752],[-46.8457154,-11.6807803],[-46.8457518,-11.6805836],[-46.8459591,-11.680376],[-46.8460043,-11.680316],[-46.8461796,-11.6800004],[-46.8462112,-11.6798361],[-46.8461895,-11.679668],[-46.846281,-11.6795113],[-46.8462067,-11.6791585],[-46.8458752,-11.6789155],[-46.8458381,-11.6788925],[-46.8454421,-11.6786893],[-46.8453984,-11.6786279],[-46.8450816,-11.6785277],[-46.8448183,-11.6786191],[-46.8446448,-11.6788018],[-46.8445476,-11.6791439],[-46.8444785,-11.6792926],[-46.8443868,-11.6793581],[-46.8443143,-11.6791883],[-46.8440598,-11.6790222],[-46.843993,-11.6790224],[-46.8439533,-11.6789087],[-46.8438592,-11.6787807],[-46.8438494,-11.6787734],[-46.8438938,-11.6787301],[-46.8439689,-11.6785964],[-46.8440213,-11.6783652],[-46.8441473,-11.6781343],[-46.8441444,-11.6778721],[-46.8440156,-11.677648],[-46.8440466,-11.6772699],[-46.8439856,-11.6770766],[-46.8438667,-11.6769329],[-46.8438458,-11.6768382],[-46.8438713,-11.6766241],[-46.8437446,-11.676363],[-46.8435018,-11.6762124],[-46.8434478,-11.6761115],[-46.8434027,-11.6758857],[-46.8433899,-11.6758415],[-46.8433245,-11.6756723],[-46.8434186,-11.6755714],[-46.843436,-11.6755508],[-46.8435774,-11.6753654],[-46.8438061,-11.6752706],[-46.8438665,-11.6748051],[-46.8435817,-11.6745909],[-46.8436344,-11.6745426],[-46.8435315,-11.6743018],[-46.8437061,-11.6741415],[-46.843787,-11.6738839],[-46.8437162,-11.6735718],[-46.8437067,-11.6735396],[-46.8436028,-11.6732537],[-46.8436301,-11.6730406],[-46.8436323,-11.6730056],[-46.8436309,-11.6726391],[-46.8436064,-11.672588],[-46.8436313,-11.6725763],[-46.8437451,-11.6724763],[-46.843857,-11.6723011],[-46.8440098,-11.6722704],[-46.8441682,-11.6721759],[-46.8443606,-11.6719431],[-46.8442533,-11.6715216],[-46.8437914,-11.6713316],[-46.843587,-11.6711731],[-46.8435575,-11.6710715],[-46.8435635,-11.6708956],[-46.8434456,-11.6706637],[-46.8434238,-11.6706487],[-46.843458,-11.6703667],[-46.8434341,-11.6702197],[-46.8433024,-11.6699417]]]}},{"type":"Feature","properties":{"cod_imovel":"TO-1707009-92B0F54E88494AD5810A452D0D657AEC","uf":"TO","municipio":"Dianópolis","bioma":"2","temas_ambi":"Área de Preservação Permanente de Rios até 10 metros","modulos_ru":5.3303,"sobreposic":0.0,"sobreposi0":0.0,"sobreposi1":0.0,"sobreposi2":0.0,"sobreposi3":0.0,"tipo_imove":"IRU","situacao_a":"Aguardando análise","status_imo":"AT","nu_retific":0,"dt_atualiz":"2024-08-16","dt_criacao":"2024-08-16","nu_area_im":12.2544,"NOME":"Área de Preservação Permanente","OS":"OS 04.05","IMOVEL":"Cabeceira da Buzina"},"geometry":{"type":"Polygon","coordinates":[[[-46.8551571,-11.6866562],[-46.8549827,-11.6868734],[-46.854681,-11.6865075],[-46.8545852,-11.68633],[-46.8545731,-11.6862997],[-46.854572,-11.6862978],[-46.8543732,-11.6860222],[-46.8543718,-11.6860207],[-46.8543702,-11.6860195],[-46.85413,-11.6858886],[-46.8542048,-11.6856281],[-46.8543814,-11.6852935],[-46.8543822,-11.6852915],[-46.8543824,-11.6852894],[-46.854385,-11.684921],[-46.8543849,-11.6849192],[-46.8543843,-11.6849175],[-46.8540918,-11.6842158],[-46.8541356,-11.6838979],[-46.8541357,-11.6838961],[-46.8541355,-11.6838944],[-46.8541349,-11.6838928],[-46.854134,-11.6838913],[-46.8539142,-11.6835879],[-46.853913,-11.6835866],[-46.8539117,-11.6835855],[-46.8539101,-11.6835847],[-46.8539084,-11.6835843],[-46.8535815,-11.6835277],[-46.8535801,-11.6835276],[-46.8531826,-11.6835182],[-46.8531825,-11.6835182],[-46.8529014,-11.683515],[-46.8525483,-11.6834578],[-46.8522129,-11.6833509],[-46.8522111,-11.6833506],[-46.8519056,-11.6833182],[-46.8516978,-11.683284],[-46.8516955,-11.6832839],[-46.851397,-11.6833092],[-46.8511645,-11.6832834],[-46.850978,-11.6831534],[-46.8509764,-11.6831525],[-46.8509747,-11.683152],[-46.8509729,-11.6831518],[-46.8509712,-11.6831519],[-46.8509694,-11.6831524],[-46.8509679,-11.6831532],[-46.8509665,-11.6831544],[-46.8508469,-11.6832725],[-46.8506068,-11.6833362],[-46.8504987,-11.6833305],[-46.8503248,-11.6832591],[-46.8503232,-11.6832586],[-46.8503216,-11.6832584],[-46.85032,-11.6832585],[-46.8503185,-11.6832589],[-46.8501487,-11.6833164],[-46.8499612,-11.6833626],[-46.8499603,-11.6833628],[-46.8496789,-11.6834644],[-46.8496776,-11.683465],[-46.8496764,-11.6834658],[-46.8494211,-11.6836641],[-46.8491844,-11.6835244],[-46.8489754,-11.6833492],[-46.8488048,-11.6831391],[-46.8486164,-11.6828907],[-46.8485875,-11.682611],[-46.8485871,-11.6826093],[-46.8485865,-11.6826077],[-46.8485856,-11.6826063],[-46.8485844,-11.6826051],[-46.848583,-11.6826041],[-46.8485815,-11.6826034],[-46.8485798,-11.682603],[-46.8485781,-11.6826029],[-46.8485764,-11.6826031],[-46.8481147,-11.6827121],[-46.8481132,-11.6827126],[-46.8478192,-11.6828373],[-46.8478179,-11.682838],[-46.8475246,-11.6830219],[-46.8475229,-11.6830233],[-46.8473302,-11.6832208],[-46.8473286,-11.683223],[-46.8472033,-11.6834623],[-46.8470258,-11.6836152],[-46.8466923,-11.6837511],[-46.8466913,-11.6837516],[-46.8461437,-11.6840562],[-46.8461428,-11.6840567],[-46.8460282,-11.6841384],[-46.8457707,-11.6840681],[-46.8455353,-11.6839874],[-46.8455159,-11.6838898],[-46.8456364,-11.6835967],[-46.8457746,-11.6833676],[-46.8460348,-11.6831644],[-46.8460358,-11.6831811],[-46.8460361,-11.683183],[-46.8460368,-11.6831848],[-46.8460379,-11.6831864],[-46.8460393,-11.6831877],[-46.8460409,-11.6831887],[-46.8462223,-11.6832754],[-46.8462239,-11.683276],[-46.8462256,-11.6832763],[-46.8462273,-11.6832762],[-46.8462289,-11.6832759],[-46.8462305,-11.6832752],[-46.8462319,-11.6832743],[-46.8462331,-11.6832731],[-46.8464031,-11.6830745],[-46.8464041,-11.683073],[-46.8464048,-11.6830714],[-46.8464052,-11.6830696],[-46.8464365,-11.6827564],[-46.8464365,-11.6827548],[-46.8464362,-11.6827531],[-46.8464356,-11.6827516],[-46.8464348,-11.6827502],[-46.8464337,-11.6827489],[-46.8464323,-11.6827479],[-46.8462885,-11.6826575],[-46.8462121,-11.682285],[-46.8462113,-11.6822828],[-46.846147,-11.6821546],[-46.8461465,-11.6821538],[-46.8460575,-11.6820147],[-46.846056,-11.6820129],[-46.8459168,-11.6818859],[-46.8459155,-11.6818849],[-46.845914,-11.6818842],[-46.8457495,-11.6818195],[-46.8457481,-11.6818191],[-46.8454204,-11.6817504],[-46.845429,-11.6813977],[-46.8454647,-11.6810848],[-46.8454648,-11.6810833],[-46.8454486,-11.6807637],[-46.8455012,-11.6804544],[-46.8457782,-11.6801923],[-46.8457793,-11.6801911],[-46.8457801,-11.6801898],[-46.8459402,-11.6798746],[-46.8459408,-11.6798732],[-46.8459411,-11.6798717],[-46.8459412,-11.6798702],[-46.8459365,-11.6797496],[-46.8459364,-11.6797483],[-46.8459107,-11.679609],[-46.8460485,-11.6793823],[-46.8460493,-11.6793806],[-46.8460497,-11.6793788],[-46.8460498,-11.6793769],[-46.8460494,-11.679375],[-46.8460487,-11.6793733],[-46.8460476,-11.6793718],[-46.8460463,-11.6793705],[-46.8457205,-11.6791214],[-46.8457191,-11.6791204],[-46.845417,-11.6789697],[-46.8452813,-11.6788834],[-46.8451781,-11.6787687],[-46.8451769,-11.6787675],[-46.8451754,-11.6787666],[-46.8451738,-11.678766],[-46.845172,-11.6787657],[-46.8451703,-11.6787657],[-46.8451686,-11.6787661],[-46.8448955,-11.6788556],[-46.8448938,-11.6788564],[-46.8448923,-11.6788574],[-46.8448911,-11.6788588],[-46.8448901,-11.6788603],[-46.8448895,-11.678862],[-46.8447988,-11.6792285],[-46.8446995,-11.6794581],[-46.8444836,-11.6796079],[-46.8442259,-11.6796553],[-46.8440696,-11.6792851],[-46.8440687,-11.6792836],[-46.8440676,-11.6792822],[-46.8440662,-11.6792811],[-46.8440647,-11.6792803],[-46.844063,-11.6792798],[-46.8440612,-11.6792796],[-46.8438058,-11.6792812],[-46.8437018,-11.6789871],[-46.843701,-11.6789854],[-46.8436999,-11.678984],[-46.8436985,-11.6789828],[-46.8435093,-11.678847],[-46.8434672,-11.6787038],[-46.8437027,-11.6785365],[-46.8437039,-11.6785355],[-46.843705,-11.6785342],[-46.8437057,-11.6785328],[-46.8437062,-11.6785313],[-46.8437696,-11.6782674],[-46.8439137,-11.6780049],[-46.8439144,-11.6780032],[-46.8439147,-11.6780014],[-46.8439147,-11.6779996],[-46.8439143,-11.6779978],[-46.8439136,-11.6779961],[-46.8437457,-11.6777006],[-46.8437813,-11.6772446],[-46.8437813,-11.6772429],[-46.843781,-11.6772412],[-46.8437803,-11.6772397],[-46.8437794,-11.6772383],[-46.8436187,-11.67704],[-46.8435746,-11.6768449],[-46.8436181,-11.6765823],[-46.8436182,-11.6765805],[-46.843618,-11.6765787],[-46.8436174,-11.676577],[-46.8436164,-11.6765755],[-46.8436152,-11.6765741],[-46.8436137,-11.6765731],[-46.8432977,-11.6763906],[-46.8431954,-11.6761955],[-46.843142,-11.6759305],[-46.8431415,-11.6759289],[-46.8430129,-11.6756079],[-46.8432178,-11.6753927],[-46.8432185,-11.675392],[-46.8434096,-11.6751392],[-46.8437046,-11.6750224],[-46.8437062,-11.6750216],[-46.8437075,-11.6750205],[-46.8437087,-11.6750192],[-46.8437095,-11.6750177],[-46.8437101,-11.675016],[-46.8437103,-11.6750143],[-46.8437102,-11.6750126],[-46.8437098,-11.6750109],[-46.843709,-11.6750093],[-46.8437079,-11.6750079],[-46.8437066,-11.6750068],[-46.8433513,-11.674746],[-46.8430668,-11.6745315],[-46.8433713,-11.6744914],[-46.8433731,-11.674491],[-46.8433747,-11.6744902],[-46.8433762,-11.6744891],[-46.8433774,-11.6744877],[-46.8433783,-11.6744861],[-46.8433789,-11.6744844],[-46.8433791,-11.6744826],[-46.843379,-11.6744807],[-46.8433784,-11.674479],[-46.8433775,-11.6744774],[-46.8433764,-11.674476],[-46.8433749,-11.6744748],[-46.8430476,-11.6742696],[-46.8432626,-11.6741884],[-46.8432642,-11.6741876],[-46.8432656,-11.6741865],[-46.8435247,-11.6739418],[-46.843526,-11.6739404],[-46.8435269,-11.6739387],[-46.8435274,-11.6739369],[-46.8435276,-11.673935],[-46.8435273,-11.6739332],[-46.8434519,-11.6736212],[-46.8434516,-11.6736203],[-46.8433343,-11.6732796],[-46.8433671,-11.6730068],[-46.8433672,-11.6730057],[-46.8433645,-11.6726342],[-46.8433643,-11.6726322],[-46.8433636,-11.6726303],[-46.8433626,-11.6726287],[-46.8433612,-11.6726272],[-46.843252,-11.6725381],[-46.8432753,-11.6724516],[-46.8435162,-11.6723338],[-46.8435176,-11.6723329],[-46.8435189,-11.6723318],[-46.8435199,-11.6723304],[-46.8436872,-11.6720583],[-46.8439574,-11.6720085],[-46.8439594,-11.6720079],[-46.8439611,-11.6720069],[-46.8439626,-11.6720055],[-46.8441584,-11.6717763],[-46.8441594,-11.6717749],[-46.8441601,-11.6717734],[-46.8441605,-11.6717717],[-46.8441605,-11.67177],[-46.8441603,-11.6717684],[-46.8441597,-11.6717668],[-46.8441589,-11.6717653],[-46.8441578,-11.671764],[-46.8441565,-11.6717629],[-46.844155,-11.6717621],[-46.8436527,-11.6715548],[-46.8433365,-11.6713175],[-46.8432903,-11.6711003],[-46.8432985,-11.6708811],[-46.8432983,-11.6708793],[-46.8432979,-11.6708775],[-46.843297,-11.6708758],[-46.8432959,-11.6708744],[-46.8432944,-11.6708732],[-46.8431455,-11.6707746],[-46.84319,-11.6703234],[-46.84319,-11.6703218],[-46.8431898,-11.6703202],[-46.8431892,-11.6703187],[-46.8430808,-11.6700823],[-46.8434184,-11.6698681],[-46.8434198,-11.6698671],[-46.8434209,-11.6698658],[-46.8434218,-11.6698643],[-46.8434223,-11.6698627],[-46.8434226,-11.669861],[-46.8434225,-11.6698593],[-46.8434221,-11.6698577],[-46.8434215,-11.6698561],[-46.8434205,-11.6698547],[-46.8434193,-11.6698535],[-46.8434178,-11.6698526],[-46.8434163,-11.6698519],[-46.8434146,-11.6698516],[-46.8432469,-11.6698326],[-46.8432514,-11.669829],[-46.8432527,-11.6698277],[-46.8432536,-11.6698263],[-46.8432543,-11.6698247],[-46.8432547,-11.669823],[-46.8432839,-11.6695544],[-46.8432839,-11.6695525],[-46.8432835,-11.6695506],[-46.8432827,-11.6695488],[-46.8432815,-11.6695473],[-46.8431272,-11.6693825],[-46.843127,-11.6693823],[-46.842715,-11.6689626],[-46.842776,-11.6687158],[-46.8429179,-11.6686189],[-46.8431158,-11.6687117],[-46.8431175,-11.6687123],[-46.8431193,-11.6687126],[-46.8431212,-11.6687124],[-46.8431229,-11.668712],[-46.8431245,-11.6687111],[-46.8434253,-11.6685164],[-46.8434267,-11.6685153],[-46.8434278,-11.6685141],[-46.8434286,-11.6685126],[-46.8434292,-11.668511],[-46.8434925,-11.668262],[-46.8434927,-11.6682612],[-46.8435353,-11.6679976],[-46.8435354,-11.6679958],[-46.8435351,-11.6679941],[-46.8435346,-11.6679924],[-46.8435337,-11.6679909],[-46.8435328,-11.6679899],[-46.8437278,-11.6678016],[-46.8437407,-11.6678136],[-46.8437419,-11.6678149],[-46.8437728,-11.6678577],[-46.8437737,-11.6678592],[-46.8437954,-11.6679067],[-46.8437959,-11.6679084],[-46.8438079,-11.6679588],[-46.8438081,-11.6679605],[-46.84381,-11.6680121],[-46.8438099,-11.6680139],[-46.843807,-11.6680396],[-46.8437645,-11.6683032],[-46.8437624,-11.6683148],[-46.8437622,-11.6683155],[-46.8437595,-11.668327],[-46.8436962,-11.6685761],[-46.843689,-11.6685997],[-46.8436884,-11.6686013],[-46.8436674,-11.6686463],[-46.8436666,-11.6686478],[-46.8436373,-11.6686886],[-46.8436362,-11.6686898],[-46.8435994,-11.6687249],[-46.8435981,-11.6687259],[-46.8435772,-11.6687409],[-46.8432764,-11.6689356],[-46.8432521,-11.6689496],[-46.8432505,-11.6689504],[-46.843198,-11.6689709],[-46.8431963,-11.6689714],[-46.8431403,-11.668981],[-46.8431385,-11.6689811],[-46.8431138,-11.6689803],[-46.8433255,-11.6691959],[-46.8433277,-11.6691982],[-46.8433278,-11.6691983],[-46.84333,-11.6692007],[-46.8434844,-11.6693654],[-46.8435031,-11.6693877],[-46.8435042,-11.6693893],[-46.8435337,-11.6694387],[-46.8435345,-11.6694405],[-46.8435526,-11.6694945],[-46.843553,-11.6694964],[-46.843559,-11.6695527],[-46.843559,-11.6695546],[-46.8435575,-11.6695829],[-46.8435535,-11.6696198],[-46.8435724,-11.6696299],[-46.8435738,-11.6696308],[-46.8436141,-11.6696634],[-46.8436153,-11.6696646],[-46.8436483,-11.6697038],[-46.8436493,-11.6697052],[-46.843674,-11.6697493],[-46.8436747,-11.6697509],[-46.8436905,-11.6697985],[-46.8436909,-11.6698001],[-46.8436975,-11.6698496],[-46.8436976,-11.6698513],[-46.8436947,-11.6699011],[-46.8436944,-11.6699028],[-46.8436822,-11.6699513],[-46.8436816,-11.6699529],[-46.8436602,-11.6699986],[-46.8436594,-11.67],[-46.8436295,-11.6700413],[-46.8436284,-11.6700426],[-46.8435908,-11.6700779],[-46.8435895,-11.670079],[-46.8435681,-11.670094],[-46.8434284,-11.6701826],[-46.8434402,-11.6702085],[-46.8434491,-11.6702302],[-46.8434496,-11.6702317],[-46.8434613,-11.6702767],[-46.8434616,-11.6702783],[-46.8434652,-11.6703245],[-46.8434651,-11.6703261],[-46.8434639,-11.6703492],[-46.8434351,-11.6706413],[-46.8434487,-11.6706503],[-46.8434713,-11.670667],[-46.8434727,-11.6706682],[-46.8435118,-11.6707076],[-46.843513,-11.6707091],[-46.8435429,-11.670755],[-46.8435437,-11.6707567],[-46.8435635,-11.6708072],[-46.8435639,-11.670809],[-46.8435729,-11.6708621],[-46.8435731,-11.6708639],[-46.8435734,-11.6708909],[-46.8435665,-11.6710775],[-46.8435851,-11.6711648],[-46.8437922,-11.6713203],[-46.8442619,-11.6715141],[-46.8442856,-11.6715253],[-46.8442871,-11.6715261],[-46.8443306,-11.6715545],[-46.8443319,-11.6715556],[-46.8443688,-11.6715912],[-46.8443699,-11.6715925],[-46.8443991,-11.671634],[-46.8443999,-11.6716354],[-46.8444206,-11.6716811],[-46.8444211,-11.6716827],[-46.8444328,-11.6717311],[-46.844433,-11.6717328],[-46.8444354,-11.6717824],[-46.8444353,-11.6717841],[-46.8444283,-11.6718332],[-46.8444279,-11.6718349],[-46.8444118,-11.6718821],[-46.8444111,-11.6718837],[-46.8443861,-11.6719275],[-46.8443851,-11.6719289],[-46.8443695,-11.6719489],[-46.8441738,-11.6721781],[-46.8441524,-11.6722004],[-46.8441509,-11.6722017],[-46.8441009,-11.6722387],[-46.8440991,-11.6722398],[-46.8440413,-11.6722649],[-46.8440393,-11.6722654],[-46.8440084,-11.672273],[-46.8438594,-11.6723005],[-46.8437557,-11.6724692],[-46.8437414,-11.6724901],[-46.8437404,-11.6724914],[-46.8437061,-11.6725291],[-46.8437048,-11.6725302],[-46.8436635,-11.6725611],[-46.8436621,-11.672562],[-46.8436393,-11.6725745],[-46.8436322,-11.672578],[-46.8436376,-11.6726015],[-46.8436379,-11.6726034],[-46.8436397,-11.6726323],[-46.8436423,-11.6730038],[-46.8436419,-11.6730205],[-46.8436418,-11.6730216],[-46.8436404,-11.6730382],[-46.8436148,-11.673251],[-46.8437124,-11.6735344],[-46.8437162,-11.6735464],[-46.8437164,-11.6735472],[-46.8437196,-11.6735592],[-46.8437951,-11.6738712],[-46.8438002,-11.6738985],[-46.8438004,-11.6739004],[-46.8438019,-11.6739556],[-46.8438018,-11.6739575],[-46.8437917,-11.674012],[-46.8437911,-11.6740138],[-46.8437697,-11.6740653],[-46.8437688,-11.674067],[-46.8437367,-11.6741134],[-46.8437355,-11.6741149],[-46.8437158,-11.6741355],[-46.8435629,-11.6742799],[-46.8435879,-11.6743039],[-46.8435891,-11.6743053],[-46.8436202,-11.6743505],[-46.8436211,-11.6743521],[-46.8436421,-11.6744021],[-46.8436426,-11.6744038],[-46.843653,-11.6744567],[-46.8436532,-11.6744585],[-46.8436526,-11.6745122],[-46.8436524,-11.674514],[-46.8436409,-11.6745666],[-46.8436404,-11.6745684],[-46.8436225,-11.6746085],[-46.8438718,-11.6747915],[-46.8438924,-11.6748082],[-46.8438937,-11.6748093],[-46.8439292,-11.674848],[-46.8439303,-11.6748494],[-46.8439574,-11.6748936],[-46.8439582,-11.6748951],[-46.8439761,-11.6749433],[-46.8439765,-11.674945],[-46.8439848,-11.6749953],[-46.8439849,-11.6749971],[-46.8439833,-11.675048],[-46.8439831,-11.6750497],[-46.8439717,-11.6750996],[-46.8439711,-11.6751012],[-46.8439502,-11.6751483],[-46.8439493,-11.6751498],[-46.8439194,-11.6751923],[-46.8439182,-11.6751937],[-46.8438802,-11.6752301],[-46.8438788,-11.6752312],[-46.8438339,-11.67526],[-46.8438324,-11.6752608],[-46.8438078,-11.6752719],[-46.8435847,-11.6753603],[-46.8434397,-11.675552],[-46.8434301,-11.675564],[-46.8434294,-11.6755648],[-46.8434191,-11.6755762],[-46.8433323,-11.6756674],[-46.8433977,-11.6758307],[-46.8434057,-11.6758535],[-46.8434061,-11.6758551],[-46.843412,-11.6758784],[-46.8434579,-11.6761064],[-46.8435062,-11.6761984],[-46.8437535,-11.6763412],[-46.8437769,-11.6763563],[-46.8437784,-11.6763574],[-46.8438196,-11.6763939],[-46.8438208,-11.6763953],[-46.8438534,-11.6764387],[-46.8438544,-11.6764403],[-46.8438773,-11.6764889],[-46.843878,-11.6764906],[-46.8438906,-11.6765424],[-46.8438909,-11.6765441],[-46.8438928,-11.6765972],[-46.8438927,-11.676599],[-46.8438897,-11.6766255],[-46.8438546,-11.6768371],[-46.8438737,-11.6769213],[-46.843995,-11.677071],[-46.8440101,-11.6770916],[-46.844011,-11.6770931],[-46.8440349,-11.6771377],[-46.8440356,-11.6771393],[-46.8440505,-11.6771872],[-46.8440509,-11.6771889],[-46.8440564,-11.6772385],[-46.8440565,-11.6772402],[-46.8440557,-11.6772652],[-46.8440264,-11.6776405],[-46.8441541,-11.6778654],[-46.8441663,-11.6778896],[-46.844167,-11.6778913],[-46.8441836,-11.6779426],[-46.844184,-11.6779444],[-46.8441899,-11.6779977],[-46.8441899,-11.6779995],[-46.8441848,-11.6780528],[-46.8441844,-11.6780546],[-46.8441686,-11.6781061],[-46.8441679,-11.6781078],[-46.8441561,-11.6781322],[-46.8440292,-11.6783634],[-46.8439741,-11.6785928],[-46.8439675,-11.6786156],[-46.843967,-11.6786171],[-46.8439478,-11.6786608],[-46.843947,-11.6786622],[-46.8439201,-11.678702],[-46.843919,-11.6787033],[-46.843885,-11.6787381],[-46.8438838,-11.6787392],[-46.8438644,-11.6787543],[-46.8438548,-11.6787611],[-46.8438613,-11.6787657],[-46.843883,-11.6787831],[-46.8438844,-11.6787843],[-46.8439216,-11.6788246],[-46.8439227,-11.6788261],[-46.8439508,-11.6788725],[-46.8439515,-11.6788742],[-46.8439618,-11.6788991],[-46.8440013,-11.6790108],[-46.8440595,-11.6790105],[-46.8440871,-11.6790117],[-46.8440888,-11.6790118],[-46.8441428,-11.6790222],[-46.8441445,-11.6790227],[-46.844195,-11.6790433],[-46.8441966,-11.6790441],[-46.8442417,-11.6790738],[-46.8442431,-11.6790749],[-46.844281,-11.6791123],[-46.8442821,-11.6791137],[-46.8443117,-11.6791573],[-46.8443125,-11.6791588],[-46.8443239,-11.6791824],[-46.8443913,-11.6793419],[-46.8444765,-11.6792828],[-46.8445366,-11.6791438],[-46.8446221,-11.6787987],[-46.8446298,-11.678773],[-46.8446305,-11.6787713],[-46.8446536,-11.6787228],[-46.8446546,-11.6787212],[-46.8446874,-11.6786778],[-46.8446887,-11.6786764],[-46.8447301,-11.67864],[-46.8447316,-11.678639],[-46.8447801,-11.6786113],[-46.8447817,-11.6786105],[-46.844808,-11.6786004],[-46.8450812,-11.6785109],[-46.8451072,-11.6785037],[-46.8451089,-11.6785034],[-46.8451624,-11.6784967],[-46.8451642,-11.6784966],[-46.8452181,-11.6785003],[-46.8452198,-11.6785006],[-46.8452718,-11.6785145],[-46.8452734,-11.6785151],[-46.8453214,-11.6785384],[-46.8453229,-11.6785393],[-46.845365,-11.6785711],[-46.8453663,-11.6785723],[-46.8453847,-11.6785909],[-46.845463,-11.6786779],[-46.8455549,-11.6787364],[-46.8458441,-11.6788807],[-46.845867,-11.6788935],[-46.8458685,-11.6788944],[-46.84589,-11.6789093],[-46.8462157,-11.6791584],[-46.8462375,-11.6791769],[-46.8462389,-11.6791782],[-46.8462757,-11.6792211],[-46.8462767,-11.6792227],[-46.8463035,-11.6792717],[-46.8463042,-11.6792734],[-46.8463201,-11.6793264],[-46.8463204,-11.6793282],[-46.8463249,-11.6793831],[-46.8463248,-11.6793849],[-46.8463178,-11.6794395],[-46.8463174,-11.6794414],[-46.846299,-11.6794936],[-46.8462982,-11.6794953],[-46.846285,-11.6795199],[-46.8461997,-11.6796601],[-46.8462072,-11.6797005],[-46.8462099,-11.6797193],[-46.8462101,-11.6797206],[-46.8462115,-11.6797395],[-46.8462161,-11.67986],[-46.8462161,-11.6798823],[-46.846216,-11.6798839],[-46.8462102,-11.6799281],[-46.8462098,-11.6799296],[-46.8461966,-11.6799724],[-46.846196,-11.6799739],[-46.8461866,-11.6799944],[-46.8460265,-11.6803096],[-46.8460152,-11.6803296],[-46.8460144,-11.6803309],[-46.8459868,-11.6803679],[-46.8459857,-11.6803691],[-46.8459695,-11.6803858],[-46.8457577,-11.6805862],[-46.8457249,-11.6807793],[-46.8457396,-11.68107],[-46.8457398,-11.6810916],[-46.8457398,-11.6810931],[-46.8457382,-11.6811147],[-46.8457038,-11.6814159],[-46.8457009,-11.6815339],[-46.8458057,-11.6815559],[-46.8458285,-11.6815617],[-46.8458299,-11.6815621],[-46.8458521,-11.6815697],[-46.8460166,-11.6816344],[-46.8460398,-11.6816447],[-46.8460412,-11.6816455],[-46.8460839,-11.6816721],[-46.8460852,-11.6816731],[-46.8461044,-11.681689],[-46.8462437,-11.681816],[-46.8462683,-11.6818417],[-46.8462699,-11.6818435],[-46.8462908,-11.6818719],[-46.8463798,-11.682011],[-46.846387,-11.682023],[-46.8463874,-11.6820238],[-46.846394,-11.682036],[-46.8464583,-11.6821642],[-46.8464719,-11.6821964],[-46.8464726,-11.6821986],[-46.8464818,-11.6822321],[-46.8465353,-11.6824927],[-46.846581,-11.6825214],[-46.8466019,-11.682536],[-46.8466033,-11.682537],[-46.8466403,-11.6825711],[-46.8466414,-11.6825724],[-46.8466711,-11.6826123],[-46.846672,-11.6826137],[-46.8466936,-11.6826579],[-46.8466942,-11.6826595],[-46.8467072,-11.6827066],[-46.8467075,-11.6827082],[-46.8467117,-11.6827567],[-46.8467117,-11.6827583],[-46.8467104,-11.6827827],[-46.8466791,-11.6830958],[-46.846675,-11.6831222],[-46.8466747,-11.683124],[-46.8466587,-11.6831752],[-46.846658,-11.6831769],[-46.8466318,-11.6832242],[-46.8466307,-11.6832257],[-46.846614,-11.6832474],[-46.846444,-11.683446],[-46.8464267,-11.6834644],[-46.8464255,-11.6834656],[-46.8463856,-11.6834976],[-46.8463841,-11.6834985],[-46.8463385,-11.6835228],[-46.8463369,-11.6835235],[-46.8462871,-11.683539],[-46.8462855,-11.6835393],[-46.8462334,-11.6835453],[-46.8462317,-11.6835454],[-46.8461793,-11.6835416],[-46.8461777,-11.6835413],[-46.8461271,-11.683528],[-46.8461256,-11.6835274],[-46.8461016,-11.6835173],[-46.8460535,-11.6834943],[-46.8459858,-11.6835471],[-46.8458839,-11.683716],[-46.8458459,-11.6838086],[-46.8458533,-11.6838112],[-46.8459738,-11.6838441],[-46.8459808,-11.6838392],[-46.8459935,-11.6838306],[-46.8459944,-11.6838301],[-46.8460076,-11.6838222],[-46.8465553,-11.6835176],[-46.8465701,-11.6835099],[-46.8465711,-11.6835094],[-46.8465865,-11.6835026],[-46.8468781,-11.6833838],[-46.8469822,-11.6832941],[-46.8470837,-11.6831002],[-46.8471042,-11.6830671],[-46.8471058,-11.683065],[-46.8471311,-11.683035],[-46.8473238,-11.6828374],[-46.8473478,-11.6828156],[-46.8473495,-11.6828143],[-46.8473761,-11.6827953],[-46.8476694,-11.6826114],[-46.8476885,-11.6826005],[-46.8476898,-11.6825998],[-46.8477097,-11.6825904],[-46.8480037,-11.6824656],[-46.8480258,-11.6824573],[-46.8480273,-11.6824569],[-46.8480501,-11.6824505],[-46.8485119,-11.6823415],[-46.8485379,-11.6823366],[-46.8485396,-11.6823364],[-46.8485926,-11.6823341],[-46.8485943,-11.6823342],[-46.8486467,-11.6823419],[-46.8486483,-11.6823423],[-46.848698,-11.6823596],[-46.8486996,-11.6823603],[-46.8487448,-11.6823863],[-46.8487461,-11.6823873],[-46.8487852,-11.682421],[-46.8487863,-11.6824222],[-46.8488179,-11.6824621],[-46.8488189,-11.6824636],[-46.8488422,-11.6825082],[-46.8488428,-11.6825098],[-46.8488572,-11.6825576],[-46.8488575,-11.6825593],[-46.8488612,-11.6825839],[-46.8488826,-11.6827899],[-46.8490231,-11.6829752],[-46.8491744,-11.6831616],[-46.8493461,-11.6833054],[-46.8493997,-11.683337],[-46.8495053,-11.683255],[-46.8495228,-11.6832424],[-46.849524,-11.6832417],[-46.849562,-11.6832207],[-46.8495633,-11.6832201],[-46.8495836,-11.6832119],[-46.849865,-11.6831103],[-46.849879,-11.6831057],[-46.8498799,-11.6831054],[-46.8498941,-11.6831015],[-46.8500699,-11.6830582],[-46.8502283,-11.6830045],[-46.8502524,-11.6829976],[-46.850254,-11.6829972],[-46.8503036,-11.6829898],[-46.8503053,-11.6829897],[-46.8503555,-11.6829913],[-46.8503571,-11.6829915],[-46.8504062,-11.6830019],[-46.8504077,-11.6830024],[-46.8504312,-11.6830109],[-46.8505612,-11.6830642],[-46.8505775,-11.6830651],[-46.8507034,-11.6830317],[-46.8507709,-11.682965],[-46.8507911,-11.6829469],[-46.8507925,-11.6829458],[-46.8508381,-11.6829159],[-46.8508397,-11.682915],[-46.8508908,-11.6828945],[-46.8508926,-11.682894],[-46.8509472,-11.6828838],[-46.8509489,-11.6828836],[-46.8510046,-11.6828844],[-46.8510064,-11.6828846],[-46.8510606,-11.6828963],[-46.8510623,-11.6828968],[-46.8511128,-11.6829188],[-46.8511144,-11.6829196],[-46.8511376,-11.6829341],[-46.8512662,-11.6830238],[-46.8514006,-11.6830387],[-46.8516718,-11.6830157],[-46.8517066,-11.6830149],[-46.8517088,-11.683015],[-46.8517434,-11.6830185],[-46.8519433,-11.6830515],[-46.8522407,-11.6830829],[-46.8522688,-11.6830874],[-46.8522706,-11.6830877],[-46.852298,-11.683095],[-46.8526138,-11.6831955],[-46.8529256,-11.6832461],[-46.8531857,-11.6832491],[-46.8531874,-11.6832491],[-46.8531875,-11.6832491],[-46.8531892,-11.6832491],[-46.8535867,-11.6832585],[-46.8536075,-11.6832598],[-46.8536088,-11.6832599],[-46.8536294,-11.6832627],[-46.8539563,-11.6833192],[-46.8539827,-11.6833251],[-46.8539844,-11.6833256],[-46.8540347,-11.6833447],[-46.8540362,-11.6833455],[-46.8540814,-11.6833737],[-46.8540828,-11.6833747],[-46.8541212,-11.6834106],[-46.8541224,-11.6834119],[-46.8541387,-11.6834322],[-46.8543585,-11.6837357],[-46.8543725,-11.6837572],[-46.8543734,-11.6837587],[-46.8543949,-11.6838047],[-46.8543955,-11.6838063],[-46.8544077,-11.6838552],[-46.8544079,-11.6838569],[-46.8544107,-11.6839071],[-46.8544106,-11.6839088],[-46.8544083,-11.6839339],[-46.8543743,-11.6841806],[-46.8546391,-11.6848159],[-46.8546481,-11.684841],[-46.8546487,-11.6848427],[-46.8546589,-11.6848947],[-46.854659,-11.6848965],[-46.8546602,-11.6849229],[-46.8546576,-11.6852913],[-46.8546555,-11.6853227],[-46.8546552,-11.6853248],[-46.8546398,-11.6853861],[-46.854639,-11.6853881],[-46.8546259,-11.6854171],[-46.8544621,-11.6857273],[-46.8544536,-11.6857569],[-46.8545041,-11.6857844],[-46.8545303,-11.6858006],[-46.8545319,-11.6858018],[-46.8545776,-11.685842],[-46.854579,-11.6858435],[-46.854598,-11.685867],[-46.8547968,-11.6861425],[-46.8548144,-11.6861703],[-46.8548154,-11.6861722],[-46.8548294,-11.6862018],[-46.8548358,-11.6862179],[-46.8549119,-11.6863588],[-46.8551571,-11.6866562]]]}}]}