<?xml version="1.0" encoding="UTF-8"?><kml xmlns="http://www.opengis.net/kml/2.2"><Document><name>29 - OS.05-01 - Fazenda Galiléia</name><Placemark><name>Limite recebido V1</name><description>Limite extraído do SHP recebido em SIRGAS 2000. Área UTM 23S: 1366,9107 ha. Não representa confirmação de titularidade.</description><Polygon><outerBoundaryIs><LinearRing><coordinates>-47.1365132315496,-11.581059031695 -47.1365133334037,-11.5810591665103 -47.1365682270689,-11.5810586798037 -47.1411513037497,-11.5824037606575 -47.1425031108577,-11.5827869508586 -47.1452807562782,-11.5843937633046 -47.1451533797836,-11.5845607953737 -47.1436338451331,-11.5852148821285 -47.1436161532561,-11.5852224974495 -47.1430575431512,-11.5851525859055 -47.1428971995455,-11.5851981477149 -47.1425513675769,-11.5853104404204 -47.1422347844859,-11.58539757721 -47.1419730515163,-11.5853486301847 -47.1419679978075,-11.5853110595123 -47.1418699707479,-11.5851778741686 -47.1417528345662,-11.5850830909133 -47.141616587396,-11.5850267106464 -47.1414804877918,-11.58498945863 -47.1413405814732,-11.5849560703708 -47.1409274477411,-11.5858066563261 -47.1404779084884,-11.5857152105596 -47.1400574286327,-11.5846847101364 -47.1396349178801,-11.5840769827021 -47.1391064241035,-11.5837519529235 -47.1385975987976,-11.5835387560585 -47.1386158230643,-11.5834335964216 -47.1385776157588,-11.5834231383459 -47.138402859583,-11.583405299915 -47.1382667600375,-11.5833680461736 -47.1381497702011,-11.5832923903909 -47.1379939783645,-11.5832170213341 -47.1378577335089,-11.5831606380842 -47.137702087215,-11.5831043981343 -47.1375658424585,-11.5830480156301 -47.1374101971775,-11.5829917754946 -47.1372740987917,-11.5829545194118 -47.1371185980505,-11.5829174084054 -47.1369630964125,-11.582880296411 -47.1368269972016,-11.5828430419117 -47.1366716437061,-11.582825059031 -47.1364970313221,-11.5828263495843 -47.1363609330703,-11.5827890939393 -47.136205432449,-11.5827519815 -47.1361173434836,-11.5827526319734 -47.1360253487115,-11.5826768909388 -47.1359674615631,-11.5827288701727 -47.1329056179101,-11.5877893411794 -47.1329054601093,-11.5877893233639 -47.1306902670811,-11.5915172957373 -47.1269696278508,-11.5948385320928 -47.132503892528,-11.5974933316483 -47.1325542207508,-11.5976444796905 -47.1332930530972,-11.5998824980787 -47.1217705601264,-11.6113641684171 -47.1203347244431,-11.6128008295801 -47.1200263833246,-11.6146525034634 -47.1277802587631,-11.6124935459554 -47.1325161902587,-11.6254690762276 -47.1414749671384,-11.6233754099035 -47.1496457409565,-11.6212416491563 -47.1510001397205,-11.6209412127816 -47.1526989826321,-11.6214560431299 -47.1503550724653,-11.624348458917 -47.1503885804431,-11.6245579784264 -47.1501726382737,-11.6245735812448 -47.1497883977198,-11.6250477330762 -47.1510194812144,-11.6316772727697 -47.1438462107928,-11.6335257196624 -47.1458173145799,-11.6357965636485 -47.1484367338789,-11.6449074012506 -47.1502353403797,-11.6454085149235 -47.1527642240626,-11.6469326894059 -47.1572328259487,-11.648442697816 -47.1606931043376,-11.6469418737902 -47.1580236863695,-11.6368601962313 -47.151108424858,-11.6316543515521 -47.1498860953417,-11.6250719676572 -47.1502192720108,-11.624660828981 -47.1504946531524,-11.6246409308703 -47.1504519225316,-11.6243737399047 -47.1527931844585,-11.6214845904906 -47.1573911637348,-11.6154886158484 -47.1492778624514,-11.6115495750644 -47.1444664061545,-11.6092811179942 -47.146744000632,-11.6014298863463 -47.1485958263929,-11.6011908837335 -47.1505122837009,-11.5969427318117 -47.1573224694336,-11.5995364187373 -47.1577498899395,-11.5981927718193 -47.1573674259283,-11.5977060145026 -47.1570272426652,-11.5927969374234 -47.157327786072,-11.5926824071743 -47.157229776447,-11.5915717519488 -47.159756662433,-11.5903897562039 -47.1592325867544,-11.5894505836984 -47.1583632441044,-11.5888929762113 -47.1577271660091,-11.5888539495646 -47.1570411004648,-11.5884064606142 -47.1568186834499,-11.5891963805083 -47.1563461493578,-11.5901079664231 -47.1549092239188,-11.5900483007892 -47.1545836331171,-11.590347314989 -47.1544611135746,-11.5906771951161 -47.1543169910486,-11.592934566575 -47.1520149136735,-11.5926084782409 -47.152854869721,-11.5895424680263 -47.1517544482929,-11.589088162237 -47.1520776475498,-11.5883872927813 -47.1530626223791,-11.5862816048583 -47.153687180597,-11.5849213851014 -47.153284684775,-11.5848022621511 -47.1528739653731,-11.5843748961913 -47.1524921277505,-11.583994354154 -47.1520683986797,-11.5836922137499 -47.1516470227036,-11.5837015655007 -47.1510163960506,-11.5836942996454 -47.1502870740229,-11.5840940060369 -47.1496895686786,-11.5842218578672 -47.1496066892186,-11.5860386749306 -47.1488028626182,-11.5856330958325 -47.1463137461252,-11.5842782340725 -47.1477541652764,-11.5825763944009 -47.1490397273099,-11.579386394319 -47.1489322587326,-11.5792731358307 -47.149132888182,-11.573235036378 -47.1481492960724,-11.5736804017313 -47.136735421631,-11.5775300329502 -47.1372647991506,-11.5780970528478 -47.1365132315496,-11.581059031695</coordinates></LinearRing></outerBoundaryIs></Polygon></Placemark></Document></kml>