<?xml version="1.0" encoding="UTF-8"?><kml xmlns="http://www.opengis.net/kml/2.2"><Document><name>Fazenda Lavrinha - Lote 18</name><Placemark><name>Fazenda Lavrinha - Lote 18</name><Polygon><outerBoundaryIs><LinearRing><coordinates>-46.8433436,-11.6787244,0 -46.8434556,-11.6788753,0 -46.8436547,-11.6790183,0 -46.8437669,-11.6793356,0 -46.8440308,-11.6793342,0 -46.8441925,-11.6797167,0 -46.8445053,-11.6796589,0 -46.8447439,-11.6794936,0 -46.8448511,-11.6792458,0 -46.8449369,-11.6788992,0 -46.8451572,-11.6788269,0 -46.8452453,-11.678925,0 -46.8453897,-11.6790169,0 -46.8456906,-11.6791669,0 -46.8459806,-11.6793889,0 -46.8458531,-11.6795986,0 -46.8458819,-11.679755,0 -46.8458861,-11.6798606,0 -46.8457347,-11.6801586,0 -46.84545,-11.6804275,0 -46.8453936,-11.6807606,0 -46.8454097,-11.6810825,0 -46.8453742,-11.6813942,0 -46.8453644,-11.6817942,0 -46.8457331,-11.6818714,0 -46.8458858,-11.6819314,0 -46.8460144,-11.6820486,0 -46.8460989,-11.6821808,0 -46.8461594,-11.6823017,0 -46.8462394,-11.6826908,0 -46.8463792,-11.6827786,0 -46.8463522,-11.6830503,0 -46.8462142,-11.6832114,0 -46.8459944,-11.6831064,0 -46.8459956,-11.6831258,0 -46.8457328,-11.6833314,0 -46.8455856,-11.6835753,0 -46.8455067,-11.6838889,0 -46.8453525,-11.6839522,0 -46.8451053,-11.6839944,0 -46.8449848,-11.684144,0 -46.8448797,-11.6843015,0 -46.8448164,-11.6845114,0 -46.8448153,-11.6845243,0 -46.8447383,-11.6846387,0 -46.8446272,-11.6846497,0 -46.8444331,-11.6846573,0 -46.844154,-11.6846423,0 -46.8438042,-11.6845518,0 -46.843466,-11.68443,0 -46.8434515,-11.68443,0 -46.8432736,-11.684326,0 -46.8429635,-11.6843161,0 -46.8425108,-11.6843559,0 -46.8422727,-11.6845628,0 -46.842,-11.6849295,0 -46.8416521,-11.6852404,0 -46.8412417,-11.6856263,0 -46.8412151,-11.6856444,0 -46.8407255,-11.6859574,0 -46.840717,-11.6859663,0 -46.8405035,-11.6861331,0 -46.8402259,-11.6864946,0 -46.8399536,-11.6870277,0 -46.8398132,-11.6872034,0 -46.8398028,-11.6872192,0 -46.8396281,-11.6873951,0 -46.8394022,-11.6875317,0 -46.8393831,-11.6875517,0 -46.8391298,-11.6876802,0 -46.8391205,-11.6876899,0 -46.8390003,-11.6877338,0 -46.8389542,-11.6877531,0 -46.8387904,-11.6878444,0 -46.8386171,-11.688105,0 -46.8385487,-11.688305,0 -46.8384873,-11.6885758,0 -46.8384565,-11.6888243,0 -46.8382958,-11.6890167,0 -46.8380502,-11.6891865,0 -46.8380225,-11.6892096,0 -46.8378319,-11.6893465,0 -46.8378265,-11.6893521,0 -46.83781,-11.6893746,0 -46.8376188,-11.6895081,0 -46.8375874,-11.6895246,0 -46.8375612,-11.6895411,0 -46.8375403,-11.6895575,0 -46.8373033,-11.689698,0 -46.8368365,-11.6900004,0 -46.8365866,-11.6903323,0 -46.8364434,-11.6905071,0 -46.8364241,-11.6905286,0 -46.8362651,-11.6906635,0 -46.836095,-11.6909661,0 -46.8360952,-11.6909728,0 -46.8359682,-11.6911906,0 -46.8357558,-11.691335,0 -46.8355541,-11.6914513,0 -46.8354108,-11.6915591,0 -46.8352979,-11.6916999,0 -46.8352018,-11.6919069,0 -46.8351214,-11.6921248,0 -46.8350193,-11.692281,0 -46.8349265,-11.6924637,0 -46.8348168,-11.6926417,0 -46.8348131,-11.6926458,0 -46.8347061,-11.6927718,0 -46.8346985,-11.6927758,0 -46.8344472,-11.6929811,0 -46.8343389,-11.6930555,0 -46.8340916,-11.6931317,0 -46.8339817,-11.6933745,0 -46.8309925,-11.6912178,0 -46.8309458,-11.6911683,0 -46.8278956,-11.6898158,0 -46.8277667,-11.6897106,0 -46.8273542,-11.6891406,0 -46.8274044,-11.6883367,0 -46.8277056,-11.6877033,0 -46.8287417,-11.6853331,0 -46.8288108,-11.6851031,0 -46.8289303,-11.6849483,0 -46.82908,-11.6846328,0 -46.8289236,-11.6845253,0 -46.8290044,-11.6843258,0 -46.8291494,-11.6843658,0 -46.8291922,-11.68419,0 -46.8290317,-11.6841928,0 -46.8290744,-11.6840044,0 -46.8293169,-11.6839283,0 -46.8293958,-11.6837947,0 -46.8295228,-11.6838225,0 -46.8296958,-11.6836392,0 -46.8298578,-11.6835011,0 -46.8298956,-11.6833569,0 -46.8301739,-11.6834817,0 -46.8301614,-11.6833769,0 -46.8302,-11.6834136,0 -46.8302575,-11.6831444,0 -46.8304058,-11.6831028,0 -46.8304317,-11.68297,0 -46.8306164,-11.6829147,0 -46.8307639,-11.6827431,0 -46.8311942,-11.6827972,0 -46.8311311,-11.6826342,0 -46.8312594,-11.6825892,0 -46.8312947,-11.6825003,0 -46.8314792,-11.6826089,0 -46.8315686,-11.6825886,0 -46.8318269,-11.6824769,0 -46.8319117,-11.6825544,0 -46.8320747,-11.6824317,0 -46.8321706,-11.6821806,0 -46.8323136,-11.6820853,0 -46.8325225,-11.6822675,0 -46.8326144,-11.6825647,0 -46.8328039,-11.6825978,0 -46.8331603,-11.6829356,0 -46.8332914,-11.6830294,0 -46.8332486,-11.6827381,0 -46.8334106,-11.6827064,0 -46.8336425,-11.6827078,0 -46.8334847,-11.6825114,0 -46.8335314,-11.6824558,0 -46.8337686,-11.6824931,0 -46.8338175,-11.6823231,0 -46.8339358,-11.6823483,0 -46.8339567,-11.6826014,0 -46.8339442,-11.6828981,0 -46.8341353,-11.6827117,0 -46.8343247,-11.6828431,0 -46.8343219,-11.6829975,0 -46.8344572,-11.6829928,0 -46.8345039,-11.6829986,0 -46.8345097,-11.6827558,0 -46.8345258,-11.6826647,0 -46.8347172,-11.6826483,0 -46.8348811,-11.6826033,0 -46.8351164,-11.6826544,0 -46.8354161,-11.6826794,0 -46.8356472,-11.6828003,0 -46.8355703,-11.6828717,0 -46.8354347,-11.6828506,0 -46.8354461,-11.6830111,0 -46.8357317,-11.6830489,0 -46.8360603,-11.6831186,0 -46.8360219,-11.6832492,0 -46.8357475,-11.6832664,0 -46.8355272,-11.6832322,0 -46.8355581,-11.6834403,0 -46.8353531,-11.6836269,0 -46.8353817,-11.6838625,0 -46.8356525,-11.6839747,0 -46.8359297,-11.6840792,0 -46.8361836,-11.6842208,0 -46.8363325,-11.6841283,0 -46.8365214,-11.6842806,0 -46.8366694,-11.6842236,0 -46.8366953,-11.6839183,0 -46.8367892,-11.6839839,0 -46.8368053,-11.6838542,0 -46.8366394,-11.6837583,0 -46.8366372,-11.6836656,0 -46.8368914,-11.6836497,0 -46.8369208,-11.6835486,0 -46.8368647,-11.6834464,0 -46.8368356,-11.6833006,0 -46.8368394,-11.6832889,0 -46.8371533,-11.6832417,0 -46.8369575,-11.6830886,0 -46.83711,-11.6830044,0 -46.8372142,-11.6827733,0 -46.8375117,-11.6827156,0 -46.8377653,-11.6826606,0 -46.8380592,-11.6826414,0 -46.8382811,-11.6823936,0 -46.8381675,-11.6821517,0 -46.8382872,-11.6821142,0 -46.8380997,-11.6819589,0 -46.8380472,-11.68182,0 -46.8382436,-11.6817906,0 -46.8384756,-11.6818297,0 -46.8386144,-11.6820717,0 -46.8387028,-11.6820725,0 -46.8389008,-11.6819417,0 -46.8391014,-11.6819442,0 -46.8391103,-11.6817122,0 -46.83901,-11.6815189,0 -46.8391444,-11.6813831,0 -46.8393411,-11.6812525,0 -46.8394642,-11.6812467,0 -46.8396533,-11.6814008,0 -46.8398211,-11.6814703,0 -46.8399739,-11.6812917,0 -46.8400389,-11.6812047,0 -46.8400078,-11.6809961,0 -46.8399875,-11.6807136,0 -46.8400756,-11.680645,0 -46.84031,-11.6806397,0 -46.8404606,-11.68057,0 -46.8407186,-11.6805783,0 -46.8408736,-11.6804236,0 -46.8406394,-11.6803886,0 -46.8406722,-11.6802806,0 -46.8408553,-11.6802747,0 -46.8410108,-11.680085,0 -46.8411053,-11.6799167,0 -46.8413611,-11.6798156,0 -46.8414992,-11.6795683,0 -46.8416542,-11.6793361,0 -46.8415672,-11.6792403,0 -46.8416619,-11.6790883,0 -46.8417631,-11.6788778,0 -46.8420031,-11.678935,0 -46.8423683,-11.67881,0 -46.8426917,-11.6787108,0 -46.8430133,-11.6786739,0 -46.8433436,-11.6787244,0</coordinates></LinearRing></outerBoundaryIs></Polygon></Placemark></Document></kml>