<?xml version="1.0" encoding="UTF-8"?><kml xmlns="http://www.opengis.net/kml/2.2"><Document><name>Fazenda Cancela</name><Placemark><name>Fazenda Cancela</name><Polygon><outerBoundaryIs><LinearRing><coordinates>-46.8357425,-11.6661436,0 -46.8357525,-11.6662464,0 -46.8359469,-11.6664339,0 -46.8361778,-11.6663825,0 -46.8363394,-11.6662789,0 -46.83639,-11.6664369,0 -46.8367175,-11.6665919,0 -46.8367056,-11.6667547,0 -46.8368558,-11.6667528,0 -46.8370275,-11.6666978,0 -46.8372425,-11.6667758,0 -46.8370814,-11.6669428,0 -46.8368753,-11.6669861,0 -46.8371972,-11.6670364,0 -46.8369208,-11.6671275,0 -46.8368681,-11.6671333,0 -46.8370167,-11.6672103,0 -46.8371206,-11.6672592,0 -46.8372153,-11.6672936,0 -46.8372364,-11.6673086,0 -46.837325,-11.6671756,0 -46.8373425,-11.6671767,0 -46.8374403,-11.6671497,0 -46.8374508,-11.6671425,0 -46.8376606,-11.6672911,0 -46.8376664,-11.6672808,0 -46.8379283,-11.6672722,0 -46.8382011,-11.6673981,0 -46.8384214,-11.6674097,0 -46.8385178,-11.6675572,0 -46.8385636,-11.6675036,0 -46.8387758,-11.6676864,0 -46.8388878,-11.6675592,0 -46.8390403,-11.6676092,0 -46.8392253,-11.6676319,0 -46.8392094,-11.6678083,0 -46.8393494,-11.6679406,0 -46.8393622,-11.6680942,0 -46.8395997,-11.6679947,0 -46.8396781,-11.6680008,0 -46.8397256,-11.6681753,0 -46.83995,-11.6680875,0 -46.8400975,-11.6680372,0 -46.8403936,-11.6677731,0 -46.8404433,-11.6680492,0 -46.8406775,-11.6680175,0 -46.8409297,-11.6678636,0 -46.8409456,-11.66763,0 -46.8411528,-11.6675819,0 -46.8412286,-11.6677986,0 -46.8416425,-11.6676558,0 -46.8417475,-11.6678603,0 -46.8418947,-11.6679342,0 -46.8422175,-11.6676367,0 -46.8423497,-11.6680822,0 -46.8425692,-11.6679036,0 -46.842675,-11.6679431,0 -46.8429408,-11.6678558,0 -46.8431956,-11.6679158,0 -46.8434761,-11.6678619,0 -46.8434394,-11.6682489,0 -46.8433803,-11.6684808,0 -46.8431161,-11.6686519,0 -46.8429128,-11.6685564,0 -46.8427278,-11.6686828,0 -46.8426544,-11.6689789,0 -46.8430872,-11.6694197,0 -46.8432272,-11.6695689,0 -46.8432022,-11.6697992,0 -46.8431136,-11.6698722,0 -46.8432808,-11.6698911,0 -46.8430114,-11.6700622,0 -46.8431344,-11.6703303,0 -46.8430878,-11.6708017,0 -46.8432428,-11.6709042,0 -46.8432353,-11.671105,0 -46.8432872,-11.6713483,0 -46.8436253,-11.6716022,0 -46.8440764,-11.6717883,0 -46.8439314,-11.6719581,0 -46.8436531,-11.6720094,0 -46.84348,-11.6722911,0 -46.8432289,-11.6724139,0 -46.84319,-11.6725578,0 -46.84331,-11.6726556,0 -46.8433125,-11.6730031,0 -46.8432783,-11.6732853,0 -46.8433992,-11.6736358,0 -46.8434681,-11.6739206,0 -46.8432344,-11.6741411,0 -46.8429261,-11.6742575,0 -46.8432394,-11.6744542,0 -46.8429281,-11.674495,0 -46.8433183,-11.6747892,0 -46.8436083,-11.6750022,0 -46.843375,-11.6750944,0 -46.8431761,-11.6753575,0 -46.8429492,-11.6755958,0 -46.8430892,-11.675945,0 -46.8431433,-11.6762136,0 -46.8432564,-11.6764294,0 -46.8435589,-11.6766042,0 -46.8435189,-11.6768464,0 -46.8435681,-11.6770642,0 -46.8437253,-11.6772583,0 -46.8436897,-11.6777128,0 -46.8438536,-11.6780008,0 -46.8437181,-11.6782478,0 -46.8436558,-11.6785061,0 -46.8434569,-11.6787003,0 -46.8433464,-11.6787064,0 -46.8430136,-11.6786558,0 -46.8426881,-11.6786931,0 -46.8423628,-11.6787931,0 -46.8420022,-11.6789161,0 -46.8417528,-11.6788567,0 -46.8416458,-11.6790797,0 -46.8415444,-11.6792425,0 -46.8416311,-11.6793378,0 -46.8414833,-11.6795592,0 -46.8413481,-11.6798011,0 -46.8410925,-11.6799022,0 -46.8409956,-11.680075,0 -46.8408461,-11.6802567,0 -46.8406583,-11.6802628,0 -46.8406156,-11.6804036,0 -46.8408353,-11.6804364,0 -46.8407111,-11.68056,0 -46.8404567,-11.6805517,0 -46.8403056,-11.6806217,0 -46.8400692,-11.6806272,0 -46.8399686,-11.6807053,0 -46.8399897,-11.6809981,0 -46.8400197,-11.6812,0 -46.8399597,-11.6812806,0 -46.8398158,-11.6814483,0 -46.8396628,-11.6813853,0 -46.8394706,-11.6812283,0 -46.8393353,-11.6812347,0 -46.8391325,-11.6813689,0 -46.8389875,-11.6815156,0 -46.8390917,-11.6817161,0 -46.8390836,-11.6819258,0 -46.8388956,-11.6819236,0 -46.8386975,-11.6820542,0 -46.838625,-11.6820536,0 -46.8384872,-11.6818133,0 -46.8382436,-11.6817722,0 -46.8380219,-11.6818056,0 -46.8380842,-11.6819694,0 -46.83825,-11.6821069,0 -46.8381422,-11.6821406,0 -46.8382594,-11.6823906,0 -46.8380506,-11.6826239,0 -46.8377625,-11.6826425,0 -46.8375078,-11.6826978,0 -46.8372011,-11.6827575,0 -46.8370956,-11.6829917,0 -46.8369247,-11.6830861,0 -46.8371089,-11.68323,0 -46.8368258,-11.6832728,0 -46.8368164,-11.6832992,0 -46.8368472,-11.6834525,0 -46.8369011,-11.6835508,0 -46.8368775,-11.6836325,0 -46.8366186,-11.6836486,0 -46.8366214,-11.6837689,0 -46.8367856,-11.6838639,0 -46.8367747,-11.6839517,0 -46.8366797,-11.6838853,0 -46.8366519,-11.6842108,0 -46.8365247,-11.6842597,0 -46.8363339,-11.6841061,0 -46.8361831,-11.6841997,0 -46.8359375,-11.6840628,0 -46.8356594,-11.6839581,0 -46.8353986,-11.6838497,0 -46.8353725,-11.6836339,0 -46.8355778,-11.6834472,0 -46.8355492,-11.6832539,0 -46.8357467,-11.6832844,0 -46.8360358,-11.6832664,0 -46.8360836,-11.683105,0 -46.835735,-11.6830311,0 -46.8354633,-11.6829953,0 -46.8354544,-11.6828719,0 -46.8355761,-11.6828908,0 -46.8356783,-11.6827961,0 -46.8354214,-11.6826619,0 -46.8351189,-11.6826364,0 -46.8348806,-11.6825847,0 -46.8347139,-11.6826306,0 -46.8345103,-11.6826481,0 -46.8344914,-11.6827539,0 -46.8344861,-11.6829783,0 -46.8344581,-11.6829747,0 -46.8343406,-11.6829789,0 -46.8343433,-11.6828339,0 -46.8341333,-11.6826883,0 -46.8339644,-11.6828528,0 -46.833975,-11.6826011,0 -46.8339531,-11.6823336,0 -46.8338044,-11.6823019,0 -46.8337556,-11.6824728,0 -46.8335239,-11.6824364,0 -46.8334611,-11.6825111,0 -46.8336044,-11.6826894,0 -46.8334089,-11.6826883,0 -46.8332281,-11.6827236,0 -46.8332669,-11.6829894,0 -46.8331722,-11.6829217,0 -46.8328125,-11.6825808,0 -46.8326286,-11.6825489,0 -46.8325386,-11.6822575,0 -46.832315,-11.6820622,0 -46.8321553,-11.6821689,0 -46.8320594,-11.6824206,0 -46.8319128,-11.6825308,0 -46.8318306,-11.6824558,0 -46.8315631,-11.6825714,0 -46.8314825,-11.6825897,0 -46.8312856,-11.6824739,0 -46.8312456,-11.6825747,0 -46.8311072,-11.6826231,0 -46.8311661,-11.6827756,0 -46.8307564,-11.6827239,0 -46.8306061,-11.6828989,0 -46.8304158,-11.6829558,0 -46.83039,-11.6830886,0 -46.8302419,-11.68313,0 -46.8301889,-11.6833778,0 -46.8301372,-11.6833286,0 -46.8301519,-11.6834519,0 -46.8298833,-11.6833317,0 -46.8298414,-11.6834911,0 -46.8296831,-11.6836261,0 -46.8295164,-11.6838025,0 -46.8293869,-11.6837744,0 -46.8293047,-11.6839133,0 -46.8290589,-11.6839903,0 -46.8290089,-11.6842111,0 -46.8291689,-11.6842086,0 -46.8291361,-11.6843433,0 -46.8289933,-11.6843039,0 -46.8289011,-11.6845319,0 -46.8290567,-11.6846389,0 -46.8289147,-11.6849392,0 -46.8287964,-11.6850922,0 -46.8286342,-11.6851658,0 -46.8285653,-11.6852183,0 -46.8282408,-11.6852458,0 -46.8279375,-11.6852467,0 -46.8278131,-11.6853889,0 -46.8275286,-11.6854439,0 -46.8272744,-11.6854561,0 -46.8271369,-11.6853786,0 -46.8268678,-11.6852836,0 -46.8266267,-11.6851567,0 -46.8263767,-11.6848642,0 -46.8261119,-11.6846853,0 -46.8258617,-11.6845517,0 -46.8255819,-11.6844983,0 -46.8252867,-11.6847458,0 -46.8251,-11.6847364,0 -46.8250747,-11.6846278,0 -46.8248736,-11.6845531,0 -46.8247081,-11.6843883,0 -46.82442,-11.6843603,0 -46.8242264,-11.6842294,0 -46.8240383,-11.6841492,0 -46.8240169,-11.6841342,0 -46.8233328,-11.6837858,0 -46.8217003,-11.6833064,0 -46.8217433,-11.6826008,0 -46.8212022,-11.6738489,0 -46.8243372,-11.6731858,0 -46.8250778,-11.6724611,0 -46.8252583,-11.6722586,0 -46.8258258,-11.6716061,0 -46.8261128,-11.6714733,0 -46.8262825,-11.6714547,0 -46.8264222,-11.6713314,0 -46.8265797,-11.6712667,0 -46.8267347,-11.6713225,0 -46.8269378,-11.6712244,0 -46.8270725,-11.6710664,0 -46.8272589,-11.6710478,0 -46.8273581,-11.6709256,0 -46.8274661,-11.6708769,0 -46.8274731,-11.6708156,0 -46.8275978,-11.6706583,0 -46.8278133,-11.6706706,0 -46.8279225,-11.6705339,0 -46.8280633,-11.6705036,0 -46.8282081,-11.670515,0 -46.8282764,-11.6702614,0 -46.8283544,-11.6700461,0 -46.8284586,-11.6700064,0 -46.8286575,-11.6699772,0 -46.8286628,-11.6698347,0 -46.8288572,-11.6698028,0 -46.8290258,-11.6698006,0 -46.8290714,-11.6697919,0 -46.8291425,-11.6697069,0 -46.8293922,-11.6696722,0 -46.8293547,-11.6695222,0 -46.8294297,-11.6695042,0 -46.8293811,-11.6694661,0 -46.8296281,-11.6694553,0 -46.8296833,-11.6692603,0 -46.8297622,-11.6691308,0 -46.8296806,-11.6690567,0 -46.8296817,-11.6688775,0 -46.8297506,-11.6688431,0 -46.8298983,-11.6687294,0 -46.8299469,-11.6684808,0 -46.8298139,-11.6684978,0 -46.8297597,-11.6684519,0 -46.8298722,-11.6683719,0 -46.8297886,-11.6682756,0 -46.8298494,-11.6679708,0 -46.8296967,-11.6679256,0 -46.8296681,-11.6678486,0 -46.8296019,-11.6676794,0 -46.8297542,-11.6673911,0 -46.8297769,-11.6673572,0 -46.8298069,-11.6671286,0 -46.8297453,-11.6669594,0 -46.8299367,-11.6670247,0 -46.8298817,-11.6667861,0 -46.8301333,-11.6667575,0 -46.8300339,-11.66649,0 -46.8301972,-11.6664653,0 -46.8304503,-11.6666903,0 -46.8305603,-11.6668125,0 -46.8306706,-11.6668781,0 -46.8307653,-11.6670892,0 -46.8308978,-11.667055,0 -46.8311692,-11.6671225,0 -46.8311456,-11.6672506,0 -46.8314106,-11.6673125,0 -46.8314681,-11.6672167,0 -46.8313969,-11.6669694,0 -46.8314369,-11.6668319,0 -46.8317331,-11.6668017,0 -46.8319761,-11.6667486,0 -46.8321661,-11.6668158,0 -46.8322647,-11.6667769,0 -46.8324442,-11.6667775,0 -46.8326025,-11.6667758,0 -46.8327353,-11.6669192,0 -46.8328814,-11.6671386,0 -46.8330967,-11.6669914,0 -46.8332756,-11.6668636,0 -46.8334494,-11.6667289,0 -46.833515,-11.6666778,0 -46.8336131,-11.6667378,0 -46.8336228,-11.6668103,0 -46.8337994,-11.6668725,0 -46.8338983,-11.6667831,0 -46.8336775,-11.6666378,0 -46.83375,-11.6665167,0 -46.8341075,-11.6662311,0 -46.8344822,-11.6663053,0 -46.8345258,-11.6664817,0 -46.8347633,-11.6664231,0 -46.8351542,-11.6663253,0 -46.8356764,-11.6661728,0 -46.8357425,-11.6661436,0</coordinates></LinearRing></outerBoundaryIs></Polygon></Placemark></Document></kml>