<?xml version="1.0" encoding="UTF-8"?><kml xmlns="http://www.opengis.net/kml/2.2"><Document><name>Fazenda Nogueira</name><Placemark><name>Fazenda Nogueira</name><Polygon><outerBoundaryIs><LinearRing><coordinates>-46.87337512160054,-11.678353386567483,0 -46.8729332433627,-11.678759595561164,0 -46.86654990772837,-11.69074496579566,0 -46.86671516816442,-11.690661724315705,0 -46.86695547785306,-11.690308898785227,0 -46.867314482064444,-11.690670296863145,0 -46.8676065912981,-11.690998865933166,0 -46.868019205266876,-11.69120317499868,0 -46.86842914433394,-11.691213701634382,0 -46.86889006045039,-11.691290242753984,0 -46.86931054122474,-11.69143664801478,0 -46.86968478810983,-11.691636142571257,0 -46.870058323149514,-11.691920789826588,0 -46.870395437222285,-11.692231073992952,0 -46.87056112009911,-11.692661521325425,0 -46.870738444250975,-11.693036301885698,0 -46.871039549886504,-11.693392467481399,0 -46.87129646951462,-11.69379248960602,0 -46.871622924016435,-11.694099135286379,0 -46.87184548032744,-11.694421463768382,0 -46.87218589204156,-11.694744016715727,0 -46.87254354619038,-11.694943705284013,0 -46.873016443491736,-11.694946130050381,0 -46.87344538424315,-11.694985720863258,0 -46.87390459547879,-11.695012368013264,0 -46.87431346273654,-11.694958353121798,0 -46.87472331972903,-11.69480616647926,0 -46.8752463341694,-11.694310837861204,0 -46.87517382968286,-11.694276149946353,0 -46.87505511010347,-11.693888606329587,0 -46.87486295422135,-11.693450471835659,0 -46.87507319062239,-11.69305951153103,0 -46.875001531484905,-11.692591754311634,0 -46.874781493059714,-11.692166818212073,0 -46.87498257966895,-11.691711017083298,0 -46.87531296539301,-11.691484415706663,0 -46.87575773124212,-11.691368879654238,0 -46.87624040846889,-11.6912584280061,0 -46.876599604436365,-11.691251739005809,0 -46.877013169832885,-11.691174550296415,0 -46.87745570741917,-11.691082437627104,0 -46.877914631804074,-11.691149214701886,0 -46.87835202632494,-11.691260152408281,0 -46.878651196286455,-11.691559556071585,0 -46.879063647032005,-11.691684304981479,0 -46.879433023771824,-11.691541778546998,0 -46.87982952366345,-11.691341404530235,0 -46.880288913609604,-11.691246103825543,0 -46.88070949287707,-11.691121318370794,0 -46.88108707178558,-11.690998531828457,0 -46.881558925379686,-11.690915621407422,0 -46.882017588645326,-11.69087591320137,0 -46.88256144914166,-11.691025646356113,0 -46.88291558399516,-11.691288075876177,0 -46.88336382051434,-11.691469619932501,0 -46.88380153618195,-11.691573586725736,0 -46.88419712464134,-11.691632272708869,0 -46.88449657888676,-11.6916339206523,0 -46.88477307306261,-11.691427549581043,0 -46.88519139838086,-11.691105630704465,0 -46.8854921530084,-11.690825250495994,0 -46.88567153906497,-11.690485919896108,0 -46.88579030608946,-11.690147078217127,0 -46.88627196840118,-11.689766078274646,0 -46.88635011303451,-11.689387641413171,0 -46.886529094008736,-11.688988745827185,0 -46.886708116869684,-11.688609645449437,0 -46.88709024358591,-11.688428158498873,0 -46.88720860367177,-11.688029571113372,0 -46.887509444808686,-11.687749188955136,0 -46.887790422126685,-11.687528595014465,0 -46.88797038617479,-11.687288779763126,0 -46.88835246647393,-11.687087315513727,0 -46.88853135171949,-11.686688419892812,0 -46.888753013400034,-11.68664718883532,0 -46.88923664448935,-11.686544574904321,0 -46.88998471473271,-11.68675839246453,0 -46.89010833057161,-11.687135409898834,0 -46.8901312194674,-11.68733249092172,0 -46.89011031129742,-11.68729222417624,0 -46.889890603425506,-11.687297016125909,0 -46.889739039987276,-11.687505098999214,0 -46.88981136154201,-11.687742801281622,0 -46.89015890683821,-11.687898965823708,0 -46.890550125474256,-11.688206517084039,0 -46.8909176966892,-11.688434951232363,0 -46.891292654907204,-11.688495029322647,0 -46.89168207404065,-11.688496709782067,0 -46.89195612265327,-11.68852581582985,0 -46.89219688563756,-11.687326737194919,0 -46.892618450431165,-11.687078998614163,0 -46.89243105520068,-11.68669652812058,0 -46.892075015476784,-11.68595098715743,0 -46.89242829454454,-11.686060379514803,0 -46.89263304198307,-11.686013562592565,0 -46.89279274168464,-11.685829107183121,0 -46.89278195514302,-11.685537217770959,0 -46.892498610076146,-11.68532712166264,0 -46.89229720369349,-11.685109524767162,0 -46.892260522359585,-11.685109947464873,0 -46.87337512160054,-11.678353386567483,0</coordinates></LinearRing></outerBoundaryIs></Polygon></Placemark></Document></kml>