<?xml version="1.0" encoding="UTF-8"?><kml xmlns="http://www.opengis.net/kml/2.2"><Document><name>Cachoeira de Santa Maria</name><Placemark><name>Cachoeira de Santa Maria</name><Polygon><outerBoundaryIs><LinearRing><coordinates>-46.85715679332766,-11.668441517196618,0 -46.858041223312576,-11.676885462543243,0 -46.85509785628923,-11.67948509948098,0 -46.85582144985617,-11.682860633407788,0 -46.855159041922086,-11.686653699909385,0 -46.855335565615654,-11.686526190286715,0 -46.855954165726644,-11.686787489723331,0 -46.85637295773012,-11.687232762886147,0 -46.85697288957547,-11.687541184368543,0 -46.85767042570986,-11.687866417986202,0 -46.857385849109015,-11.688652049274605,0 -46.857853508455385,-11.689231686993216,0 -46.858293568324775,-11.689674468351138,0 -46.858931006352826,-11.689788660660744,0 -46.85939204600178,-11.689815411098262,0 -46.85996061855008,-11.69021975320486,0 -46.86030342362759,-11.690463847532785,0 -46.86030605484568,-11.690459582051343,0 -46.86062376020216,-11.690323560497172,0 -46.86112345732148,-11.690343368212515,0 -46.861623046736135,-11.690154913190293,0 -46.86262151163332,-11.69016542423083,0 -46.863738261442236,-11.69037782120388,0 -46.86426839564641,-11.690231466600075,0 -46.86461864545183,-11.690134911299433,0 -46.865106418725425,-11.69009992190923,0 -46.86551962305505,-11.690474980846904,0 -46.8656428790823,-11.690788922436017,0 -46.8662795055305,-11.690822564009872,0 -46.86654990772837,-11.69074496579566,0 -46.8729332433627,-11.678759595561164,0 -46.87337512160054,-11.678353386567483,0 -46.85715679332766,-11.668441517196618,0</coordinates></LinearRing></outerBoundaryIs></Polygon></Placemark></Document></kml>