<?xml version="1.0" encoding="UTF-8"?><kml xmlns="http://www.opengis.net/kml/2.2"><Document><name>Cabeceira da Buzina</name><Placemark><name>Cabeceira da Buzina</name><Polygon><outerBoundaryIs><LinearRing><coordinates>-46.8501169,-11.6524646,0 -46.8561745,-11.6535803,0 -46.8563116,-11.6536415,0 -46.8576685,-11.6550856,0 -46.8568617,-11.6664348,0 -46.8571565,-11.6684415,0 -46.8580412,-11.6768855,0 -46.8550979,-11.6794851,0 -46.8558214,-11.6828606,0 -46.855159,-11.6866537,0 -46.8549769,-11.6868806,0 -46.8546735,-11.6865126,0 -46.854577,-11.6863339,0 -46.8545647,-11.686303,0 -46.8543659,-11.6860274,0 -46.8541194,-11.6858931,0 -46.8541964,-11.6856248,0 -46.8543734,-11.6852893,0 -46.854376,-11.684921,0 -46.8542296,-11.6845662,0 -46.8540825,-11.684217,0 -46.8541267,-11.6838966,0 -46.8539069,-11.6835932,0 -46.8535799,-11.6835366,0 -46.8531824,-11.6835272,0 -46.8529006,-11.683524,0 -46.8525462,-11.6834665,0 -46.8522101,-11.6833595,0 -46.8519044,-11.6833271,0 -46.8516963,-11.6832929,0 -46.8513968,-11.6833182,0 -46.8511612,-11.6832921,0 -46.8509728,-11.6831608,0 -46.8508515,-11.6832806,0 -46.8506077,-11.6833453,0 -46.8504967,-11.6833394,0 -46.8503214,-11.6832674,0 -46.8501512,-11.6833251,0 -46.8499634,-11.6833713,0 -46.8496819,-11.6834729,0 -46.8494218,-11.683675,0 -46.8491792,-11.6835317,0 -46.8489689,-11.6833556,0 -46.8487978,-11.6831447,0 -46.8486077,-11.6828942,0 -46.8485785,-11.6826119,0 -46.8481167,-11.6827209,0 -46.8478227,-11.6828456,0 -46.8475294,-11.6830296,0 -46.8473366,-11.6832271,0 -46.8472104,-11.683468,0 -46.8470306,-11.683623,0 -46.8466957,-11.6837594,0 -46.8463851,-11.6839287,0 -46.8461481,-11.6840641,0 -46.8460299,-11.6841482,0 -46.8457681,-11.6840767,0 -46.8455275,-11.6839943,0 -46.8455066,-11.6838889,0 -46.8456283,-11.6835927,0 -46.8457677,-11.6833615,0 -46.8460428,-11.6831467,0 -46.8460448,-11.6831806,0 -46.8462262,-11.6832673,0 -46.8463962,-11.6830687,0 -46.8464275,-11.6827555,0 -46.8462805,-11.6826631,0 -46.8462032,-11.6822869,0 -46.8461389,-11.6821586,0 -46.84605,-11.6820196,0 -46.8459107,-11.6818925,0 -46.8457462,-11.6818279,0 -46.8454112,-11.6817576,0 -46.84542,-11.6813971,0 -46.8454558,-11.6810837,0 -46.8454395,-11.6807631,0 -46.8454928,-11.6804499,0 -46.845772,-11.6801857,0 -46.8459322,-11.6798705,0 -46.8459275,-11.6797499,0 -46.8459012,-11.6796072,0 -46.8460408,-11.6793776,0 -46.8457151,-11.6791285,0 -46.8454126,-11.6789776,0 -46.8452755,-11.6788904,0 -46.8451714,-11.6787747,0 -46.8448983,-11.6788642,0 -46.8448073,-11.6792314,0 -46.8447067,-11.679464,0 -46.8444872,-11.6796164,0 -46.8442204,-11.6796655,0 -46.8440613,-11.6792886,0 -46.8437995,-11.6792902,0 -46.8436933,-11.6789901,0 -46.8435015,-11.6788525,0 -46.8434568,-11.6787002,0 -46.8436975,-11.6785292,0 -46.8437611,-11.6782641,0 -46.8439058,-11.6780006,0 -46.8437365,-11.6777026,0 -46.8437724,-11.6772439,0 -46.8436104,-11.677044,0 -46.8435654,-11.6768452,0 -46.8436092,-11.6765809,0 -46.843291,-11.6763971,0 -46.8431868,-11.6761986,0 -46.8431332,-11.6759323,0 -46.8430024,-11.6756059,0 -46.8432113,-11.6753865,0 -46.8434039,-11.6751317,0 -46.8437013,-11.675014,0 -46.843346,-11.6747532,0 -46.8430438,-11.6745254,0 -46.8433701,-11.6744825,0 -46.8430274,-11.6742676,0 -46.8432594,-11.6741799,0 -46.8435186,-11.6739353,0 -46.8434431,-11.6736233,0 -46.8433251,-11.6732805,0 -46.8433582,-11.6730057,0 -46.8433555,-11.6726342,0 -46.8432418,-11.6725414,0 -46.8432677,-11.6724453,0 -46.8435122,-11.6723257,0 -46.8436816,-11.6720502,0 -46.8439558,-11.6719996,0 -46.8441515,-11.6717705,0 -46.8436482,-11.6715627,0 -46.8433284,-11.6713227,0 -46.8432813,-11.6711011,0 -46.8432895,-11.6708808,0 -46.843136,-11.6707791,0 -46.843181,-11.6703225,0 -46.8430693,-11.6700789,0 -46.8434136,-11.6698605,0 -46.8432248,-11.6698392,0 -46.8432457,-11.669822,0 -46.8432749,-11.6695534,0 -46.8431206,-11.6693886,0 -46.842705,-11.6689653,0 -46.8427681,-11.6687102,0 -46.8429171,-11.6686086,0 -46.8431196,-11.6687036,0 -46.8434204,-11.6685088,0 -46.8434838,-11.6682598,0 -46.8435264,-11.6679962,0 -46.8489845,-11.6627264,0 -46.8447211,-11.6573123,0 -46.8461945,-11.656463,0 -46.8461382,-11.6562302,0 -46.8498861,-11.6545632,0 -46.8501169,-11.6524646,0</coordinates></LinearRing></outerBoundaryIs></Polygon></Placemark></Document></kml>