{"type": "FeatureCollection", "features": [{"type": "Feature", "properties": {"NOME": "Área da Propriedade Rural", "codigo_os": "OS 01.04", "sequencial": 30, "origem": "PDF georreferenciado", "area_ha": 269.15001793252344, "area_pdf": 269.1182, "ressalva": "Limite aproximado derivado do PDF Proposta CAR V1 de 22/09/2026, não do SHP original. Área geométrica UTM: 269.1500 ha; área informada na carta: 269.1182 ha. Não constitui levantamento cadastral. Pacote contém somente o limite; obter SHP temático original."}, "geometry": {"type": "Polygon", "coordinates": [[[-47.170817124238155, -11.705649013608562], [-47.17081052417505, -11.705649062760767], [-47.170625974108255, -11.705682957783306], [-47.17036892490546, -11.705730400575607], [-47.17009212592028, -11.705784494760103], [-47.16986802571177, -11.705825187797727], [-47.16978232476592, -11.705838833814282], [-47.16960437550448, -11.705872679084461], [-47.169222125915546, -11.705947069452554], [-47.16883982496103, -11.706014955688037], [-47.16617046311235, -11.706509607915967], [-47.16427224710961, -11.706861924597627], [-47.16375154099632, -11.706956848859477], [-47.16357358907563, -11.706990690637532], [-47.162182870300825, -11.707248168437578], [-47.159875981173386, -11.707675034848227], [-47.157779986331356, -11.708061297584363], [-47.15760863305432, -11.708095087036856], [-47.15545987707359, -11.708488228476636], [-47.15495236249366, -11.708583040161287], [-47.15103779323589, -11.708546913939768], [-47.15168024786767, -11.7096608958642], [-47.1518212656774, -11.709965552479586], [-47.15257123244243, -11.711319392823173], [-47.15328191159621, -11.712712545326704], [-47.153081377851485, -11.714905942713077], [-47.15302771783446, -11.715634810078997], [-47.152953845219486, -11.716311792990567], [-47.152556557282985, -11.720340829529475], [-47.152464095796034, -11.720335008923279], [-47.149558445946425, -11.720187363212592], [-47.14790058861413, -11.720063007708113], [-47.1470353301051, -11.71999784204709], [-47.1470353812786, -11.720004345788468], [-47.14692388520341, -11.720096227099157], [-47.14685838960702, -11.720161752233354], [-47.146812491390314, -11.720201115863217], [-47.14672750065694, -11.720305809957258], [-47.14668825408186, -11.720351628658253], [-47.14662930772407, -11.720410601358179], [-47.146584126307786, -11.720541018988461], [-47.14666389817238, -11.720611977337503], [-47.14668390496949, -11.720637846870343], [-47.14683577313894, -11.720643231382772], [-47.146947832359345, -11.720622892306292], [-47.1469873342446, -11.720609592823793], [-47.147132448318324, -11.720595514623797], [-47.147277664727675, -11.72059444383281], [-47.14741633178771, -11.72059992538334], [-47.14750249961061, -11.720644819283601], [-47.14752240410257, -11.720657681265601], [-47.147576233718745, -11.720787368223068], [-47.14757730872442, -11.720923948902774], [-47.147499021610415, -11.721041602544119], [-47.14737411900113, -11.721107565934002], [-47.14736751791879, -11.721107614614665], [-47.14724916513753, -11.721167024997564], [-47.147144321019105, -11.7212653615185], [-47.14710568860189, -11.721389226796923], [-47.14709924160943, -11.721408787231855], [-47.147112647966985, -11.721434704845874], [-47.14716617052162, -11.721525369440466], [-47.14729844171502, -11.72155691514458], [-47.14743680211548, -11.721523373624668], [-47.147535711157175, -11.721509635908108], [-47.147575264306596, -11.721502839524378], [-47.14772703049157, -11.721495216001445], [-47.147872247314176, -11.721494144826318], [-47.14801091478657, -11.721499626007182], [-47.14814973532533, -11.72152461887354], [-47.14827555964146, -11.721575724550288], [-47.14836229122681, -11.72169216027936], [-47.1483237111195, -11.721822529365111], [-47.14825862526639, -11.721940085250276], [-47.14825309961275, -11.722076714562698], [-47.148235141042065, -11.722310998931224], [-47.14823524346992, -11.72232400694351], [-47.1482429712652, -11.722467042577984], [-47.14824404675423, -11.722603623181648], [-47.14827812619263, -11.722739960256005], [-47.14831220567588, -11.722876297319187], [-47.148352834559695, -11.723006081929773], [-47.148386862915345, -11.723135915235407], [-47.148440642374986, -11.723259098120275], [-47.14854702384637, -11.723355876335036], [-47.14866000597333, -11.723452605780544], [-47.14866665778266, -11.723459060797156], [-47.14871388809312, -11.723588796586494], [-47.148675359285036, -11.72372566945361], [-47.148590419191805, -11.723836867880781], [-47.148465413891614, -11.723889824439777], [-47.14834045920711, -11.72394928469031], [-47.14820890385963, -11.724008793061534], [-47.14810405870298, -11.724107130049097], [-47.14808533191475, -11.724243856772869], [-47.14812596101395, -11.72437364138769], [-47.14822574228569, -11.72447046836739], [-47.14836476925735, -11.724521475795171], [-47.14849719566415, -11.724572532405222], [-47.14864916887906, -11.724590923571727], [-47.14878159534557, -11.724641979492807], [-47.14890742069489, -11.724693084616865], [-47.14902030106399, -11.724776805790672], [-47.14908723177394, -11.724893387781961], [-47.14910821279539, -11.725042829544408], [-47.14911589012005, -11.7251793613078], [-47.14910376449017, -11.725316039279598], [-47.149157647339635, -11.725452229883812], [-47.14927047686636, -11.725529447157964], [-47.149402955132146, -11.725587006959993], [-47.14955472385506, -11.725579382081492], [-47.149706594526364, -11.725584764582644], [-47.149872179650494, -11.725655087842782], [-47.14987883209498, -11.725661542811993], [-47.14999826250184, -11.725738711535627], [-47.150104491151176, -11.725815977178337], [-47.15016497578447, -11.725952118720967], [-47.150172653179986, -11.726088650356367], [-47.15017372995345, -11.726225230751684], [-47.15009544242468, -11.726342884595292], [-47.15006356612018, -11.726486213078168], [-47.15013049831219, -11.726602794116952], [-47.15023693247995, -11.726706075082046], [-47.15036291338009, -11.72677669051518], [-47.1504758463344, -11.726866915142347], [-47.15057573135607, -11.726976748434739], [-47.15066896395854, -11.727080126736746], [-47.150775399055775, -11.727183407426683], [-47.150894932967745, -11.72727358305226], [-47.150988166340106, -11.72737696120569], [-47.15110104842685, -11.72746068124113], [-47.15123352791368, -11.727518239958668], [-47.15136600744654, -11.727575798604947], [-47.151459189777654, -11.727672672835029], [-47.15151302305708, -11.727802358972406], [-47.15153875921619, -11.727717613800056], [-47.15157723597731, -11.727574237010241], [-47.15162226206152, -11.72742430770157], [-47.1516673394202, -11.727280881569174], [-47.15176542891871, -11.727163080959354], [-47.15186331306238, -11.727019264917748], [-47.15198156413611, -11.726946844405724], [-47.152099815138385, -11.726874423313323], [-47.15225122494129, -11.726821270339029], [-47.1523693218211, -11.726729338009877], [-47.1525140276135, -11.726663225766229], [-47.152658784665064, -11.7266036177173], [-47.15277688129974, -11.726511685258336], [-47.15290152769818, -11.726413200220131], [-47.15299301517471, -11.72629544815788], [-47.15311745601918, -11.726170947662713], [-47.153262109951406, -11.72609833140832], [-47.15335999295061, -11.725954515046181], [-47.15345148063569, -11.725836762348347], [-47.15357633189374, -11.725764292491526], [-47.1536945819164, -11.725691871437038], [-47.153812831871896, -11.725619450344093], [-47.15393768291946, -11.725546980362106], [-47.15410873924332, -11.725474168380416], [-47.154273349508415, -11.725420916285096], [-47.15441841309542, -11.725400330309643], [-47.154543212471665, -11.725321355858451], [-47.15468827651313, -11.72530076975447], [-47.154832929477834, -11.725228152852582], [-47.15497773650357, -11.725175047005258], [-47.15514935748563, -11.72517377631756], [-47.155294575520024, -11.725172701037796], [-47.15544035887373, -11.725243167500423], [-47.15558598810011, -11.725294122768593], [-47.15573120615553, -11.725293047256109], [-47.15587621857725, -11.725265956324028], [-47.1560212309578, -11.725238865323274], [-47.156166294711696, -11.72521827849559], [-47.15629784821228, -11.725158766122284], [-47.15642935023191, -11.725092749999401], [-47.156580448806544, -11.725000571772698], [-47.156697926749686, -11.724830592571582], [-47.15676960971361, -11.724712986386741], [-47.15686764458995, -11.724588680306825], [-47.15698568790208, -11.724490242791399], [-47.15710378201076, -11.724398309483435], [-47.15722821998973, -11.724273807656454], [-47.15732630594957, -11.724156005716337], [-47.15744434835839, -11.724057568073762], [-47.15758920551243, -11.724010964788524], [-47.157707093434475, -11.723893015982418], [-47.15783194246157, -11.723820544606193], [-47.15794998453202, -11.72372210680928], [-47.15806823231151, -11.723649684288981], [-47.15809463559581, -11.723649488543689], [-47.15822562186866, -11.723518433787822], [-47.15836315765321, -11.723380826357753], [-47.1583818278209, -11.72323759616167], [-47.158453509701154, -11.723119989198407], [-47.158452377692704, -11.72297690583015], [-47.158477648898895, -11.722833626693369], [-47.15852272220621, -11.722690200732911], [-47.15852159020407, -11.72254711736692], [-47.15859322043879, -11.72242300671456], [-47.15859208842643, -11.722279923352568], [-47.158617359555755, -11.72213664367893], [-47.158642630126295, -11.721993364552343], [-47.15866109491408, -11.72182411905863], [-47.15868636546215, -11.72168083993427], [-47.15871148218248, -11.721518049193389], [-47.15871127636479, -11.72149203388938], [-47.15876238394177, -11.721277017320833], [-47.15882009249954, -11.721061951809624], [-47.15887119996995, -11.720846935244452], [-47.15892287339439, -11.720703459812912], [-47.15892174138016, -11.720560376465016], [-47.158966814289215, -11.720416950518882], [-47.1590648468761, -11.72029264409118], [-47.15916293084147, -11.720174841875439], [-47.159254362807026, -11.720050584355405], [-47.15930603595158, -11.719907109450155], [-47.15937771734833, -11.719789502988133], [-47.15944842033689, -11.719548323736543], [-47.159566666032276, -11.719475900958836], [-47.159684912210494, -11.719403478138696], [-47.159809552325896, -11.719304991039225], [-47.1599277983578, -11.719232568141782], [-47.16005264420343, -11.719160096249198], [-47.16017089009881, -11.719087673272618], [-47.16028913537704, -11.719015250261727], [-47.16043378338442, -11.71894263133021], [-47.16055862949117, -11.718870159257463], [-47.160802132447124, -11.718777293966465], [-47.160946574183534, -11.718678659549191], [-47.1610648190463, -11.718606236281952], [-47.161236023281305, -11.71855293266896], [-47.16138123727159, -11.718551854910231], [-47.16152629672489, -11.718531265496807], [-47.1616977073668, -11.718503976342957], [-47.1618425606905, -11.718457372063854], [-47.162007009646366, -11.71838460545493], [-47.16217841955071, -11.71835731604096], [-47.16232342724857, -11.718330222574751], [-47.16246848643658, -11.718309633257606], [-47.16261328792991, -11.718256524410998], [-47.162757934756385, -11.718183904476884], [-47.162902581497335, -11.718111284482632], [-47.1630474343149, -11.718064679663668], [-47.16319208089275, -11.717992059004779], [-47.16331692567816, -11.717919585925467], [-47.16346193239335, -11.71789249248696], [-47.163606991164784, -11.717871902104914], [-47.16375199834654, -11.717844807982576], [-47.1638047520568, -11.717837911965283], [-47.16387725535264, -11.717824365138773], [-47.16388385573503, -11.71782431609517], [-47.16389040510492, -11.717817762835537], [-47.1638970054871, -11.717817713791657], [-47.16403701117871, -11.717159753849018], [-47.16407934843464, -11.716671627727154], [-47.16424281840616, -11.71481022424696], [-47.164520666353866, -11.71155608158611], [-47.16490988635275, -11.711527173663146], [-47.17030625500212, -11.711135803229489], [-47.170531349100465, -11.708727597007885], [-47.170592133621795, -11.708070226943024], [-47.17078675782593, -11.705980950714519], [-47.170810730842554, -11.705675077884406], [-47.170817124238155, -11.705649013608562], [-47.170817124238155, -11.705649013608562]]]}}]}