<?xml version="1.0" encoding="UTF-8"?><kml xmlns="http://www.opengis.net/kml/2.2"><Document><Placemark><name>30 - OS.01-04 - Fazenda Matheus Lopes Sul (limite aproximado)</name><description>Limite aproximado derivado do PDF Proposta CAR V1 de 22/09/2026, não do SHP original. Área geométrica UTM: 269.1500 ha; área informada na carta: 269.1182 ha. Não constitui levantamento cadastral. Pacote contém somente o limite; obter SHP temático original.</description><Polygon><outerBoundaryIs><LinearRing><coordinates>-47.1708171242382,-11.7056490136086 -47.1708105241751,-11.7056490627608 -47.1706259741083,-11.7056829577833 -47.1703689249055,-11.7057304005756 -47.1700921259203,-11.7057844947601 -47.1698680257118,-11.7058251877977 -47.1697823247659,-11.7058388338143 -47.1696043755045,-11.7058726790845 -47.1692221259155,-11.7059470694526 -47.168839824961,-11.706014955688 -47.1661704631124,-11.706509607916 -47.1642722471096,-11.7068619245976 -47.1637515409963,-11.7069568488595 -47.1635735890756,-11.7069906906375 -47.1621828703008,-11.7072481684376 -47.1598759811734,-11.7076750348482 -47.1577799863314,-11.7080612975844 -47.1576086330543,-11.7080950870369 -47.1554598770736,-11.7084882284766 -47.1549523624937,-11.7085830401613 -47.1510377932359,-11.7085469139398 -47.1516802478677,-11.7096608958642 -47.1518212656774,-11.7099655524796 -47.1525712324424,-11.7113193928232 -47.1532819115962,-11.7127125453267 -47.1530813778515,-11.7149059427131 -47.1530277178345,-11.715634810079 -47.1529538452195,-11.7163117929906 -47.152556557283,-11.7203408295295 -47.152464095796,-11.7203350089233 -47.1495584459464,-11.7201873632126 -47.1479005886141,-11.7200630077081 -47.1470353301051,-11.7199978420471 -47.1470353812786,-11.7200043457885 -47.1469238852034,-11.7200962270992 -47.146858389607,-11.7201617522334 -47.1468124913903,-11.7202011158632 -47.1467275006569,-11.7203058099573 -47.1466882540819,-11.7203516286583 -47.1466293077241,-11.7204106013582 -47.1465841263078,-11.7205410189885 -47.1466638981724,-11.7206119773375 -47.1466839049695,-11.7206378468703 -47.1468357731389,-11.7206432313828 -47.1469478323593,-11.7206228923063 -47.1469873342446,-11.7206095928238 -47.1471324483183,-11.7205955146238 -47.1472776647277,-11.7205944438328 -47.1474163317877,-11.7205999253833 -47.1475024996106,-11.7206448192836 -47.1475224041026,-11.7206576812656 -47.1475762337187,-11.7207873682231 -47.1475773087244,-11.7209239489028 -47.1474990216104,-11.7210416025441 -47.1473741190011,-11.721107565934 -47.1473675179188,-11.7211076146147 -47.1472491651375,-11.7211670249976 -47.1471443210191,-11.7212653615185 -47.1471056886019,-11.7213892267969 -47.1470992416094,-11.7214087872319 -47.147112647967,-11.7214347048459 -47.1471661705216,-11.7215253694405 -47.147298441715,-11.7215569151446 -47.1474368021155,-11.7215233736247 -47.1475357111572,-11.7215096359081 -47.1475752643066,-11.7215028395244 -47.1477270304916,-11.7214952160014 -47.1478722473142,-11.7214941448263 -47.1480109147866,-11.7214996260072 -47.1481497353253,-11.7215246188735 -47.1482755596415,-11.7215757245503 -47.1483622912268,-11.7216921602794 -47.1483237111195,-11.7218225293651 -47.1482586252664,-11.7219400852503 -47.1482530996128,-11.7220767145627 -47.1482351410421,-11.7223109989312 -47.1482352434699,-11.7223240069435 -47.1482429712652,-11.722467042578 -47.1482440467542,-11.7226036231816 -47.1482781261926,-11.722739960256 -47.1483122056759,-11.7228762973192 -47.1483528345597,-11.7230060819298 -47.1483868629153,-11.7231359152354 -47.148440642375,-11.7232590981203 -47.1485470238464,-11.723355876335 -47.1486600059733,-11.7234526057805 -47.1486666577827,-11.7234590607972 -47.1487138880931,-11.7235887965865 -47.148675359285,-11.7237256694536 -47.1485904191918,-11.7238368678808 -47.1484654138916,-11.7238898244398 -47.1483404592071,-11.7239492846903 -47.1482089038596,-11.7240087930615 -47.148104058703,-11.7241071300491 -47.1480853319147,-11.7242438567729 -47.148125961014,-11.7243736413877 -47.1482257422857,-11.7244704683674 -47.1483647692573,-11.7245214757952 -47.1484971956641,-11.7245725324052 -47.1486491688791,-11.7245909235717 -47.1487815953456,-11.7246419794928 -47.1489074206949,-11.7246930846169 -47.149020301064,-11.7247768057907 -47.1490872317739,-11.724893387782 -47.1491082127954,-11.7250428295444 -47.1491158901201,-11.7251793613078 -47.1491037644902,-11.7253160392796 -47.1491576473396,-11.7254522298838 -47.1492704768664,-11.725529447158 -47.1494029551321,-11.72558700696 -47.1495547238551,-11.7255793820815 -47.1497065945264,-11.7255847645826 -47.1498721796505,-11.7256550878428 -47.149878832095,-11.725661542812 -47.1499982625018,-11.7257387115356 -47.1501044911512,-11.7258159771783 -47.1501649757845,-11.725952118721 -47.15017265318,-11.7260886503564 -47.1501737299535,-11.7262252307517 -47.1500954424247,-11.7263428845953 -47.1500635661202,-11.7264862130782 -47.1501304983122,-11.726602794117 -47.1502369324799,-11.726706075082 -47.1503629133801,-11.7267766905152 -47.1504758463344,-11.7268669151423 -47.1505757313561,-11.7269767484347 -47.1506689639585,-11.7270801267367 -47.1507753990558,-11.7271834074267 -47.1508949329677,-11.7272735830523 -47.1509881663401,-11.7273769612057 -47.1511010484269,-11.7274606812411 -47.1512335279137,-11.7275182399587 -47.1513660074465,-11.7275757986049 -47.1514591897777,-11.727672672835 -47.1515130230571,-11.7278023589724 -47.1515387592162,-11.7277176138001 -47.1515772359773,-11.7275742370102 -47.1516222620615,-11.7274243077016 -47.1516673394202,-11.7272808815692 -47.1517654289187,-11.7271630809594 -47.1518633130624,-11.7270192649177 -47.1519815641361,-11.7269468444057 -47.1520998151384,-11.7268744233133 -47.1522512249413,-11.726821270339 -47.1523693218211,-11.7267293380099 -47.1525140276135,-11.7266632257662 -47.1526587846651,-11.7266036177173 -47.1527768812997,-11.7265116852583 -47.1529015276982,-11.7264132002201 -47.1529930151747,-11.7262954481579 -47.1531174560192,-11.7261709476627 -47.1532621099514,-11.7260983314083 -47.1533599929506,-11.7259545150462 -47.1534514806357,-11.7258367623483 -47.1535763318937,-11.7257642924915 -47.1536945819164,-11.725691871437 -47.1538128318719,-11.7256194503441 -47.1539376829195,-11.7255469803621 -47.1541087392433,-11.7254741683804 -47.1542733495084,-11.7254209162851 -47.1544184130954,-11.7254003303096 -47.1545432124717,-11.7253213558585 -47.1546882765131,-11.7253007697545 -47.1548329294778,-11.7252281528526 -47.1549777365036,-11.7251750470053 -47.1551493574856,-11.7251737763176 -47.15529457552,-11.7251727010378 -47.1554403588737,-11.7252431675004 -47.1555859881001,-11.7252941227686 -47.1557312061555,-11.7252930472561 -47.1558762185772,-11.725265956324 -47.1560212309578,-11.7252388653233 -47.1561662947117,-11.7252182784956 -47.1562978482123,-11.7251587661223 -47.1564293502319,-11.7250927499994 -47.1565804488065,-11.7250005717727 -47.1566979267497,-11.7248305925716 -47.1567696097136,-11.7247129863867 -47.15686764459,-11.7245886803068 -47.1569856879021,-11.7244902427914 -47.1571037820108,-11.7243983094834 -47.1572282199897,-11.7242738076565 -47.1573263059496,-11.7241560057163 -47.1574443483584,-11.7240575680738 -47.1575892055124,-11.7240109647885 -47.1577070934345,-11.7238930159824 -47.1578319424616,-11.7238205446062 -47.157949984532,-11.7237221068093 -47.1580682323115,-11.723649684289 -47.1580946355958,-11.7236494885437 -47.1582256218687,-11.7235184337878 -47.1583631576532,-11.7233808263578 -47.1583818278209,-11.7232375961617 -47.1584535097012,-11.7231199891984 -47.1584523776927,-11.7229769058301 -47.1584776488989,-11.7228336266934 -47.1585227222062,-11.7226902007329 -47.1585215902041,-11.7225471173669 -47.1585932204388,-11.7224230067146 -47.1585920884264,-11.7222799233526 -47.1586173595558,-11.7221366436789 -47.1586426301263,-11.7219933645523 -47.1586610949141,-11.7218241190586 -47.1586863654622,-11.7216808399343 -47.1587114821825,-11.7215180491934 -47.1587112763648,-11.7214920338894 -47.1587623839418,-11.7212770173208 -47.1588200924995,-11.7210619518096 -47.15887119997,-11.7208469352445 -47.1589228733944,-11.7207034598129 -47.1589217413802,-11.720560376465 -47.1589668142892,-11.7204169505189 -47.1590648468761,-11.7202926440912 -47.1591629308415,-11.7201748418754 -47.159254362807,-11.7200505843554 -47.1593060359516,-11.7199071094502 -47.1593777173483,-11.7197895029881 -47.1594484203369,-11.7195483237365 -47.1595666660323,-11.7194759009588 -47.1596849122105,-11.7194034781387 -47.1598095523259,-11.7193049910392 -47.1599277983578,-11.7192325681418 -47.1600526442034,-11.7191600962492 -47.1601708900988,-11.7190876732726 -47.160289135377,-11.7190152502617 -47.1604337833844,-11.7189426313302 -47.1605586294912,-11.7188701592575 -47.1608021324471,-11.7187772939665 -47.1609465741835,-11.7186786595492 -47.1610648190463,-11.718606236282 -47.1612360232813,-11.718552932669 -47.1613812372716,-11.7185518549102 -47.1615262967249,-11.7185312654968 -47.1616977073668,-11.718503976343 -47.1618425606905,-11.7184573720639 -47.1620070096464,-11.7183846054549 -47.1621784195507,-11.718357316041 -47.1623234272486,-11.7183302225748 -47.1624684864366,-11.7183096332576 -47.1626132879299,-11.718256524411 -47.1627579347564,-11.7181839044769 -47.1629025814973,-11.7181112844826 -47.1630474343149,-11.7180646796637 -47.1631920808927,-11.7179920590048 -47.1633169256782,-11.7179195859255 -47.1634619323934,-11.717892492487 -47.1636069911648,-11.7178719021049 -47.1637519983465,-11.7178448079826 -47.1638047520568,-11.7178379119653 -47.1638772553526,-11.7178243651388 -47.163883855735,-11.7178243160952 -47.1638904051049,-11.7178177628355 -47.1638970054871,-11.7178177137917 -47.1640370111787,-11.717159753849 -47.1640793484346,-11.7166716277272 -47.1642428184062,-11.714810224247 -47.1645206663539,-11.7115560815861 -47.1649098863528,-11.7115271736631 -47.1703062550021,-11.7111358032295 -47.1705313491005,-11.7087275970079 -47.1705921336218,-11.708070226943 -47.1707867578259,-11.7059809507145 -47.1708107308426,-11.7056750778844 -47.1708171242382,-11.7056490136086 -47.1708171242382,-11.7056490136086</coordinates></LinearRing></outerBoundaryIs></Polygon></Placemark></Document></kml>